<?xml version="1.0" encoding="UTF-8"?>
<osm version="0.6" generator="CGImap 0.8.10 (2780079 spike-08.openstreetmap.org)" copyright="OpenStreetMap and contributors" attribution="http://www.openstreetmap.org/copyright" license="http://opendatacommons.org/licenses/odbl/1-0/">
 <bounds minlat="49.0090508" minlon="5.2954102" maxlat="49.0162567" maxlon="5.3063965"/>
 <node id="670172631" visible="true" version="5" changeset="128774519" timestamp="2022-11-11T12:21:11Z" user="user_5589" uid="5589" lat="48.9263174" lon="5.8962905">
  <tag k="description" v="Pylône métallique No65, support de ligne électrique : Axe et sommet - Point vu en place en 2001"/>
  <tag k="ele" v="347.02"/>
  <tag k="man_made" v="survey_point"/>
  <tag k="note" v="Ne pas déplacer ce point, cf. - Do not move this node, see - http://wiki.openstreetmap.org/wiki/WikiProject_France/Repères_Géodésiques#Permanence_des_rep.C3.A8res"/>
  <tag k="operator" v="RTE"/>
  <tag k="operator:wikidata" v="Q2178795"/>
  <tag k="power" v="tower"/>
  <tag k="ref" v="5456403 - 1"/>
  <tag k="source" v="©IGN 2010 dans le cadre de la cartographie réglementaire"/>
  <tag k="url" v="http://geodesie.ign.fr/fiches/index.php?module=e&amp;action=fichepdf&amp;source=carte&amp;sit_no=5456403"/>
 </node>
 <node id="670174789" visible="true" version="2" changeset="45308340" timestamp="2017-01-19T21:11:43Z" user="PanierAvide" uid="214436" lat="49.0106725" lon="5.3048079">
  <tag k="description" v="Borne en granit gravée IGN - Point non retrouvé en 2004"/>
  <tag k="ele" v="318.63"/>
  <tag k="man_made" v="survey_point"/>
  <tag k="note" v="Ne pas déplacer ce point, cf. - Do not move this node, see - http://wiki.openstreetmap.org/wiki/WikiProject_France/Repères_Géodésiques#Permanence_des_rep.C3.A8res"/>
  <tag k="ref" v="5549803 - 1"/>
  <tag k="source" v="©IGN 2010 dans le cadre de la cartographie réglementaire"/>
  <tag k="url" v="http://geodesie.ign.fr/fiches/index.php?module=e&amp;action=fichepdf&amp;source=carte&amp;sit_no=5549803"/>
 </node>
 <node id="740927671" visible="true" version="1" changeset="4757030" timestamp="2010-05-20T13:16:09Z" user="Gustry" uid="86289" lat="48.9870210" lon="5.3049700"/>
 <node id="801613964" visible="true" version="2" changeset="118363795" timestamp="2022-03-11T13:14:43Z" user="Test360" uid="1418137" lat="49.0114435" lon="5.2979046"/>
 <node id="801614351" visible="true" version="1" changeset="5138489" timestamp="2010-07-05T01:51:00Z" user="FrViPofm" uid="107257" lat="49.0076989" lon="5.2947173"/>
 <node id="801615043" visible="true" version="1" changeset="5138489" timestamp="2010-07-05T01:51:21Z" user="FrViPofm" uid="107257" lat="49.0112532" lon="5.2958076"/>
 <node id="801615637" visible="true" version="2" changeset="117483534" timestamp="2022-02-16T16:14:35Z" user="Max-Kritic" uid="414659" lat="49.0082785" lon="5.2982066"/>
 <node id="801616641" visible="true" version="2" changeset="118363795" timestamp="2022-03-11T13:14:43Z" user="Test360" uid="1418137" lat="49.0090930" lon="5.2992028"/>
 <node id="801617190" visible="true" version="2" changeset="118363795" timestamp="2022-03-11T13:14:43Z" user="Test360" uid="1418137" lat="49.0115702" lon="5.3013325"/>
 <node id="801617751" visible="true" version="2" changeset="118363795" timestamp="2022-03-11T13:14:43Z" user="Test360" uid="1418137" lat="49.0079178" lon="5.2929693"/>
 <node id="801619169" visible="true" version="2" changeset="118363795" timestamp="2022-03-11T13:14:43Z" user="Test360" uid="1418137" lat="49.0101099" lon="5.2910113"/>
 <node id="801619695" visible="true" version="1" changeset="5138489" timestamp="2010-07-05T01:54:38Z" user="FrViPofm" uid="107257" lat="49.0114208" lon="5.2923987"/>
 <node id="801620061" visible="true" version="2" changeset="118363795" timestamp="2022-03-11T13:14:43Z" user="Test360" uid="1418137" lat="49.0106905" lon="5.2969605"/>
 <node id="801620598" visible="true" version="2" changeset="117483534" timestamp="2022-02-16T16:14:35Z" user="Max-Kritic" uid="414659" lat="49.0076930" lon="5.2961132"/>
 <node id="801620937" visible="true" version="2" changeset="117483534" timestamp="2022-02-16T16:14:35Z" user="Max-Kritic" uid="414659" lat="49.0089342" lon="5.2989431"/>
 <node id="801621287" visible="true" version="2" changeset="118363795" timestamp="2022-03-11T13:14:43Z" user="Test360" uid="1418137" lat="49.0108840" lon="5.2911186"/>
 <node id="801621497" visible="true" version="2" changeset="118363795" timestamp="2022-03-11T13:14:43Z" user="Test360" uid="1418137" lat="49.0102401" lon="5.3016329"/>
 <node id="801621850" visible="true" version="1" changeset="5138489" timestamp="2010-07-05T01:57:39Z" user="FrViPofm" uid="107257" lat="49.0113033" lon="5.2937847"/>
 <node id="801622301" visible="true" version="2" changeset="118363795" timestamp="2022-03-11T13:14:43Z" user="Test360" uid="1418137" lat="49.0105111" lon="5.3016704"/>
 <node id="1547061150" visible="true" version="4" changeset="129093375" timestamp="2022-11-18T16:25:27Z" user="user_5589" uid="5589" lat="48.9457722" lon="5.6185705">
  <tag k="operator" v="RTE"/>
  <tag k="operator:wikidata" v="Q2178795"/>
  <tag k="power" v="tower"/>
 </node>
 <node id="1780628728" visible="true" version="3" changeset="128774519" timestamp="2022-11-11T12:21:11Z" user="user_5589" uid="5589" lat="48.9364216" lon="5.7018024">
  <tag k="operator" v="RTE"/>
  <tag k="operator:wikidata" v="Q2178795"/>
  <tag k="power" v="tower"/>
 </node>
 <node id="1780628730" visible="true" version="4" changeset="128774519" timestamp="2022-11-11T12:21:11Z" user="user_5589" uid="5589" lat="48.9383794" lon="5.6807799">
  <tag k="operator" v="RTE"/>
  <tag k="operator:wikidata" v="Q2178795"/>
  <tag k="power" v="tower"/>
 </node>
 <node id="1780628731" visible="true" version="4" changeset="128774519" timestamp="2022-11-11T12:21:11Z" user="user_5589" uid="5589" lat="48.9393753" lon="5.6725989">
  <tag k="operator" v="RTE"/>
  <tag k="operator:wikidata" v="Q2178795"/>
  <tag k="power" v="tower"/>
 </node>
 <node id="1780628733" visible="true" version="5" changeset="128774519" timestamp="2022-11-11T12:21:11Z" user="user_5589" uid="5589" lat="48.9404985" lon="5.6630921">
  <tag k="operator" v="RTE"/>
  <tag k="operator:wikidata" v="Q2178795"/>
  <tag k="power" v="tower"/>
  <tag k="ref" v="109"/>
  <tag k="source" v="data.gouv.fr:RTE - 12/2018"/>
 </node>
 <node id="1780628734" visible="true" version="4" changeset="128774519" timestamp="2022-11-11T12:21:11Z" user="user_5589" uid="5589" lat="48.9414447" lon="5.6550857">
  <tag k="operator" v="RTE"/>
  <tag k="operator:wikidata" v="Q2178795"/>
  <tag k="power" v="tower"/>
 </node>
 <node id="1780628735" visible="true" version="3" changeset="128774519" timestamp="2022-11-11T12:21:11Z" user="user_5589" uid="5589" lat="48.9423813" lon="5.6469729">
  <tag k="operator" v="RTE"/>
  <tag k="operator:wikidata" v="Q2178795"/>
  <tag k="power" v="tower"/>
 </node>
 <node id="1780628737" visible="true" version="4" changeset="129093375" timestamp="2022-11-18T16:25:27Z" user="user_5589" uid="5589" lat="48.9426662" lon="5.6447365">
  <tag k="operator" v="RTE"/>
  <tag k="operator:wikidata" v="Q2178795"/>
  <tag k="power" v="tower"/>
 </node>
 <node id="1780628738" visible="true" version="3" changeset="129093375" timestamp="2022-11-18T16:25:27Z" user="user_5589" uid="5589" lat="48.9433856" lon="5.6389514">
  <tag k="operator" v="RTE"/>
  <tag k="operator:wikidata" v="Q2178795"/>
  <tag k="power" v="tower"/>
 </node>
 <node id="1780628739" visible="true" version="3" changeset="129093375" timestamp="2022-11-18T16:25:27Z" user="user_5589" uid="5589" lat="48.9438013" lon="5.6351824">
  <tag k="operator" v="RTE"/>
  <tag k="operator:wikidata" v="Q2178795"/>
  <tag k="power" v="tower"/>
 </node>
 <node id="1780628740" visible="true" version="3" changeset="129093375" timestamp="2022-11-18T16:25:27Z" user="user_5589" uid="5589" lat="48.9442917" lon="5.6312499">
  <tag k="operator" v="RTE"/>
  <tag k="operator:wikidata" v="Q2178795"/>
  <tag k="power" v="tower"/>
 </node>
 <node id="1780628742" visible="true" version="3" changeset="129093375" timestamp="2022-11-18T16:25:27Z" user="user_5589" uid="5589" lat="48.9447634" lon="5.6268907">
  <tag k="operator" v="RTE"/>
  <tag k="operator:wikidata" v="Q2178795"/>
  <tag k="power" v="tower"/>
 </node>
 <node id="1780628743" visible="true" version="3" changeset="129093375" timestamp="2022-11-18T16:25:27Z" user="user_5589" uid="5589" lat="48.9453846" lon="5.6216995">
  <tag k="operator" v="RTE"/>
  <tag k="operator:wikidata" v="Q2178795"/>
  <tag k="power" v="tower"/>
 </node>
 <node id="1780628745" visible="true" version="3" changeset="129093375" timestamp="2022-11-18T16:25:27Z" user="user_5589" uid="5589" lat="48.9471930" lon="5.6097649">
  <tag k="operator" v="RTE"/>
  <tag k="operator:wikidata" v="Q2178795"/>
  <tag k="power" v="tower"/>
 </node>
 <node id="1780628747" visible="true" version="3" changeset="129093375" timestamp="2022-11-18T16:25:27Z" user="user_5589" uid="5589" lat="48.9480615" lon="5.6051689">
  <tag k="operator" v="RTE"/>
  <tag k="operator:wikidata" v="Q2178795"/>
  <tag k="power" v="tower"/>
 </node>
 <node id="1780628748" visible="true" version="3" changeset="129093375" timestamp="2022-11-18T16:25:27Z" user="user_5589" uid="5589" lat="48.9488144" lon="5.6010607">
  <tag k="operator" v="RTE"/>
  <tag k="operator:wikidata" v="Q2178795"/>
  <tag k="power" v="tower"/>
 </node>
 <node id="1780628749" visible="true" version="3" changeset="129093375" timestamp="2022-11-18T16:25:27Z" user="user_5589" uid="5589" lat="48.9493599" lon="5.5982748">
  <tag k="operator" v="RTE"/>
  <tag k="operator:wikidata" v="Q2178795"/>
  <tag k="power" v="tower"/>
 </node>
 <node id="1780628751" visible="true" version="4" changeset="129093375" timestamp="2022-11-18T16:25:27Z" user="user_5589" uid="5589" lat="48.9502383" lon="5.5935184">
  <tag k="operator" v="RTE"/>
  <tag k="operator:wikidata" v="Q2178795"/>
  <tag k="power" v="tower"/>
 </node>
 <node id="1780628752" visible="true" version="4" changeset="129093375" timestamp="2022-11-18T16:25:27Z" user="user_5589" uid="5589" lat="48.9504190" lon="5.5890548">
  <tag k="operator" v="RTE"/>
  <tag k="operator:wikidata" v="Q2178795"/>
  <tag k="power" v="tower"/>
 </node>
 <node id="1780628753" visible="true" version="4" changeset="129093375" timestamp="2022-11-18T16:25:27Z" user="user_5589" uid="5589" lat="48.9508081" lon="5.5866174">
  <tag k="operator" v="RTE"/>
  <tag k="operator:wikidata" v="Q2178795"/>
  <tag k="power" v="tower"/>
 </node>
 <node id="1780628754" visible="true" version="4" changeset="129093375" timestamp="2022-11-18T16:25:27Z" user="user_5589" uid="5589" lat="48.9515019" lon="5.5823660">
  <tag k="operator" v="RTE"/>
  <tag k="operator:wikidata" v="Q2178795"/>
  <tag k="power" v="tower"/>
 </node>
 <node id="1780628755" visible="true" version="4" changeset="129093375" timestamp="2022-11-18T16:25:27Z" user="user_5589" uid="5589" lat="48.9522488" lon="5.5783947">
  <tag k="operator" v="RTE"/>
  <tag k="operator:wikidata" v="Q2178795"/>
  <tag k="power" v="tower"/>
 </node>
 <node id="1780628757" visible="true" version="4" changeset="129093375" timestamp="2022-11-18T16:25:27Z" user="user_5589" uid="5589" lat="48.9533697" lon="5.5768779">
  <tag k="operator" v="RTE"/>
  <tag k="operator:wikidata" v="Q2178795"/>
  <tag k="power" v="tower"/>
 </node>
 <node id="1780628758" visible="true" version="4" changeset="129093375" timestamp="2022-11-18T16:25:27Z" user="user_5589" uid="5589" lat="48.9541736" lon="5.5726236">
  <tag k="operator" v="RTE"/>
  <tag k="operator:wikidata" v="Q2178795"/>
  <tag k="power" v="tower"/>
 </node>
 <node id="1780628760" visible="true" version="4" changeset="129093375" timestamp="2022-11-18T16:25:27Z" user="user_5589" uid="5589" lat="48.9549131" lon="5.5686328">
  <tag k="operator" v="RTE"/>
  <tag k="operator:wikidata" v="Q2178795"/>
  <tag k="power" v="tower"/>
 </node>
 <node id="1780628761" visible="true" version="4" changeset="129093375" timestamp="2022-11-18T16:25:27Z" user="user_5589" uid="5589" lat="48.9555919" lon="5.5650264">
  <tag k="operator" v="RTE"/>
  <tag k="operator:wikidata" v="Q2178795"/>
  <tag k="power" v="tower"/>
 </node>
 <node id="1780628762" visible="true" version="4" changeset="129093375" timestamp="2022-11-18T16:25:27Z" user="user_5589" uid="5589" lat="48.9562830" lon="5.5613115">
  <tag k="operator" v="RTE"/>
  <tag k="operator:wikidata" v="Q2178795"/>
  <tag k="power" v="tower"/>
 </node>
 <node id="1780628764" visible="true" version="4" changeset="129093375" timestamp="2022-11-18T16:25:27Z" user="user_5589" uid="5589" lat="48.9569180" lon="5.5579682">
  <tag k="operator" v="RTE"/>
  <tag k="operator:wikidata" v="Q2178795"/>
  <tag k="power" v="tower"/>
 </node>
 <node id="1780628765" visible="true" version="3" changeset="129093375" timestamp="2022-11-18T16:25:27Z" user="user_5589" uid="5589" lat="48.9575736" lon="5.5544545">
  <tag k="operator" v="RTE"/>
  <tag k="operator:wikidata" v="Q2178795"/>
  <tag k="power" v="tower"/>
 </node>
 <node id="1780628766" visible="true" version="4" changeset="129093375" timestamp="2022-11-18T16:25:27Z" user="user_5589" uid="5589" lat="48.9582005" lon="5.5511840">
  <tag k="operator" v="RTE"/>
  <tag k="operator:wikidata" v="Q2178795"/>
  <tag k="power" v="tower"/>
 </node>
 <node id="1780628767" visible="true" version="3" changeset="129093375" timestamp="2022-11-18T16:25:27Z" user="user_5589" uid="5589" lat="48.9587952" lon="5.5479880">
  <tag k="operator" v="RTE"/>
  <tag k="operator:wikidata" v="Q2178795"/>
  <tag k="power" v="tower"/>
 </node>
 <node id="1780628768" visible="true" version="3" changeset="129093375" timestamp="2022-11-18T16:25:27Z" user="user_5589" uid="5589" lat="48.9596405" lon="5.5434523">
  <tag k="operator" v="RTE"/>
  <tag k="operator:wikidata" v="Q2178795"/>
  <tag k="power" v="tower"/>
 </node>
 <node id="1780628770" visible="true" version="3" changeset="129093375" timestamp="2022-11-18T16:25:27Z" user="user_5589" uid="5589" lat="48.9602810" lon="5.5399224">
  <tag k="operator" v="RTE"/>
  <tag k="operator:wikidata" v="Q2178795"/>
  <tag k="power" v="tower"/>
 </node>
 <node id="1780628771" visible="true" version="3" changeset="129093375" timestamp="2022-11-18T16:25:27Z" user="user_5589" uid="5589" lat="48.9610733" lon="5.5358997">
  <tag k="operator" v="RTE"/>
  <tag k="operator:wikidata" v="Q2178795"/>
  <tag k="power" v="tower"/>
 </node>
 <node id="1780628772" visible="true" version="3" changeset="129093375" timestamp="2022-11-18T16:25:27Z" user="user_5589" uid="5589" lat="48.9618855" lon="5.5315048">
  <tag k="operator" v="RTE"/>
  <tag k="operator:wikidata" v="Q2178795"/>
  <tag k="power" v="tower"/>
 </node>
 <node id="1780628773" visible="true" version="3" changeset="129093375" timestamp="2022-11-18T16:25:27Z" user="user_5589" uid="5589" lat="48.9626911" lon="5.5273212">
  <tag k="operator" v="RTE"/>
  <tag k="operator:wikidata" v="Q2178795"/>
  <tag k="power" v="tower"/>
 </node>
 <node id="1780628775" visible="true" version="3" changeset="129093375" timestamp="2022-11-18T16:25:27Z" user="user_5589" uid="5589" lat="48.9633513" lon="5.5234895">
  <tag k="operator" v="RTE"/>
  <tag k="operator:wikidata" v="Q2178795"/>
  <tag k="power" v="tower"/>
 </node>
 <node id="1780628776" visible="true" version="3" changeset="129093375" timestamp="2022-11-18T16:25:27Z" user="user_5589" uid="5589" lat="48.9643021" lon="5.5186220">
  <tag k="operator" v="RTE"/>
  <tag k="operator:wikidata" v="Q2178795"/>
  <tag k="power" v="tower"/>
 </node>
 <node id="1780628777" visible="true" version="3" changeset="129093375" timestamp="2022-11-18T16:25:27Z" user="user_5589" uid="5589" lat="48.9648633" lon="5.5156653">
  <tag k="operator" v="RTE"/>
  <tag k="operator:wikidata" v="Q2178795"/>
  <tag k="power" v="tower"/>
 </node>
 <node id="1780628778" visible="true" version="3" changeset="129093375" timestamp="2022-11-18T16:25:27Z" user="user_5589" uid="5589" lat="48.9651010" lon="5.5145188">
  <tag k="operator" v="RTE"/>
  <tag k="operator:wikidata" v="Q2178795"/>
  <tag k="power" v="tower"/>
 </node>
 <node id="1780628779" visible="true" version="3" changeset="129093375" timestamp="2022-11-18T16:25:27Z" user="user_5589" uid="5589" lat="48.9657151" lon="5.5110894">
  <tag k="operator" v="RTE"/>
  <tag k="operator:wikidata" v="Q2178795"/>
  <tag k="power" v="tower"/>
 </node>
 <node id="1780628780" visible="true" version="3" changeset="129093375" timestamp="2022-11-18T16:25:27Z" user="user_5589" uid="5589" lat="48.9662697" lon="5.5080221">
  <tag k="operator" v="RTE"/>
  <tag k="operator:wikidata" v="Q2178795"/>
  <tag k="power" v="tower"/>
 </node>
 <node id="1780628781" visible="true" version="3" changeset="129093375" timestamp="2022-11-18T16:25:27Z" user="user_5589" uid="5589" lat="48.9668639" lon="5.5049648">
  <tag k="operator" v="RTE"/>
  <tag k="operator:wikidata" v="Q2178795"/>
  <tag k="power" v="tower"/>
 </node>
 <node id="1780628783" visible="true" version="3" changeset="129093375" timestamp="2022-11-18T16:25:27Z" user="user_5589" uid="5589" lat="48.9674675" lon="5.5017117">
  <tag k="operator" v="RTE"/>
  <tag k="operator:wikidata" v="Q2178795"/>
  <tag k="power" v="tower"/>
 </node>
 <node id="1780628784" visible="true" version="3" changeset="129093375" timestamp="2022-11-18T16:25:27Z" user="user_5589" uid="5589" lat="48.9680601" lon="5.4984960">
  <tag k="operator" v="RTE"/>
  <tag k="operator:wikidata" v="Q2178795"/>
  <tag k="power" v="tower"/>
 </node>
 <node id="1780628785" visible="true" version="3" changeset="129093375" timestamp="2022-11-18T16:25:27Z" user="user_5589" uid="5589" lat="48.9686670" lon="5.4952959">
  <tag k="operator" v="RTE"/>
  <tag k="operator:wikidata" v="Q2178795"/>
  <tag k="power" v="tower"/>
 </node>
 <node id="1780628787" visible="true" version="3" changeset="129093375" timestamp="2022-11-18T16:25:27Z" user="user_5589" uid="5589" lat="48.9695447" lon="5.4908016">
  <tag k="operator" v="RTE"/>
  <tag k="operator:wikidata" v="Q2178795"/>
  <tag k="power" v="tower"/>
 </node>
 <node id="1780628788" visible="true" version="3" changeset="129093375" timestamp="2022-11-18T16:25:27Z" user="user_5589" uid="5589" lat="48.9700983" lon="5.4877901">
  <tag k="operator" v="RTE"/>
  <tag k="operator:wikidata" v="Q2178795"/>
  <tag k="power" v="tower"/>
 </node>
 <node id="1780628789" visible="true" version="3" changeset="129093375" timestamp="2022-11-18T16:25:27Z" user="user_5589" uid="5589" lat="48.9708405" lon="5.4837793">
  <tag k="operator" v="RTE"/>
  <tag k="operator:wikidata" v="Q2178795"/>
  <tag k="power" v="tower"/>
 </node>
 <node id="1780628791" visible="true" version="3" changeset="129093375" timestamp="2022-11-18T16:25:27Z" user="user_5589" uid="5589" lat="48.9715268" lon="5.4801810">
  <tag k="operator" v="RTE"/>
  <tag k="operator:wikidata" v="Q2178795"/>
  <tag k="power" v="tower"/>
 </node>
 <node id="1780628792" visible="true" version="3" changeset="129093375" timestamp="2022-11-18T16:25:27Z" user="user_5589" uid="5589" lat="48.9724790" lon="5.4750040">
  <tag k="operator" v="RTE"/>
  <tag k="operator:wikidata" v="Q2178795"/>
  <tag k="power" v="tower"/>
 </node>
 <node id="1780628793" visible="true" version="3" changeset="129093375" timestamp="2022-11-18T16:25:27Z" user="user_5589" uid="5589" lat="48.9729972" lon="5.4719533">
  <tag k="operator" v="RTE"/>
  <tag k="operator:wikidata" v="Q2178795"/>
  <tag k="power" v="tower"/>
 </node>
 <node id="1780628795" visible="true" version="3" changeset="129093375" timestamp="2022-11-18T16:25:27Z" user="user_5589" uid="5589" lat="48.9736694" lon="5.4685186">
  <tag k="operator" v="RTE"/>
  <tag k="operator:wikidata" v="Q2178795"/>
  <tag k="power" v="tower"/>
 </node>
 <node id="1780628796" visible="true" version="3" changeset="129093375" timestamp="2022-11-18T16:25:27Z" user="user_5589" uid="5589" lat="48.9744162" lon="5.4644722">
  <tag k="operator" v="RTE"/>
  <tag k="operator:wikidata" v="Q2178795"/>
  <tag k="power" v="tower"/>
 </node>
 <node id="1780628797" visible="true" version="3" changeset="129093375" timestamp="2022-11-18T16:25:27Z" user="user_5589" uid="5589" lat="48.9753218" lon="5.4597930">
  <tag k="operator" v="RTE"/>
  <tag k="operator:wikidata" v="Q2178795"/>
  <tag k="power" v="tower"/>
 </node>
 <node id="1780628799" visible="true" version="3" changeset="129093375" timestamp="2022-11-18T16:25:27Z" user="user_5589" uid="5589" lat="48.9759659" lon="5.4560525">
  <tag k="operator" v="RTE"/>
  <tag k="operator:wikidata" v="Q2178795"/>
  <tag k="power" v="tower"/>
 </node>
 <node id="1780628800" visible="true" version="3" changeset="129093375" timestamp="2022-11-18T16:25:27Z" user="user_5589" uid="5589" lat="48.9769228" lon="5.4509324">
  <tag k="operator" v="RTE"/>
  <tag k="operator:wikidata" v="Q2178795"/>
  <tag k="power" v="tower"/>
 </node>
 <node id="1780628801" visible="true" version="3" changeset="129093375" timestamp="2022-11-18T16:25:27Z" user="user_5589" uid="5589" lat="48.9774549" lon="5.4482230">
  <tag k="operator" v="RTE"/>
  <tag k="operator:wikidata" v="Q2178795"/>
  <tag k="power" v="tower"/>
 </node>
 <node id="1780628802" visible="true" version="3" changeset="129093375" timestamp="2022-11-18T16:25:27Z" user="user_5589" uid="5589" lat="48.9780430" lon="5.4451367">
  <tag k="operator" v="RTE"/>
  <tag k="operator:wikidata" v="Q2178795"/>
  <tag k="power" v="tower"/>
 </node>
 <node id="1780628804" visible="true" version="3" changeset="129093375" timestamp="2022-11-18T16:25:27Z" user="user_5589" uid="5589" lat="48.9788271" lon="5.4414744">
  <tag k="operator" v="RTE"/>
  <tag k="operator:wikidata" v="Q2178795"/>
  <tag k="power" v="tower"/>
 </node>
 <node id="1780628805" visible="true" version="3" changeset="129093375" timestamp="2022-11-18T16:25:27Z" user="user_5589" uid="5589" lat="48.9798119" lon="5.4358210">
  <tag k="operator" v="RTE"/>
  <tag k="operator:wikidata" v="Q2178795"/>
  <tag k="power" v="tower"/>
 </node>
 <node id="1780628806" visible="true" version="3" changeset="129093375" timestamp="2022-11-18T16:25:27Z" user="user_5589" uid="5589" lat="48.9805540" lon="5.4316253">
  <tag k="operator" v="RTE"/>
  <tag k="operator:wikidata" v="Q2178795"/>
  <tag k="power" v="tower"/>
 </node>
 <node id="1780628809" visible="true" version="3" changeset="129093375" timestamp="2022-11-18T16:25:27Z" user="user_5589" uid="5589" lat="48.9813101" lon="5.4277070">
  <tag k="operator" v="RTE"/>
  <tag k="operator:wikidata" v="Q2178795"/>
  <tag k="power" v="tower"/>
 </node>
 <node id="1780628810" visible="true" version="3" changeset="129093375" timestamp="2022-11-18T16:25:27Z" user="user_5589" uid="5589" lat="48.9818235" lon="5.4246136">
  <tag k="operator" v="RTE"/>
  <tag k="operator:wikidata" v="Q2178795"/>
  <tag k="power" v="tower"/>
 </node>
 <node id="1780628811" visible="true" version="3" changeset="129474245" timestamp="2022-11-28T12:11:24Z" user="user_5589" uid="5589" lat="48.9822362" lon="5.2561154">
  <tag k="operator" v="RTE"/>
  <tag k="operator:wikidata" v="Q2178795"/>
  <tag k="power" v="tower"/>
 </node>
 <node id="1780628812" visible="true" version="3" changeset="129093375" timestamp="2022-11-18T16:25:27Z" user="user_5589" uid="5589" lat="48.9824209" lon="5.4215558">
  <tag k="operator" v="RTE"/>
  <tag k="operator:wikidata" v="Q2178795"/>
  <tag k="power" v="tower"/>
 </node>
 <node id="1780628813" visible="true" version="3" changeset="129093375" timestamp="2022-11-18T16:25:27Z" user="user_5589" uid="5589" lat="48.9832516" lon="5.4174668">
  <tag k="operator" v="RTE"/>
  <tag k="operator:wikidata" v="Q2178795"/>
  <tag k="power" v="tower"/>
 </node>
 <node id="1780628814" visible="true" version="3" changeset="129093375" timestamp="2022-11-18T16:25:27Z" user="user_5589" uid="5589" lat="48.9837976" lon="5.4143094">
  <tag k="operator" v="RTE"/>
  <tag k="operator:wikidata" v="Q2178795"/>
  <tag k="power" v="tower"/>
 </node>
 <node id="1780628816" visible="true" version="3" changeset="129093375" timestamp="2022-11-18T16:25:27Z" user="user_5589" uid="5589" lat="48.9847543" lon="5.4090755">
  <tag k="operator" v="RTE"/>
  <tag k="operator:wikidata" v="Q2178795"/>
  <tag k="power" v="tower"/>
 </node>
 <node id="1780628817" visible="true" version="3" changeset="129093375" timestamp="2022-11-18T16:25:27Z" user="user_5589" uid="5589" lat="48.9853750" lon="5.4055981">
  <tag k="operator" v="RTE"/>
  <tag k="operator:wikidata" v="Q2178795"/>
  <tag k="power" v="tower"/>
 </node>
 <node id="1780628818" visible="true" version="3" changeset="129474245" timestamp="2022-11-28T12:11:24Z" user="user_5589" uid="5589" lat="48.9861104" lon="5.2615964">
  <tag k="operator" v="RTE"/>
  <tag k="operator:wikidata" v="Q2178795"/>
  <tag k="power" v="tower"/>
 </node>
 <node id="1780628819" visible="true" version="3" changeset="129093375" timestamp="2022-11-18T16:25:27Z" user="user_5589" uid="5589" lat="48.9861124" lon="5.4019856">
  <tag k="operator" v="RTE"/>
  <tag k="operator:wikidata" v="Q2178795"/>
  <tag k="power" v="tower"/>
 </node>
 <node id="1780628821" visible="true" version="3" changeset="129093375" timestamp="2022-11-18T16:25:27Z" user="user_5589" uid="5589" lat="48.9870037" lon="5.3974415">
  <tag k="operator" v="RTE"/>
  <tag k="operator:wikidata" v="Q2178795"/>
  <tag k="power" v="tower"/>
 </node>
 <node id="1780628822" visible="true" version="3" changeset="129093375" timestamp="2022-11-18T16:25:27Z" user="user_5589" uid="5589" lat="48.9880443" lon="5.3916885">
  <tag k="operator" v="RTE"/>
  <tag k="operator:wikidata" v="Q2178795"/>
  <tag k="power" v="tower"/>
 </node>
 <node id="1780628823" visible="true" version="3" changeset="129093375" timestamp="2022-11-18T16:25:27Z" user="user_5589" uid="5589" lat="48.9885063" lon="5.3893417">
  <tag k="operator" v="RTE"/>
  <tag k="operator:wikidata" v="Q2178795"/>
  <tag k="power" v="tower"/>
 </node>
 <node id="1780628824" visible="true" version="3" changeset="129474245" timestamp="2022-11-28T12:11:24Z" user="user_5589" uid="5589" lat="48.9888987" lon="5.2651867">
  <tag k="operator" v="RTE"/>
  <tag k="operator:wikidata" v="Q2178795"/>
  <tag k="power" v="tower"/>
 </node>
 <node id="1780628826" visible="true" version="3" changeset="129093375" timestamp="2022-11-18T16:25:27Z" user="user_5589" uid="5589" lat="48.9892156" lon="5.3856652">
  <tag k="operator" v="RTE"/>
  <tag k="operator:wikidata" v="Q2178795"/>
  <tag k="power" v="tower"/>
 </node>
 <node id="1780628827" visible="true" version="3" changeset="129093375" timestamp="2022-11-18T16:25:27Z" user="user_5589" uid="5589" lat="48.9901349" lon="5.3810784">
  <tag k="operator" v="RTE"/>
  <tag k="operator:wikidata" v="Q2178795"/>
  <tag k="power" v="tower"/>
 </node>
 <node id="1780628828" visible="true" version="3" changeset="129093375" timestamp="2022-11-18T16:25:27Z" user="user_5589" uid="5589" lat="48.9911662" lon="5.3757734">
  <tag k="operator" v="RTE"/>
  <tag k="operator:wikidata" v="Q2178795"/>
  <tag k="power" v="tower"/>
 </node>
 <node id="1780628830" visible="true" version="3" changeset="129093375" timestamp="2022-11-18T16:25:27Z" user="user_5589" uid="5589" lat="48.9917868" lon="5.3727156">
  <tag k="operator" v="RTE"/>
  <tag k="operator:wikidata" v="Q2178795"/>
  <tag k="power" v="tower"/>
 </node>
 <node id="1780628831" visible="true" version="3" changeset="129093375" timestamp="2022-11-18T16:25:27Z" user="user_5589" uid="5589" lat="48.9924122" lon="5.3689593">
  <tag k="operator" v="RTE"/>
  <tag k="operator:wikidata" v="Q2178795"/>
  <tag k="power" v="tower"/>
 </node>
 <node id="1780628832" visible="true" version="3" changeset="129093375" timestamp="2022-11-18T16:25:27Z" user="user_5589" uid="5589" lat="48.9931915" lon="5.3648419">
  <tag k="operator" v="RTE"/>
  <tag k="operator:wikidata" v="Q2178795"/>
  <tag k="power" v="tower"/>
 </node>
 <node id="1780628834" visible="true" version="3" changeset="129474245" timestamp="2022-11-28T12:11:24Z" user="user_5589" uid="5589" lat="48.9938942" lon="5.2704665">
  <tag k="operator" v="RTE"/>
  <tag k="operator:wikidata" v="Q2178795"/>
  <tag k="power" v="tower"/>
 </node>
 <node id="1780628835" visible="true" version="3" changeset="129093375" timestamp="2022-11-18T16:25:27Z" user="user_5589" uid="5589" lat="48.9941247" lon="5.3599636">
  <tag k="operator" v="RTE"/>
  <tag k="operator:wikidata" v="Q2178795"/>
  <tag k="power" v="tower"/>
 </node>
 <node id="1780628836" visible="true" version="3" changeset="129093375" timestamp="2022-11-18T16:25:27Z" user="user_5589" uid="5589" lat="48.9948152" lon="5.3563866">
  <tag k="operator" v="RTE"/>
  <tag k="operator:wikidata" v="Q2178795"/>
  <tag k="power" v="tower"/>
 </node>
 <node id="1780628837" visible="true" version="3" changeset="129093375" timestamp="2022-11-18T16:25:27Z" user="user_5589" uid="5589" lat="48.9957624" lon="5.3514869">
  <tag k="operator" v="RTE"/>
  <tag k="operator:wikidata" v="Q2178795"/>
  <tag k="power" v="tower"/>
 </node>
 <node id="1780628838" visible="true" version="3" changeset="129474245" timestamp="2022-11-28T12:11:24Z" user="user_5589" uid="5589" lat="48.9959892" lon="5.2726740">
  <tag k="operator" v="RTE"/>
  <tag k="operator:wikidata" v="Q2178795"/>
  <tag k="power" v="tower"/>
 </node>
 <node id="1780628840" visible="true" version="3" changeset="129093375" timestamp="2022-11-18T16:25:27Z" user="user_5589" uid="5589" lat="48.9964716" lon="5.3477322">
  <tag k="operator" v="RTE"/>
  <tag k="operator:wikidata" v="Q2178795"/>
  <tag k="power" v="tower"/>
 </node>
 <node id="1780628841" visible="true" version="3" changeset="129093375" timestamp="2022-11-18T16:25:27Z" user="user_5589" uid="5589" lat="48.9972321" lon="5.3448379">
  <tag k="operator" v="RTE"/>
  <tag k="operator:wikidata" v="Q2178795"/>
  <tag k="power" v="tower"/>
 </node>
 <node id="1780628842" visible="true" version="3" changeset="129093375" timestamp="2022-11-18T16:25:27Z" user="user_5589" uid="5589" lat="48.9989024" lon="5.3383098">
  <tag k="operator" v="RTE"/>
  <tag k="operator:wikidata" v="Q2178795"/>
  <tag k="power" v="tower"/>
 </node>
 <node id="1780628844" visible="true" version="3" changeset="129093375" timestamp="2022-11-18T16:25:27Z" user="user_5589" uid="5589" lat="49.0000361" lon="5.3339506">
  <tag k="operator" v="RTE"/>
  <tag k="operator:wikidata" v="Q2178795"/>
  <tag k="power" v="tower"/>
 </node>
 <node id="1780628845" visible="true" version="3" changeset="129093375" timestamp="2022-11-18T16:25:27Z" user="user_5589" uid="5589" lat="49.0007779" lon="5.3310634">
  <tag k="operator" v="RTE"/>
  <tag k="operator:wikidata" v="Q2178795"/>
  <tag k="power" v="tower"/>
 </node>
 <node id="1780628846" visible="true" version="3" changeset="129474245" timestamp="2022-11-28T12:11:24Z" user="user_5589" uid="5589" lat="49.0013467" lon="5.2783018">
  <tag k="operator" v="RTE"/>
  <tag k="operator:wikidata" v="Q2178795"/>
  <tag k="power" v="tower"/>
 </node>
 <node id="1780628847" visible="true" version="3" changeset="129093375" timestamp="2022-11-18T16:25:27Z" user="user_5589" uid="5589" lat="49.0020422" lon="5.3261780">
  <tag k="operator" v="RTE"/>
  <tag k="operator:wikidata" v="Q2178795"/>
  <tag k="power" v="tower"/>
 </node>
 <node id="1780628849" visible="true" version="3" changeset="129093375" timestamp="2022-11-18T16:25:27Z" user="user_5589" uid="5589" lat="49.0032131" lon="5.3216196">
  <tag k="operator" v="RTE"/>
  <tag k="operator:wikidata" v="Q2178795"/>
  <tag k="power" v="tower"/>
 </node>
 <node id="1780628850" visible="true" version="3" changeset="129093375" timestamp="2022-11-18T16:25:27Z" user="user_5589" uid="5589" lat="49.0039269" lon="5.3188462">
  <tag k="operator" v="RTE"/>
  <tag k="operator:wikidata" v="Q2178795"/>
  <tag k="power" v="tower"/>
 </node>
 <node id="1780628851" visible="true" version="3" changeset="129093375" timestamp="2022-11-18T16:25:27Z" user="user_5589" uid="5589" lat="49.0051304" lon="5.3142453">
  <tag k="operator" v="RTE"/>
  <tag k="operator:wikidata" v="Q2178795"/>
  <tag k="power" v="tower"/>
 </node>
 <node id="1780628852" visible="true" version="3" changeset="129474245" timestamp="2022-11-28T12:11:24Z" user="user_5589" uid="5589" lat="49.0057595" lon="5.2829272">
  <tag k="operator" v="RTE"/>
  <tag k="operator:wikidata" v="Q2178795"/>
  <tag k="power" v="tower"/>
 </node>
 <node id="1780628853" visible="true" version="3" changeset="129093375" timestamp="2022-11-18T16:25:27Z" user="user_5589" uid="5589" lat="49.0062080" lon="5.3100567">
  <tag k="operator" v="RTE"/>
  <tag k="operator:wikidata" v="Q2178795"/>
  <tag k="power" v="tower"/>
 </node>
 <node id="1780628854" visible="true" version="3" changeset="129093375" timestamp="2022-11-18T16:25:27Z" user="user_5589" uid="5589" lat="49.0070850" lon="5.3066291">
  <tag k="operator" v="RTE"/>
  <tag k="operator:wikidata" v="Q2178795"/>
  <tag k="power" v="tower"/>
 </node>
 <node id="1780628855" visible="true" version="3" changeset="129093375" timestamp="2022-11-18T16:25:27Z" user="user_5589" uid="5589" lat="49.0080646" lon="5.3028530">
  <tag k="operator" v="RTE"/>
  <tag k="operator:wikidata" v="Q2178795"/>
  <tag k="power" v="tower"/>
 </node>
 <node id="1780628856" visible="true" version="4" changeset="129093375" timestamp="2022-11-18T16:25:27Z" user="user_5589" uid="5589" lat="49.0087883" lon="5.2998900">
  <tag k="operator" v="RTE"/>
  <tag k="operator:wikidata" v="Q2178795"/>
  <tag k="power" v="tower"/>
  <tag k="ref" v="14"/>
 </node>
 <node id="1780628857" visible="true" version="4" changeset="129093375" timestamp="2022-11-18T16:25:27Z" user="user_5589" uid="5589" lat="49.0095027" lon="5.2971226">
  <tag k="operator" v="RTE"/>
  <tag k="operator:wikidata" v="Q2178795"/>
  <tag k="power" v="tower"/>
  <tag k="ref" v="13"/>
 </node>
 <node id="1780628859" visible="true" version="4" changeset="129474245" timestamp="2022-11-28T12:11:24Z" user="user_5589" uid="5589" lat="49.0097952" lon="5.2871785">
  <tag k="operator" v="RTE"/>
  <tag k="operator:wikidata" v="Q2178795"/>
  <tag k="power" v="tower"/>
 </node>
 <node id="1780628860" visible="true" version="4" changeset="129093375" timestamp="2022-11-18T16:25:27Z" user="user_5589" uid="5589" lat="49.0102504" lon="5.2941981">
  <tag k="operator" v="RTE"/>
  <tag k="operator:wikidata" v="Q2178795"/>
  <tag k="power" v="tower"/>
  <tag k="ref" v="12"/>
 </node>
 <node id="1780628861" visible="true" version="3" changeset="129474245" timestamp="2022-11-28T12:11:24Z" user="user_5589" uid="5589" lat="49.0110126" lon="5.2912688">
  <tag k="operator" v="RTE"/>
  <tag k="operator:wikidata" v="Q2178795"/>
  <tag k="power" v="tower"/>
 </node>
 <node id="1780628862" visible="true" version="4" changeset="129474245" timestamp="2022-11-28T12:11:24Z" user="user_5589" uid="5589" lat="49.0115733" lon="5.2890758">
  <tag k="operator" v="RTE"/>
  <tag k="operator:wikidata" v="Q2178795"/>
  <tag k="power" v="tower"/>
  <tag k="ref" v="10"/>
 </node>
 <node id="1780653602" visible="true" version="3" changeset="128774519" timestamp="2022-11-11T12:21:11Z" user="user_5589" uid="5589" lat="48.9205909" lon="5.8533751">
  <tag k="operator" v="RTE"/>
  <tag k="operator:wikidata" v="Q2178795"/>
  <tag k="power" v="tower"/>
 </node>
 <node id="1780653605" visible="true" version="3" changeset="128774519" timestamp="2022-11-11T12:21:11Z" user="user_5589" uid="5589" lat="48.9208347" lon="5.8503994">
  <tag k="operator" v="RTE"/>
  <tag k="operator:wikidata" v="Q2178795"/>
  <tag k="power" v="tower"/>
 </node>
 <node id="1780653607" visible="true" version="3" changeset="128774519" timestamp="2022-11-11T12:21:11Z" user="user_5589" uid="5589" lat="48.9210546" lon="5.8474674">
  <tag k="operator" v="RTE"/>
  <tag k="operator:wikidata" v="Q2178795"/>
  <tag k="power" v="tower"/>
 </node>
 <node id="1780653608" visible="true" version="3" changeset="128774519" timestamp="2022-11-11T12:21:11Z" user="user_5589" uid="5589" lat="48.9212649" lon="5.8446008">
  <tag k="operator" v="RTE"/>
  <tag k="operator:wikidata" v="Q2178795"/>
  <tag k="power" v="tower"/>
 </node>
 <node id="1780653616" visible="true" version="3" changeset="128774519" timestamp="2022-11-11T12:21:11Z" user="user_5589" uid="5589" lat="48.9216713" lon="5.8616182">
  <tag k="operator" v="RTE"/>
  <tag k="operator:wikidata" v="Q2178795"/>
  <tag k="power" v="tower"/>
 </node>
 <node id="1780653618" visible="true" version="3" changeset="128774519" timestamp="2022-11-11T12:21:11Z" user="user_5589" uid="5589" lat="48.9219573" lon="5.8360409">
  <tag k="operator" v="RTE"/>
  <tag k="operator:wikidata" v="Q2178795"/>
  <tag k="power" v="tower"/>
 </node>
 <node id="1780653620" visible="true" version="3" changeset="128774519" timestamp="2022-11-11T12:21:11Z" user="user_5589" uid="5589" lat="48.9221016" lon="5.8647539">
  <tag k="operator" v="RTE"/>
  <tag k="operator:wikidata" v="Q2178795"/>
  <tag k="power" v="tower"/>
 </node>
 <node id="1780653622" visible="true" version="3" changeset="128774519" timestamp="2022-11-11T12:21:11Z" user="user_5589" uid="5589" lat="48.9224947" lon="5.8293853">
  <tag k="operator" v="RTE"/>
  <tag k="operator:wikidata" v="Q2178795"/>
  <tag k="power" v="tower"/>
 </node>
 <node id="1780653624" visible="true" version="3" changeset="128774519" timestamp="2022-11-11T12:21:11Z" user="user_5589" uid="5589" lat="48.9225748" lon="5.8683771">
  <tag k="operator" v="RTE"/>
  <tag k="operator:wikidata" v="Q2178795"/>
  <tag k="power" v="tower"/>
 </node>
 <node id="1780653627" visible="true" version="3" changeset="128774519" timestamp="2022-11-11T12:21:11Z" user="user_5589" uid="5589" lat="48.9227672" lon="5.8260022">
  <tag k="operator" v="RTE"/>
  <tag k="operator:wikidata" v="Q2178795"/>
  <tag k="power" v="tower"/>
 </node>
 <node id="1780653629" visible="true" version="3" changeset="128774519" timestamp="2022-11-11T12:21:11Z" user="user_5589" uid="5589" lat="48.9229477" lon="5.8712582">
  <tag k="operator" v="RTE"/>
  <tag k="operator:wikidata" v="Q2178795"/>
  <tag k="power" v="tower"/>
 </node>
 <node id="1780653631" visible="true" version="3" changeset="128774519" timestamp="2022-11-11T12:21:11Z" user="user_5589" uid="5589" lat="48.9230110" lon="5.8226700">
  <tag k="operator" v="RTE"/>
  <tag k="operator:wikidata" v="Q2178795"/>
  <tag k="power" v="tower"/>
 </node>
 <node id="1780653634" visible="true" version="3" changeset="128774519" timestamp="2022-11-11T12:21:11Z" user="user_5589" uid="5589" lat="48.9233744" lon="5.8181738">
  <tag k="operator" v="RTE"/>
  <tag k="operator:wikidata" v="Q2178795"/>
  <tag k="power" v="tower"/>
 </node>
 <node id="1780653636" visible="true" version="3" changeset="128774519" timestamp="2022-11-11T12:21:11Z" user="user_5589" uid="5589" lat="48.9235704" lon="5.8155182">
  <tag k="operator" v="RTE"/>
  <tag k="operator:wikidata" v="Q2178795"/>
  <tag k="power" v="tower"/>
 </node>
 <node id="1780653638" visible="true" version="3" changeset="128774519" timestamp="2022-11-11T12:21:11Z" user="user_5589" uid="5589" lat="48.9236696" lon="5.8766348">
  <tag k="operator" v="RTE"/>
  <tag k="operator:wikidata" v="Q2178795"/>
  <tag k="power" v="tower"/>
 </node>
 <node id="1780653640" visible="true" version="3" changeset="128774519" timestamp="2022-11-11T12:21:11Z" user="user_5589" uid="5589" lat="48.9240245" lon="5.8099452">
  <tag k="operator" v="RTE"/>
  <tag k="operator:wikidata" v="Q2178795"/>
  <tag k="power" v="tower"/>
 </node>
 <node id="1780653641" visible="true" version="3" changeset="128774519" timestamp="2022-11-11T12:21:11Z" user="user_5589" uid="5589" lat="48.9242098" lon="5.8806582">
  <tag k="operator" v="RTE"/>
  <tag k="operator:wikidata" v="Q2178795"/>
  <tag k="power" v="tower"/>
 </node>
 <node id="1780653644" visible="true" version="3" changeset="128774519" timestamp="2022-11-11T12:21:11Z" user="user_5589" uid="5589" lat="48.9242874" lon="5.8066130">
  <tag k="operator" v="RTE"/>
  <tag k="operator:wikidata" v="Q2178795"/>
  <tag k="power" v="tower"/>
 </node>
 <node id="1780653646" visible="true" version="3" changeset="128774519" timestamp="2022-11-11T12:21:11Z" user="user_5589" uid="5589" lat="48.9246029" lon="5.8024223">
  <tag k="operator" v="RTE"/>
  <tag k="operator:wikidata" v="Q2178795"/>
  <tag k="power" v="tower"/>
 </node>
 <node id="1780653648" visible="true" version="4" changeset="130089069" timestamp="2022-12-14T20:33:44Z" user="Rom1" uid="337375" lat="48.9247335" lon="5.8843829">
  <tag k="operator" v="RTE"/>
  <tag k="operator:wikidata" v="Q2178795"/>
  <tag k="power" v="tower"/>
 </node>
 <node id="1780653651" visible="true" version="3" changeset="128774519" timestamp="2022-11-11T12:21:11Z" user="user_5589" uid="5589" lat="48.9248372" lon="5.7985154">
  <tag k="operator" v="RTE"/>
  <tag k="operator:wikidata" v="Q2178795"/>
  <tag k="power" v="tower"/>
 </node>
 <node id="1780653653" visible="true" version="3" changeset="128774519" timestamp="2022-11-11T12:21:11Z" user="user_5589" uid="5589" lat="48.9251814" lon="5.7952268">
  <tag k="operator" v="RTE"/>
  <tag k="operator:wikidata" v="Q2178795"/>
  <tag k="power" v="tower"/>
 </node>
 <node id="1780653655" visible="true" version="3" changeset="128774519" timestamp="2022-11-11T12:21:11Z" user="user_5589" uid="5589" lat="48.9252328" lon="5.8882974">
  <tag k="operator" v="RTE"/>
  <tag k="operator:wikidata" v="Q2178795"/>
  <tag k="power" v="tower"/>
 </node>
 <node id="1780653657" visible="true" version="3" changeset="128774519" timestamp="2022-11-11T12:21:11Z" user="user_5589" uid="5589" lat="48.9255112" lon="5.7910143">
  <tag k="operator" v="RTE"/>
  <tag k="operator:wikidata" v="Q2178795"/>
  <tag k="power" v="tower"/>
 </node>
 <node id="1780653659" visible="true" version="3" changeset="128774519" timestamp="2022-11-11T12:21:11Z" user="user_5589" uid="5589" lat="48.9258064" lon="5.8924663">
  <tag k="operator" v="RTE"/>
  <tag k="operator:wikidata" v="Q2178795"/>
  <tag k="power" v="tower"/>
 </node>
 <node id="1780653661" visible="true" version="3" changeset="128774519" timestamp="2022-11-11T12:21:11Z" user="user_5589" uid="5589" lat="48.9258219" lon="5.7869837">
  <tag k="operator" v="RTE"/>
  <tag k="operator:wikidata" v="Q2178795"/>
  <tag k="power" v="tower"/>
 </node>
 <node id="1780653663" visible="true" version="3" changeset="128774519" timestamp="2022-11-11T12:21:11Z" user="user_5589" uid="5589" lat="48.9260609" lon="5.7837388">
  <tag k="operator" v="RTE"/>
  <tag k="operator:wikidata" v="Q2178795"/>
  <tag k="power" v="tower"/>
 </node>
 <node id="1780653665" visible="true" version="4" changeset="128774519" timestamp="2022-11-11T12:21:11Z" user="user_5589" uid="5589" lat="48.9264529" lon="5.7790170">
  <tag k="design" v="three-level"/>
  <tag k="line_management" v="straight"/>
  <tag k="material" v="metal"/>
  <tag k="operator" v="RTE"/>
  <tag k="operator:wikidata" v="Q2178795"/>
  <tag k="power" v="tower"/>
 </node>
 <node id="1780653667" visible="true" version="3" changeset="128774519" timestamp="2022-11-11T12:21:11Z" user="user_5589" uid="5589" lat="48.9268294" lon="5.9002002">
  <tag k="operator" v="RTE"/>
  <tag k="operator:wikidata" v="Q2178795"/>
  <tag k="power" v="tower"/>
 </node>
 <node id="1780653669" visible="true" version="5" changeset="128774519" timestamp="2022-11-11T12:21:11Z" user="user_5589" uid="5589" lat="48.9267222" lon="5.7754722">
  <tag k="design" v="three-level"/>
  <tag k="line_management" v="straight"/>
  <tag k="material" v="steel"/>
  <tag k="operator" v="RTE"/>
  <tag k="operator:wikidata" v="Q2178795"/>
  <tag k="power" v="tower"/>
  <tag k="ref" v="140"/>
  <tag k="source" v="data.gouv.fr:RTE - 12/2018"/>
 </node>
 <node id="1780653675" visible="true" version="4" changeset="128774519" timestamp="2022-11-11T12:21:11Z" user="user_5589" uid="5589" lat="48.9270167" lon="5.7717444">
  <tag k="operator" v="RTE"/>
  <tag k="operator:wikidata" v="Q2178795"/>
  <tag k="power" v="tower"/>
  <tag k="ref" v="139"/>
  <tag k="source" v="data.gouv.fr:RTE - 12/2018"/>
 </node>
 <node id="1780653676" visible="true" version="3" changeset="128774519" timestamp="2022-11-11T12:21:11Z" user="user_5589" uid="5589" lat="48.9273504" lon="5.9041144">
  <tag k="operator" v="RTE"/>
  <tag k="operator:wikidata" v="Q2178795"/>
  <tag k="power" v="tower"/>
 </node>
 <node id="1780653677" visible="true" version="4" changeset="128774519" timestamp="2022-11-11T12:21:11Z" user="user_5589" uid="5589" lat="48.9273222" lon="5.7678694">
  <tag k="operator" v="RTE"/>
  <tag k="operator:wikidata" v="Q2178795"/>
  <tag k="power" v="tower"/>
  <tag k="ref" v="138"/>
  <tag k="source" v="data.gouv.fr:RTE - 12/2018"/>
 </node>
 <node id="1780653678" visible="true" version="4" changeset="128774519" timestamp="2022-11-11T12:21:11Z" user="user_5589" uid="5589" lat="48.9276417" lon="5.7636889">
  <tag k="operator" v="RTE"/>
  <tag k="operator:wikidata" v="Q2178795"/>
  <tag k="power" v="tower"/>
  <tag k="ref" v="137"/>
  <tag k="source" v="data.gouv.fr:RTE - 12/2018"/>
 </node>
 <node id="1780653679" visible="true" version="3" changeset="128774519" timestamp="2022-11-11T12:21:11Z" user="user_5589" uid="5589" lat="48.9278236" lon="5.9076575">
  <tag k="operator" v="RTE"/>
  <tag k="operator:wikidata" v="Q2178795"/>
  <tag k="power" v="tower"/>
 </node>
 <node id="1780653680" visible="true" version="4" changeset="128774519" timestamp="2022-11-11T12:21:11Z" user="user_5589" uid="5589" lat="48.9278507" lon="5.7611230">
  <tag k="operator" v="RTE"/>
  <tag k="operator:wikidata" v="Q2178795"/>
  <tag k="power" v="tower"/>
  <tag k="source" v="BDOrtho IGN"/>
 </node>
 <node id="1780653681" visible="true" version="3" changeset="128774519" timestamp="2022-11-11T12:21:11Z" user="user_5589" uid="5589" lat="48.9283590" lon="5.9116227">
  <tag k="operator" v="RTE"/>
  <tag k="operator:wikidata" v="Q2178795"/>
  <tag k="power" v="tower"/>
 </node>
 <node id="1780653682" visible="true" version="3" changeset="128774519" timestamp="2022-11-11T12:21:11Z" user="user_5589" uid="5589" lat="48.9288609" lon="5.9152895">
  <tag k="operator" v="RTE"/>
  <tag k="operator:wikidata" v="Q2178795"/>
  <tag k="power" v="tower"/>
 </node>
 <node id="1780653683" visible="true" version="3" changeset="128774519" timestamp="2022-11-11T12:21:11Z" user="user_5589" uid="5589" lat="48.9293819" lon="5.9192838">
  <tag k="operator" v="RTE"/>
  <tag k="operator:wikidata" v="Q2178795"/>
  <tag k="power" v="tower"/>
 </node>
 <node id="1780653684" visible="true" version="3" changeset="128774519" timestamp="2022-11-11T12:21:11Z" user="user_5589" uid="5589" lat="48.9298886" lon="5.9231398">
  <tag k="operator" v="RTE"/>
  <tag k="operator:wikidata" v="Q2178795"/>
  <tag k="power" v="tower"/>
 </node>
 <node id="1780653685" visible="true" version="4" changeset="128774519" timestamp="2022-11-11T12:21:11Z" user="user_5589" uid="5589" lat="48.9302056" lon="5.7585944">
  <tag k="operator" v="RTE"/>
  <tag k="operator:wikidata" v="Q2178795"/>
  <tag k="power" v="tower"/>
  <tag k="ref" v="135"/>
  <tag k="source" v="data.gouv.fr:RTE - 12/2018"/>
 </node>
 <node id="1780653686" visible="true" version="3" changeset="128774519" timestamp="2022-11-11T12:21:11Z" user="user_5589" uid="5589" lat="48.9303331" lon="5.9263410">
  <tag k="operator" v="RTE"/>
  <tag k="operator:wikidata" v="Q2178795"/>
  <tag k="power" v="tower"/>
 </node>
 <node id="1780653687" visible="true" version="3" changeset="128774519" timestamp="2022-11-11T12:21:11Z" user="user_5589" uid="5589" lat="48.9308445" lon="5.9302188">
  <tag k="operator" v="RTE"/>
  <tag k="operator:wikidata" v="Q2178795"/>
  <tag k="power" v="tower"/>
 </node>
 <node id="1780653688" visible="true" version="3" changeset="128774519" timestamp="2022-11-11T12:21:11Z" user="user_5589" uid="5589" lat="48.9313369" lon="5.9340894">
  <tag k="operator" v="RTE"/>
  <tag k="operator:wikidata" v="Q2178795"/>
  <tag k="power" v="tower"/>
 </node>
 <node id="1780653689" visible="true" version="3" changeset="128774519" timestamp="2022-11-11T12:21:11Z" user="user_5589" uid="5589" lat="48.9320825" lon="5.9395388">
  <tag k="operator" v="RTE"/>
  <tag k="operator:wikidata" v="Q2178795"/>
  <tag k="power" v="tower"/>
 </node>
 <node id="1780653690" visible="true" version="3" changeset="128774519" timestamp="2022-11-11T12:21:11Z" user="user_5589" uid="5589" lat="48.9325222" lon="5.9429655">
  <tag k="operator" v="RTE"/>
  <tag k="operator:wikidata" v="Q2178795"/>
  <tag k="power" v="tower"/>
 </node>
 <node id="1780653691" visible="true" version="3" changeset="128774519" timestamp="2022-11-11T12:21:11Z" user="user_5589" uid="5589" lat="48.9330432" lon="5.9469234">
  <tag k="operator" v="RTE"/>
  <tag k="operator:wikidata" v="Q2178795"/>
  <tag k="power" v="tower"/>
 </node>
 <node id="1780653692" visible="true" version="3" changeset="128774519" timestamp="2022-11-11T12:21:11Z" user="user_5589" uid="5589" lat="48.9335223" lon="5.7550734">
  <tag k="operator" v="RTE"/>
  <tag k="operator:wikidata" v="Q2178795"/>
  <tag k="power" v="tower"/>
 </node>
 <node id="1780653693" visible="true" version="3" changeset="128774519" timestamp="2022-11-11T12:21:11Z" user="user_5589" uid="5589" lat="48.9335594" lon="5.9508667">
  <tag k="operator" v="RTE"/>
  <tag k="operator:wikidata" v="Q2178795"/>
  <tag k="power" v="tower"/>
 </node>
 <node id="1780653694" visible="true" version="3" changeset="128774519" timestamp="2022-11-11T12:21:11Z" user="user_5589" uid="5589" lat="48.9340612" lon="5.9544753">
  <tag k="operator" v="RTE"/>
  <tag k="operator:wikidata" v="Q2178795"/>
  <tag k="power" v="tower"/>
 </node>
 <node id="1780653695" visible="true" version="3" changeset="127054352" timestamp="2022-10-05T15:40:51Z" user="user_5589" uid="5589" lat="48.9349693" lon="5.9613289">
  <tag k="operator" v="RTE"/>
  <tag k="operator:wikidata" v="Q2178795"/>
  <tag k="power" v="tower"/>
 </node>
 <node id="1780653696" visible="true" version="3" changeset="127054352" timestamp="2022-10-05T15:40:51Z" user="user_5589" uid="5589" lat="48.9354186" lon="5.9646974">
  <tag k="operator" v="RTE"/>
  <tag k="operator:wikidata" v="Q2178795"/>
  <tag k="power" v="tower"/>
 </node>
 <node id="1780653697" visible="true" version="4" changeset="128774519" timestamp="2022-11-11T12:21:11Z" user="user_5589" uid="5589" lat="48.9361278" lon="5.7522250">
  <tag k="operator" v="RTE"/>
  <tag k="operator:wikidata" v="Q2178795"/>
  <tag k="power" v="tower"/>
  <tag k="ref" v="133"/>
  <tag k="source" v="data.gouv.fr:RTE - 12/2018"/>
 </node>
 <node id="1780653698" visible="true" version="4" changeset="128774519" timestamp="2022-11-11T12:21:11Z" user="user_5589" uid="5589" lat="48.9383194" lon="5.7054333">
  <tag k="operator" v="RTE"/>
  <tag k="operator:wikidata" v="Q2178795"/>
  <tag k="power" v="tower"/>
  <tag k="ref" v="121"/>
  <tag k="source" v="data.gouv.fr:RTE - 12/2018"/>
 </node>
 <node id="1780653699" visible="true" version="3" changeset="128774519" timestamp="2022-11-11T12:21:11Z" user="user_5589" uid="5589" lat="48.9390471" lon="5.7490857">
  <tag k="operator" v="RTE"/>
  <tag k="operator:wikidata" v="Q2178795"/>
  <tag k="power" v="tower"/>
 </node>
 <node id="1780653700" visible="true" version="3" changeset="127054352" timestamp="2022-10-05T15:40:51Z" user="user_5589" uid="5589" lat="48.9395867" lon="5.9789872">
  <tag k="operator" v="RTE"/>
  <tag k="operator:wikidata" v="Q2178795"/>
  <tag k="power" v="tower"/>
 </node>
 <node id="1780653701" visible="true" version="4" changeset="128774519" timestamp="2022-11-11T12:21:11Z" user="user_5589" uid="5589" lat="48.9400814" lon="5.7089024">
  <tag k="operator" v="RTE"/>
  <tag k="operator:wikidata" v="Q2178795"/>
  <tag k="power" v="tower"/>
  <tag k="source" v="BDOrtho IGN"/>
 </node>
 <node id="1780653702" visible="true" version="3" changeset="128774519" timestamp="2022-11-11T12:21:11Z" user="user_5589" uid="5589" lat="48.9408583" lon="5.7471795">
  <tag k="operator" v="RTE"/>
  <tag k="operator:wikidata" v="Q2178795"/>
  <tag k="power" v="tower"/>
 </node>
 <node id="1780653703" visible="true" version="3" changeset="128774519" timestamp="2022-11-11T12:21:11Z" user="user_5589" uid="5589" lat="48.9419640" lon="5.7126589">
  <tag k="operator" v="RTE"/>
  <tag k="operator:wikidata" v="Q2178795"/>
  <tag k="power" v="tower"/>
 </node>
 <node id="1780653704" visible="true" version="3" changeset="128774519" timestamp="2022-11-11T12:21:11Z" user="user_5589" uid="5589" lat="48.9422203" lon="5.7434326">
  <tag k="operator" v="RTE"/>
  <tag k="operator:wikidata" v="Q2178795"/>
  <tag k="power" v="tower"/>
 </node>
 <node id="1780653705" visible="true" version="3" changeset="128774519" timestamp="2022-11-11T12:21:11Z" user="user_5589" uid="5589" lat="48.9438020" lon="5.7390382">
  <tag k="operator" v="RTE"/>
  <tag k="operator:wikidata" v="Q2178795"/>
  <tag k="power" v="tower"/>
 </node>
 <node id="1780653706" visible="true" version="3" changeset="128774519" timestamp="2022-11-11T12:21:11Z" user="user_5589" uid="5589" lat="48.9439676" lon="5.7165764">
  <tag k="operator" v="RTE"/>
  <tag k="operator:wikidata" v="Q2178795"/>
  <tag k="power" v="tower"/>
 </node>
 <node id="1780653707" visible="true" version="3" changeset="128774519" timestamp="2022-11-11T12:21:11Z" user="user_5589" uid="5589" lat="48.9460807" lon="5.7207441">
  <tag k="operator" v="RTE"/>
  <tag k="operator:wikidata" v="Q2178795"/>
  <tag k="power" v="tower"/>
 </node>
 <node id="1780653708" visible="true" version="3" changeset="128774519" timestamp="2022-11-11T12:21:11Z" user="user_5589" uid="5589" lat="48.9471373" lon="5.7359825">
  <tag k="operator" v="RTE"/>
  <tag k="operator:wikidata" v="Q2178795"/>
  <tag k="power" v="tower"/>
 </node>
 <node id="1780653709" visible="true" version="3" changeset="128774519" timestamp="2022-11-11T12:21:11Z" user="user_5589" uid="5589" lat="48.9477537" lon="5.7305768">
  <tag k="operator" v="RTE"/>
  <tag k="operator:wikidata" v="Q2178795"/>
  <tag k="power" v="tower"/>
 </node>
 <node id="1780653710" visible="true" version="3" changeset="128774519" timestamp="2022-11-11T12:21:11Z" user="user_5589" uid="5589" lat="48.9483612" lon="5.7252213">
  <tag k="operator" v="RTE"/>
  <tag k="operator:wikidata" v="Q2178795"/>
  <tag k="power" v="tower"/>
 </node>
 <node id="1780679181" visible="true" version="3" changeset="127054352" timestamp="2022-10-05T15:40:51Z" user="user_5589" uid="5589" lat="48.9411192" lon="5.9842283">
  <tag k="operator" v="RTE"/>
  <tag k="operator:wikidata" v="Q2178795"/>
  <tag k="power" v="tower"/>
 </node>
 <node id="1780679182" visible="true" version="3" changeset="127054352" timestamp="2022-10-05T15:40:51Z" user="user_5589" uid="5589" lat="48.9419218" lon="5.9870585">
  <tag k="operator" v="RTE"/>
  <tag k="operator:wikidata" v="Q2178795"/>
  <tag k="power" v="tower"/>
 </node>
 <node id="1780679184" visible="true" version="3" changeset="127054352" timestamp="2022-10-05T15:40:51Z" user="user_5589" uid="5589" lat="48.9430488" lon="5.9907428">
  <tag k="operator" v="RTE"/>
  <tag k="operator:wikidata" v="Q2178795"/>
  <tag k="power" v="tower"/>
 </node>
 <node id="1780679187" visible="true" version="3" changeset="127054352" timestamp="2022-10-05T15:40:51Z" user="user_5589" uid="5589" lat="48.9438647" lon="5.9932903">
  <tag k="operator" v="RTE"/>
  <tag k="operator:wikidata" v="Q2178795"/>
  <tag k="power" v="tower"/>
 </node>
 <node id="1780679190" visible="true" version="3" changeset="127054352" timestamp="2022-10-05T15:40:51Z" user="user_5589" uid="5589" lat="48.9442443" lon="5.9949535">
  <tag k="operator" v="RTE"/>
  <tag k="operator:wikidata" v="Q2178795"/>
  <tag k="power" v="tower"/>
 </node>
 <node id="1780679202" visible="true" version="3" changeset="127054352" timestamp="2022-10-05T15:40:51Z" user="user_5589" uid="5589" lat="48.9461704" lon="6.0014308">
  <tag k="operator" v="RTE"/>
  <tag k="operator:wikidata" v="Q2178795"/>
  <tag k="power" v="tower"/>
 </node>
 <node id="1780679213" visible="true" version="3" changeset="128774519" timestamp="2022-11-11T12:21:11Z" user="user_5589" uid="5589" lat="48.9464898" lon="6.0224562">
  <tag k="operator" v="RTE"/>
  <tag k="operator:wikidata" v="Q2178795"/>
  <tag k="power" v="tower"/>
 </node>
 <node id="1780679215" visible="true" version="3" changeset="127054352" timestamp="2022-10-05T15:40:51Z" user="user_5589" uid="5589" lat="48.9469444" lon="6.0183400">
  <tag k="operator" v="RTE"/>
  <tag k="operator:wikidata" v="Q2178795"/>
  <tag k="power" v="tower"/>
 </node>
 <node id="1780679224" visible="true" version="3" changeset="127054352" timestamp="2022-10-05T15:40:51Z" user="user_5589" uid="5589" lat="48.9473809" lon="6.0057344">
  <tag k="operator" v="RTE"/>
  <tag k="operator:wikidata" v="Q2178795"/>
  <tag k="power" v="tower"/>
 </node>
 <node id="1780679230" visible="true" version="3" changeset="127054352" timestamp="2022-10-05T15:40:51Z" user="user_5589" uid="5589" lat="48.9475017" lon="6.0156342">
  <tag k="operator" v="RTE"/>
  <tag k="operator:wikidata" v="Q2178795"/>
  <tag k="power" v="tower"/>
 </node>
 <node id="1780679246" visible="true" version="3" changeset="127054352" timestamp="2022-10-05T15:40:51Z" user="user_5589" uid="5589" lat="48.9482462" lon="6.0086746">
  <tag k="operator" v="RTE"/>
  <tag k="operator:wikidata" v="Q2178795"/>
  <tag k="power" v="tower"/>
 </node>
 <node id="1780679258" visible="true" version="3" changeset="127054352" timestamp="2022-10-05T15:40:51Z" user="user_5589" uid="5589" lat="48.9491359" lon="6.0115626">
  <tag k="operator" v="RTE"/>
  <tag k="operator:wikidata" v="Q2178795"/>
  <tag k="power" v="tower"/>
 </node>
 <node id="2203162096" visible="true" version="2" changeset="55036538" timestamp="2017-12-30T14:57:16Z" user="Denis_Helfer" uid="22165" lat="49.0038082" lon="5.2960114"/>
 <node id="2203162100" visible="true" version="1" changeset="15373005" timestamp="2013-03-15T12:35:16Z" user="Damouns" uid="13442" lat="49.0052332" lon="5.2972918"/>
 <node id="2203162105" visible="true" version="1" changeset="15373005" timestamp="2013-03-15T12:35:16Z" user="Damouns" uid="13442" lat="49.0065911" lon="5.2984022"/>
 <node id="2203162110" visible="true" version="1" changeset="15373005" timestamp="2013-03-15T12:35:16Z" user="Damouns" uid="13442" lat="49.0075214" lon="5.2992291"/>
 <node id="2203162112" visible="true" version="1" changeset="15373005" timestamp="2013-03-15T12:35:16Z" user="Damouns" uid="13442" lat="49.0079054" lon="5.2995549"/>
 <node id="2203162114" visible="true" version="1" changeset="15373005" timestamp="2013-03-15T12:35:16Z" user="Damouns" uid="13442" lat="49.0083744" lon="5.2999553"/>
 <node id="2203162116" visible="true" version="1" changeset="15373005" timestamp="2013-03-15T12:35:16Z" user="Damouns" uid="13442" lat="49.0086733" lon="5.3001786"/>
 <node id="2203162121" visible="true" version="1" changeset="15373005" timestamp="2013-03-15T12:35:16Z" user="Damouns" uid="13442" lat="49.0092137" lon="5.3006436"/>
 <node id="2203162126" visible="true" version="1" changeset="15373005" timestamp="2013-03-15T12:35:16Z" user="Damouns" uid="13442" lat="49.0097325" lon="5.2851126"/>
 <node id="2203162128" visible="true" version="1" changeset="15373005" timestamp="2013-03-15T12:35:16Z" user="Damouns" uid="13442" lat="49.0093299" lon="5.3007994"/>
 <node id="2203162130" visible="true" version="1" changeset="15373005" timestamp="2013-03-15T12:35:16Z" user="Damouns" uid="13442" lat="49.0098390" lon="5.2847849"/>
 <node id="2203162133" visible="true" version="1" changeset="15373005" timestamp="2013-03-15T12:35:16Z" user="Damouns" uid="13442" lat="49.0099668" lon="5.2845405"/>
 <node id="2203162135" visible="true" version="1" changeset="15373005" timestamp="2013-03-15T12:35:16Z" user="Damouns" uid="13442" lat="49.0093863" lon="5.3074003"/>
 <node id="2203162137" visible="true" version="1" changeset="15373005" timestamp="2013-03-15T12:35:16Z" user="Damouns" uid="13442" lat="49.0100398" lon="5.2851795"/>
 <node id="2203162139" visible="true" version="1" changeset="15373005" timestamp="2013-03-15T12:35:16Z" user="Damouns" uid="13442" lat="49.0094937" lon="5.3066226"/>
 <node id="2203162142" visible="true" version="1" changeset="15373005" timestamp="2013-03-15T12:35:16Z" user="Damouns" uid="13442" lat="49.0100084" lon="5.2873762"/>
 <node id="2203162144" visible="true" version="1" changeset="15373005" timestamp="2013-03-15T12:35:16Z" user="Damouns" uid="13442" lat="49.0094917" lon="5.3075580"/>
 <node id="2203162146" visible="true" version="1" changeset="15373005" timestamp="2013-03-15T12:35:16Z" user="Damouns" uid="13442" lat="49.0096758" lon="5.3013480"/>
 <node id="2203162149" visible="true" version="1" changeset="15373005" timestamp="2013-03-15T12:35:16Z" user="Damouns" uid="13442" lat="49.0101570" lon="5.2843226"/>
 <node id="2203162151" visible="true" version="1" changeset="15373005" timestamp="2013-03-15T12:35:16Z" user="Damouns" uid="13442" lat="49.0096479" lon="5.3069238"/>
 <node id="2203162156" visible="true" version="1" changeset="15373005" timestamp="2013-03-15T12:35:16Z" user="Damouns" uid="13442" lat="49.0103487" lon="5.2841831"/>
 <node id="2203162158" visible="true" version="1" changeset="15373005" timestamp="2013-03-15T12:35:16Z" user="Damouns" uid="13442" lat="49.0097676" lon="5.3079705"/>
 <node id="2203162169" visible="true" version="1" changeset="15373005" timestamp="2013-03-15T12:35:16Z" user="Damouns" uid="13442" lat="49.0105458" lon="5.2839896"/>
 <node id="2203162170" visible="true" version="1" changeset="15373005" timestamp="2013-03-15T12:35:17Z" user="Damouns" uid="13442" lat="49.0102613" lon="5.3016869"/>
 <node id="2203162171" visible="true" version="1" changeset="15373005" timestamp="2013-03-15T12:35:17Z" user="Damouns" uid="13442" lat="49.0101368" lon="5.3084260"/>
 <node id="2203162172" visible="true" version="1" changeset="15373005" timestamp="2013-03-15T12:35:17Z" user="Damouns" uid="13442" lat="49.0101349" lon="5.3113861"/>
 <node id="2203162173" visible="true" version="1" changeset="15373005" timestamp="2013-03-15T12:35:17Z" user="Damouns" uid="13442" lat="49.0109058" lon="5.2828251"/>
 <node id="2203162174" visible="true" version="1" changeset="15373005" timestamp="2013-03-15T12:35:17Z" user="Damouns" uid="13442" lat="49.0103880" lon="5.3048211"/>
 <node id="2203162175" visible="true" version="1" changeset="15373005" timestamp="2013-03-15T12:35:17Z" user="Damouns" uid="13442" lat="49.0104858" lon="5.3017003"/>
 <node id="2203162176" visible="true" version="1" changeset="15373005" timestamp="2013-03-15T12:35:17Z" user="Damouns" uid="13442" lat="49.0109995" lon="5.2832640"/>
 <node id="2203162178" visible="true" version="1" changeset="15373005" timestamp="2013-03-15T12:35:17Z" user="Damouns" uid="13442" lat="49.0104578" lon="5.3057773"/>
 <node id="2203162180" visible="true" version="1" changeset="15373005" timestamp="2013-03-15T12:35:17Z" user="Damouns" uid="13442" lat="49.0105999" lon="5.3005937"/>
 <node id="2203162182" visible="true" version="1" changeset="15373005" timestamp="2013-03-15T12:35:17Z" user="Damouns" uid="13442" lat="49.0107193" lon="5.2970466"/>
 <node id="2203162185" visible="true" version="1" changeset="15373005" timestamp="2013-03-15T12:35:17Z" user="Damouns" uid="13442" lat="49.0106662" lon="5.2997690"/>
 <node id="2203162187" visible="true" version="1" changeset="15373005" timestamp="2013-03-15T12:35:17Z" user="Damouns" uid="13442" lat="49.0107975" lon="5.2966909"/>
 <node id="2203162189" visible="true" version="1" changeset="15373005" timestamp="2013-03-15T12:35:17Z" user="Damouns" uid="13442" lat="49.0107730" lon="5.2992372"/>
 <node id="2203162192" visible="true" version="1" changeset="15373005" timestamp="2013-03-15T12:35:17Z" user="Damouns" uid="13442" lat="49.0106502" lon="5.3046368"/>
 <node id="2203162194" visible="true" version="1" changeset="15373005" timestamp="2013-03-15T12:35:17Z" user="Damouns" uid="13442" lat="49.0110952" lon="5.2874254"/>
 <node id="2203162196" visible="true" version="1" changeset="15373005" timestamp="2013-03-15T12:35:17Z" user="Damouns" uid="13442" lat="49.0110798" lon="5.2895318"/>
 <node id="2203162198" visible="true" version="1" changeset="15373005" timestamp="2013-03-15T12:35:17Z" user="Damouns" uid="13442" lat="49.0110139" lon="5.2920867"/>
 <node id="2203162200" visible="true" version="1" changeset="15373005" timestamp="2013-03-15T12:35:17Z" user="Damouns" uid="13442" lat="49.0110981" lon="5.2902216"/>
 <node id="2203162203" visible="true" version="1" changeset="15373005" timestamp="2013-03-15T12:35:17Z" user="Damouns" uid="13442" lat="49.0110181" lon="5.2933995"/>
 <node id="2203162205" visible="true" version="1" changeset="15373005" timestamp="2013-03-15T12:35:17Z" user="Damouns" uid="13442" lat="49.0110704" lon="5.2922224"/>
 <node id="2203162207" visible="true" version="1" changeset="15373005" timestamp="2013-03-15T12:35:17Z" user="Damouns" uid="13442" lat="49.0109133" lon="5.2991498"/>
 <node id="2203162209" visible="true" version="1" changeset="15373005" timestamp="2013-03-15T12:35:17Z" user="Damouns" uid="13442" lat="49.0111628" lon="5.2912016"/>
 <node id="2203162210" visible="true" version="1" changeset="15373005" timestamp="2013-03-15T12:35:17Z" user="Damouns" uid="13442" lat="49.0111265" lon="5.2926853"/>
 <node id="2203162211" visible="true" version="1" changeset="15373005" timestamp="2013-03-15T12:35:17Z" user="Damouns" uid="13442" lat="49.0110373" lon="5.2962355"/>
 <node id="2203162212" visible="true" version="1" changeset="15373005" timestamp="2013-03-15T12:35:17Z" user="Damouns" uid="13442" lat="49.0111186" lon="5.2931090"/>
 <node id="2203162213" visible="true" version="1" changeset="15373005" timestamp="2013-03-15T12:35:17Z" user="Damouns" uid="13442" lat="49.0107352" lon="5.3090686"/>
 <node id="2203162214" visible="true" version="1" changeset="15373005" timestamp="2013-03-15T12:35:17Z" user="Damouns" uid="13442" lat="49.0111269" lon="5.2944140"/>
 <node id="2203162215" visible="true" version="1" changeset="15373005" timestamp="2013-03-15T12:35:17Z" user="Damouns" uid="13442" lat="49.0110547" lon="5.2974179"/>
 <node id="2203162216" visible="true" version="1" changeset="15373005" timestamp="2013-03-15T12:35:17Z" user="Damouns" uid="13442" lat="49.0106728" lon="5.3122805"/>
 <node id="2203162218" visible="true" version="1" changeset="15373005" timestamp="2013-03-15T12:35:17Z" user="Damouns" uid="13442" lat="49.0112548" lon="5.2917043"/>
 <node id="2203162219" visible="true" version="1" changeset="15373005" timestamp="2013-03-15T12:35:17Z" user="Damouns" uid="13442" lat="49.0112051" lon="5.2947562"/>
 <node id="2203162220" visible="true" version="1" changeset="15373005" timestamp="2013-03-15T12:35:17Z" user="Damouns" uid="13442" lat="49.0112375" lon="5.2950957"/>
 <node id="2203162221" visible="true" version="1" changeset="15373005" timestamp="2013-03-15T12:35:17Z" user="Damouns" uid="13442" lat="49.0112375" lon="5.2956202"/>
 <node id="2203162222" visible="true" version="1" changeset="15373005" timestamp="2013-03-15T12:35:17Z" user="Damouns" uid="13442" lat="49.0109221" lon="5.3098461"/>
 <node id="2203162223" visible="true" version="1" changeset="15373005" timestamp="2013-03-15T12:35:17Z" user="Damouns" uid="13442" lat="49.0116369" lon="5.2823988"/>
 <node id="2203162224" visible="true" version="1" changeset="15373005" timestamp="2013-03-15T12:35:17Z" user="Damouns" uid="13442" lat="49.0112143" lon="5.2991130"/>
 <node id="2203162225" visible="true" version="1" changeset="15373005" timestamp="2013-03-15T12:35:17Z" user="Damouns" uid="13442" lat="49.0112703" lon="5.2989203"/>
 <node id="2203162226" visible="true" version="1" changeset="15373005" timestamp="2013-03-15T12:35:17Z" user="Damouns" uid="13442" lat="49.0110252" lon="5.3093414"/>
 <node id="2203162227" visible="true" version="1" changeset="15373005" timestamp="2013-03-15T12:35:17Z" user="Damouns" uid="13442" lat="49.0109493" lon="5.3128399"/>
 <node id="2203162228" visible="true" version="1" changeset="15373005" timestamp="2013-03-15T12:35:17Z" user="Damouns" uid="13442" lat="49.0113325" lon="5.2983969"/>
 <node id="2203162229" visible="true" version="1" changeset="15373005" timestamp="2013-03-15T12:35:17Z" user="Damouns" uid="13442" lat="49.0108960" lon="5.3152931"/>
 <node id="2203162230" visible="true" version="1" changeset="15373005" timestamp="2013-03-15T12:35:17Z" user="Damouns" uid="13442" lat="49.0113853" lon="5.2978618"/>
 <node id="2203162232" visible="true" version="1" changeset="15373005" timestamp="2013-03-15T12:35:18Z" user="Damouns" uid="13442" lat="49.0112370" lon="5.3066879"/>
 <node id="2203162233" visible="true" version="1" changeset="15373005" timestamp="2013-03-15T12:35:18Z" user="Damouns" uid="13442" lat="49.0110662" lon="5.3150447"/>
 <node id="2203162235" visible="true" version="1" changeset="15373005" timestamp="2013-03-15T12:35:18Z" user="Damouns" uid="13442" lat="49.0111152" lon="5.3164094"/>
 <node id="2203162236" visible="true" version="1" changeset="15373005" timestamp="2013-03-15T12:35:18Z" user="Damouns" uid="13442" lat="49.0120598" lon="5.2820545"/>
 <node id="2203162237" visible="true" version="1" changeset="15373005" timestamp="2013-03-15T12:35:18Z" user="Damouns" uid="13442" lat="49.0114111" lon="5.3071757"/>
 <node id="2203162238" visible="true" version="1" changeset="15373005" timestamp="2013-03-15T12:35:18Z" user="Damouns" uid="13442" lat="49.0115713" lon="5.3014040"/>
 <node id="2203162239" visible="true" version="1" changeset="15373005" timestamp="2013-03-15T12:35:18Z" user="Damouns" uid="13442" lat="49.0112424" lon="5.3172266"/>
 <node id="2203162240" visible="true" version="1" changeset="15373005" timestamp="2013-03-15T12:35:18Z" user="Damouns" uid="13442" lat="49.0113156" lon="5.3182035"/>
 <node id="2203162241" visible="true" version="1" changeset="15373005" timestamp="2013-03-15T12:35:18Z" user="Damouns" uid="13442" lat="49.0116662" lon="5.3144658"/>
 <node id="2203162243" visible="true" version="1" changeset="15373005" timestamp="2013-03-15T12:35:18Z" user="Damouns" uid="13442" lat="49.0128094" lon="5.2738994"/>
 <node id="2203162244" visible="true" version="1" changeset="15373005" timestamp="2013-03-15T12:35:18Z" user="Damouns" uid="13442" lat="49.0110125" lon="5.3435265"/>
 <node id="2203162245" visible="true" version="1" changeset="15373005" timestamp="2013-03-15T12:35:18Z" user="Damouns" uid="13442" lat="49.0127048" lon="5.2814312"/>
 <node id="2203162246" visible="true" version="1" changeset="15373005" timestamp="2013-03-15T12:35:18Z" user="Damouns" uid="13442" lat="49.0121029" lon="5.3083138"/>
 <node id="2203162247" visible="true" version="1" changeset="15373005" timestamp="2013-03-15T12:35:18Z" user="Damouns" uid="13442" lat="49.0113128" lon="5.3422594"/>
 <node id="2203162248" visible="true" version="1" changeset="15373005" timestamp="2013-03-15T12:35:18Z" user="Damouns" uid="13442" lat="49.0131071" lon="5.2741556"/>
 <node id="2203162249" visible="true" version="1" changeset="15373005" timestamp="2013-03-15T12:35:18Z" user="Damouns" uid="13442" lat="49.0131551" lon="5.2733138"/>
 <node id="2203162250" visible="true" version="1" changeset="15373005" timestamp="2013-03-15T12:35:18Z" user="Damouns" uid="13442" lat="49.0132559" lon="5.2749754"/>
 <node id="2203162251" visible="true" version="1" changeset="15373005" timestamp="2013-03-15T12:35:18Z" user="Damouns" uid="13442" lat="49.0115503" lon="5.3412159"/>
 <node id="2203162252" visible="true" version="1" changeset="15373005" timestamp="2013-03-15T12:35:18Z" user="Damouns" uid="13442" lat="49.0133855" lon="5.2747192"/>
 <node id="2203162253" visible="true" version="1" changeset="15373005" timestamp="2013-03-15T12:35:18Z" user="Damouns" uid="13442" lat="49.0116830" lon="5.3405771"/>
 <node id="2203162254" visible="true" version="1" changeset="15373005" timestamp="2013-03-15T12:35:18Z" user="Damouns" uid="13442" lat="49.0117179" lon="5.3395230"/>
 <node id="2203162255" visible="true" version="1" changeset="15373005" timestamp="2013-03-15T12:35:18Z" user="Damouns" uid="13442" lat="49.0135152" lon="5.2725379"/>
 <node id="2203162256" visible="true" version="1" changeset="15373005" timestamp="2013-03-15T12:35:18Z" user="Damouns" uid="13442" lat="49.0118669" lon="5.3380158"/>
 <node id="2203162257" visible="true" version="1" changeset="15373005" timestamp="2013-03-15T12:35:18Z" user="Damouns" uid="13442" lat="49.0118570" lon="5.3385805"/>
 <node id="2203162259" visible="true" version="1" changeset="15373005" timestamp="2013-03-15T12:35:18Z" user="Damouns" uid="13442" lat="49.0136544" lon="5.2715424"/>
 <node id="2203162260" visible="true" version="1" changeset="15373005" timestamp="2013-03-15T12:35:18Z" user="Damouns" uid="13442" lat="49.0123046" lon="5.3243596"/>
 <node id="2203162261" visible="true" version="1" changeset="15373005" timestamp="2013-03-15T12:35:18Z" user="Damouns" uid="13442" lat="49.0119657" lon="5.3380610"/>
 <node id="2203162262" visible="true" version="1" changeset="15373005" timestamp="2013-03-15T12:35:18Z" user="Damouns" uid="13442" lat="49.0121863" lon="5.3341762"/>
 <node id="2203162263" visible="true" version="1" changeset="15373005" timestamp="2013-03-15T12:35:18Z" user="Damouns" uid="13442" lat="49.0121434" lon="5.3370822"/>
 <node id="2203162264" visible="true" version="1" changeset="15373005" timestamp="2013-03-15T12:35:18Z" user="Damouns" uid="13442" lat="49.0122906" lon="5.3315148"/>
 <node id="2203162265" visible="true" version="1" changeset="15373005" timestamp="2013-03-15T12:35:18Z" user="Damouns" uid="13442" lat="49.0122653" lon="5.3356971"/>
 <node id="2203162266" visible="true" version="1" changeset="15373005" timestamp="2013-03-15T12:35:18Z" user="Damouns" uid="13442" lat="49.0137150" lon="5.2806519"/>
 <node id="2203162267" visible="true" version="1" changeset="15373005" timestamp="2013-03-15T12:35:18Z" user="Damouns" uid="13442" lat="49.0125560" lon="5.3260845"/>
 <node id="2203162271" visible="true" version="1" changeset="15373005" timestamp="2013-03-15T12:35:18Z" user="Damouns" uid="13442" lat="49.0143793" lon="5.2680875"/>
 <node id="2203162272" visible="true" version="1" changeset="15373005" timestamp="2013-03-15T12:35:18Z" user="Damouns" uid="13442" lat="49.0141818" lon="5.2802372"/>
 <node id="2203162273" visible="true" version="1" changeset="15373005" timestamp="2013-03-15T12:35:18Z" user="Damouns" uid="13442" lat="49.0146482" lon="5.2655549"/>
 <node id="2203162276" visible="true" version="1" changeset="15373005" timestamp="2013-03-15T12:35:18Z" user="Damouns" uid="13442" lat="49.0147154" lon="5.2640177"/>
 <node id="2203162277" visible="true" version="1" changeset="15373005" timestamp="2013-03-15T12:35:19Z" user="Damouns" uid="13442" lat="49.0147154" lon="5.2663893"/>
 <node id="2203162278" visible="true" version="1" changeset="15373005" timestamp="2013-03-15T12:35:19Z" user="Damouns" uid="13442" lat="49.0135934" lon="5.3107256"/>
 <node id="2203162280" visible="true" version="1" changeset="15373005" timestamp="2013-03-15T12:35:19Z" user="Damouns" uid="13442" lat="49.0145429" lon="5.2798436"/>
 <node id="2203162281" visible="true" version="1" changeset="15373005" timestamp="2013-03-15T12:35:19Z" user="Damouns" uid="13442" lat="49.0137601" lon="5.3108388"/>
 <node id="2203162282" visible="true" version="1" changeset="15373005" timestamp="2013-03-15T12:35:19Z" user="Damouns" uid="13442" lat="49.0138721" lon="5.3076829"/>
 <node id="2203162283" visible="true" version="1" changeset="15373005" timestamp="2013-03-15T12:35:19Z" user="Damouns" uid="13442" lat="49.0146914" lon="5.2768200"/>
 <node id="2203162284" visible="true" version="1" changeset="15373005" timestamp="2013-03-15T12:35:19Z" user="Damouns" uid="13442" lat="49.0139993" lon="5.3053932"/>
 <node id="2203162285" visible="true" version="1" changeset="15373005" timestamp="2013-03-15T12:35:19Z" user="Damouns" uid="13442" lat="49.0147612" lon="5.2795235"/>
 <node id="2203162287" visible="true" version="1" changeset="15373005" timestamp="2013-03-15T12:35:19Z" user="Damouns" uid="13442" lat="49.0152002" lon="5.2633370"/>
 <node id="2203162288" visible="true" version="1" changeset="15373005" timestamp="2013-03-15T12:35:19Z" user="Damouns" uid="13442" lat="49.0155411" lon="5.2567931"/>
 <node id="2203162289" visible="true" version="1" changeset="15373005" timestamp="2013-03-15T12:35:19Z" user="Damouns" uid="13442" lat="49.0149864" lon="5.2790488"/>
 <node id="2203162291" visible="true" version="1" changeset="15373005" timestamp="2013-03-15T12:35:19Z" user="Damouns" uid="13442" lat="49.0156083" lon="5.2583449"/>
 <node id="2203162292" visible="true" version="1" changeset="15373005" timestamp="2013-03-15T12:35:19Z" user="Damouns" uid="13442" lat="49.0156467" lon="5.2613021"/>
 <node id="2203162294" visible="true" version="1" changeset="15373005" timestamp="2013-03-15T12:35:19Z" user="Damouns" uid="13442" lat="49.0155034" lon="5.2778479"/>
 <node id="2203162296" visible="true" version="1" changeset="15373005" timestamp="2013-03-15T12:35:19Z" user="Damouns" uid="13442" lat="49.0156390" lon="5.2773700"/>
 <node id="2203162297" visible="true" version="1" changeset="15373005" timestamp="2013-03-15T12:35:19Z" user="Damouns" uid="13442" lat="49.0151363" lon="5.3053414"/>
 <node id="2203162298" visible="true" version="1" changeset="15373005" timestamp="2013-03-15T12:35:19Z" user="Damouns" uid="13442" lat="49.0151448" lon="5.3062987"/>
 <node id="2203162299" visible="true" version="1" changeset="15373005" timestamp="2013-03-15T12:35:19Z" user="Damouns" uid="13442" lat="49.0151278" lon="5.3078640"/>
 <node id="2203162300" visible="true" version="1" changeset="15373005" timestamp="2013-03-15T12:35:19Z" user="Damouns" uid="13442" lat="49.0151617" lon="5.3090283"/>
 <node id="2203162302" visible="true" version="1" changeset="15373005" timestamp="2013-03-15T12:35:19Z" user="Damouns" uid="13442" lat="49.0155136" lon="5.2981634"/>
 <node id="2203162303" visible="true" version="1" changeset="15373005" timestamp="2013-03-15T12:35:19Z" user="Damouns" uid="13442" lat="49.0152353" lon="5.3116705"/>
 <node id="2203162308" visible="true" version="1" changeset="15373005" timestamp="2013-03-15T12:35:19Z" user="Damouns" uid="13442" lat="49.0161290" lon="5.3064281"/>
 <node id="2203162309" visible="true" version="1" changeset="15373005" timestamp="2013-03-15T12:35:19Z" user="Damouns" uid="13442" lat="49.0162902" lon="5.3090154"/>
 <node id="2203162332" visible="true" version="1" changeset="15373005" timestamp="2013-03-15T12:35:20Z" user="Damouns" uid="13442" lat="49.0189385" lon="5.2953553"/>
 <node id="2203162339" visible="true" version="1" changeset="15373005" timestamp="2013-03-15T12:35:20Z" user="Damouns" uid="13442" lat="49.0204243" lon="5.2937066"/>
 <node id="2203162348" visible="true" version="1" changeset="15373005" timestamp="2013-03-15T12:35:20Z" user="Damouns" uid="13442" lat="49.0210506" lon="5.2931753"/>
 <node id="2203162359" visible="true" version="1" changeset="15373005" timestamp="2013-03-15T12:35:21Z" user="Damouns" uid="13442" lat="49.0215015" lon="5.2929704"/>
 <node id="2203162369" visible="true" version="1" changeset="15373005" timestamp="2013-03-15T12:35:21Z" user="Damouns" uid="13442" lat="49.0220044" lon="5.2928843"/>
 <node id="2203162381" visible="true" version="1" changeset="15373005" timestamp="2013-03-15T12:35:21Z" user="Damouns" uid="13442" lat="49.0228667" lon="5.2926841"/>
 <node id="2203162569" visible="true" version="1" changeset="15373005" timestamp="2013-03-15T12:35:24Z" user="Damouns" uid="13442" lat="49.0249161" lon="5.2930726"/>
 <node id="2331203388" visible="true" version="1" changeset="16413828" timestamp="2013-06-03T22:44:18Z" user="papyrus048_Intégration_cadastre" uid="1009027" lat="48.9879012" lon="5.3042825"/>
 <node id="2331203390" visible="true" version="1" changeset="16413828" timestamp="2013-06-03T22:44:18Z" user="papyrus048_Intégration_cadastre" uid="1009027" lat="48.9885117" lon="5.3043968"/>
 <node id="2331203392" visible="true" version="1" changeset="16413828" timestamp="2013-06-03T22:44:18Z" user="papyrus048_Intégration_cadastre" uid="1009027" lat="48.9893998" lon="5.3043803"/>
 <node id="2331203393" visible="true" version="1" changeset="16413828" timestamp="2013-06-03T22:44:18Z" user="papyrus048_Intégration_cadastre" uid="1009027" lat="48.9907680" lon="5.3046290"/>
 <node id="2331203395" visible="true" version="1" changeset="16413828" timestamp="2013-06-03T22:44:18Z" user="papyrus048_Intégration_cadastre" uid="1009027" lat="48.9911108" lon="5.3046220"/>
 <node id="2331203397" visible="true" version="1" changeset="16413828" timestamp="2013-06-03T22:44:18Z" user="papyrus048_Intégration_cadastre" uid="1009027" lat="48.9917018" lon="5.3044946"/>
 <node id="2331203401" visible="true" version="1" changeset="16413828" timestamp="2013-06-03T22:44:19Z" user="papyrus048_Intégration_cadastre" uid="1009027" lat="48.9920446" lon="5.3043397"/>
 <node id="2331203408" visible="true" version="1" changeset="16413828" timestamp="2013-06-03T22:44:19Z" user="papyrus048_Intégration_cadastre" uid="1009027" lat="48.9924138" lon="5.3042214"/>
 <node id="2331203415" visible="true" version="1" changeset="16413828" timestamp="2013-06-03T22:44:19Z" user="papyrus048_Intégration_cadastre" uid="1009027" lat="48.9924222" lon="5.3040708"/>
 <node id="2331203423" visible="true" version="1" changeset="16413828" timestamp="2013-06-03T22:44:19Z" user="papyrus048_Intégration_cadastre" uid="1009027" lat="48.9925092" lon="5.3040279"/>
 <node id="2331203430" visible="true" version="1" changeset="16413828" timestamp="2013-06-03T22:44:19Z" user="papyrus048_Intégration_cadastre" uid="1009027" lat="48.9925126" lon="5.3038977"/>
 <node id="2331203437" visible="true" version="1" changeset="16413828" timestamp="2013-06-03T22:44:19Z" user="papyrus048_Intégration_cadastre" uid="1009027" lat="48.9926329" lon="5.3037881"/>
 <node id="2331203444" visible="true" version="1" changeset="16413828" timestamp="2013-06-03T22:44:19Z" user="papyrus048_Intégration_cadastre" uid="1009027" lat="48.9927747" lon="5.3037211"/>
 <node id="2331203451" visible="true" version="1" changeset="16413828" timestamp="2013-06-03T22:44:19Z" user="papyrus048_Intégration_cadastre" uid="1009027" lat="48.9932971" lon="5.3036150"/>
 <node id="2331203459" visible="true" version="1" changeset="16413828" timestamp="2013-06-03T22:44:19Z" user="papyrus048_Intégration_cadastre" uid="1009027" lat="48.9936017" lon="5.3035440"/>
 <node id="2331203466" visible="true" version="1" changeset="16413828" timestamp="2013-06-03T22:44:20Z" user="papyrus048_Intégration_cadastre" uid="1009027" lat="48.9940902" lon="5.3033535"/>
 <node id="2331203468" visible="true" version="1" changeset="16413828" timestamp="2013-06-03T22:44:20Z" user="papyrus048_Intégration_cadastre" uid="1009027" lat="48.9949843" lon="5.3030293"/>
 <node id="2331203470" visible="true" version="1" changeset="16413828" timestamp="2013-06-03T22:44:20Z" user="papyrus048_Intégration_cadastre" uid="1009027" lat="48.9956772" lon="5.3027961"/>
 <node id="2331203471" visible="true" version="1" changeset="16413828" timestamp="2013-06-03T22:44:20Z" user="papyrus048_Intégration_cadastre" uid="1009027" lat="48.9957484" lon="5.3030133"/>
 <node id="2331203473" visible="true" version="1" changeset="16413828" timestamp="2013-06-03T22:44:20Z" user="papyrus048_Intégration_cadastre" uid="1009027" lat="48.9958652" lon="5.3030408"/>
 <node id="2331203474" visible="true" version="1" changeset="16413828" timestamp="2013-06-03T22:44:20Z" user="papyrus048_Intégration_cadastre" uid="1009027" lat="48.9960774" lon="5.3028750"/>
 <node id="2331203476" visible="true" version="1" changeset="16413828" timestamp="2013-06-03T22:44:20Z" user="papyrus048_Intégration_cadastre" uid="1009027" lat="48.9965288" lon="5.3025449"/>
 <node id="2331203477" visible="true" version="1" changeset="16413828" timestamp="2013-06-03T22:44:20Z" user="papyrus048_Intégration_cadastre" uid="1009027" lat="48.9970603" lon="5.3022608"/>
 <node id="2331203478" visible="true" version="1" changeset="16413828" timestamp="2013-06-03T22:44:20Z" user="papyrus048_Intégration_cadastre" uid="1009027" lat="48.9976554" lon="5.3019668"/>
 <node id="2331203479" visible="true" version="1" changeset="16413828" timestamp="2013-06-03T22:44:21Z" user="papyrus048_Intégration_cadastre" uid="1009027" lat="48.9977951" lon="5.3019820"/>
 <node id="2331203480" visible="true" version="1" changeset="16413828" timestamp="2013-06-03T22:44:21Z" user="papyrus048_Intégration_cadastre" uid="1009027" lat="48.9978643" lon="5.3017526"/>
 <node id="2331203481" visible="true" version="1" changeset="16413828" timestamp="2013-06-03T22:44:21Z" user="papyrus048_Intégration_cadastre" uid="1009027" lat="48.9978927" lon="5.3020497"/>
 <node id="2331203482" visible="true" version="1" changeset="16413828" timestamp="2013-06-03T22:44:21Z" user="papyrus048_Intégration_cadastre" uid="1009027" lat="48.9979218" lon="5.3019759"/>
 <node id="2331203483" visible="true" version="1" changeset="16413828" timestamp="2013-06-03T22:44:21Z" user="papyrus048_Intégration_cadastre" uid="1009027" lat="48.9979508" lon="5.3017269"/>
 <node id="2331203484" visible="true" version="1" changeset="16413828" timestamp="2013-06-03T22:44:21Z" user="papyrus048_Intégration_cadastre" uid="1009027" lat="48.9980714" lon="5.3016370"/>
 <node id="2331203485" visible="true" version="1" changeset="16413828" timestamp="2013-06-03T22:44:21Z" user="papyrus048_Intégration_cadastre" uid="1009027" lat="48.9980764" lon="5.3016907"/>
 <node id="2331203486" visible="true" version="1" changeset="16413828" timestamp="2013-06-03T22:44:22Z" user="papyrus048_Intégration_cadastre" uid="1009027" lat="48.9983096" lon="5.3015687"/>
 <node id="2331203487" visible="true" version="1" changeset="16413828" timestamp="2013-06-03T22:44:22Z" user="papyrus048_Intégration_cadastre" uid="1009027" lat="48.9987193" lon="5.3014184"/>
 <node id="2331203488" visible="true" version="1" changeset="16413828" timestamp="2013-06-03T22:44:22Z" user="papyrus048_Intégration_cadastre" uid="1009027" lat="48.9990745" lon="5.3012745"/>
 <node id="2331203489" visible="true" version="1" changeset="16413828" timestamp="2013-06-03T22:44:22Z" user="papyrus048_Intégration_cadastre" uid="1009027" lat="48.9993144" lon="5.3011432"/>
 <node id="2331203490" visible="true" version="1" changeset="16413828" timestamp="2013-06-03T22:44:22Z" user="papyrus048_Intégration_cadastre" uid="1009027" lat="48.9993642" lon="5.3013161"/>
 <node id="2331203491" visible="true" version="1" changeset="16413828" timestamp="2013-06-03T22:44:22Z" user="papyrus048_Intégration_cadastre" uid="1009027" lat="48.9998702" lon="5.3018903"/>
 <node id="2331203492" visible="true" version="1" changeset="16413828" timestamp="2013-06-03T22:44:22Z" user="papyrus048_Intégration_cadastre" uid="1009027" lat="49.0002100" lon="5.3015999"/>
 <node id="2331203493" visible="true" version="1" changeset="16413828" timestamp="2013-06-03T22:44:22Z" user="papyrus048_Intégration_cadastre" uid="1009027" lat="49.0005131" lon="5.3013703"/>
 <node id="2331203494" visible="true" version="1" changeset="16413828" timestamp="2013-06-03T22:44:22Z" user="papyrus048_Intégration_cadastre" uid="1009027" lat="49.0008585" lon="5.3011142"/>
 <node id="2331203495" visible="true" version="1" changeset="16413828" timestamp="2013-06-03T22:44:23Z" user="papyrus048_Intégration_cadastre" uid="1009027" lat="49.0011296" lon="5.3005136"/>
 <node id="2331203496" visible="true" version="1" changeset="16413828" timestamp="2013-06-03T22:44:23Z" user="papyrus048_Intégration_cadastre" uid="1009027" lat="49.0012002" lon="5.3008724"/>
 <node id="2331203497" visible="true" version="1" changeset="16413828" timestamp="2013-06-03T22:44:23Z" user="papyrus048_Intégration_cadastre" uid="1009027" lat="49.0012690" lon="5.3008085"/>
 <node id="2331203498" visible="true" version="1" changeset="16413828" timestamp="2013-06-03T22:44:23Z" user="papyrus048_Intégration_cadastre" uid="1009027" lat="49.0012845" lon="5.3003335"/>
 <node id="2331203499" visible="true" version="1" changeset="16413828" timestamp="2013-06-03T22:44:23Z" user="papyrus048_Intégration_cadastre" uid="1009027" lat="49.0015752" lon="5.3000886"/>
 <node id="2331203500" visible="true" version="1" changeset="16413828" timestamp="2013-06-03T22:44:23Z" user="papyrus048_Intégration_cadastre" uid="1009027" lat="49.0017737" lon="5.2999499"/>
 <node id="2331203501" visible="true" version="1" changeset="16413828" timestamp="2013-06-03T22:44:23Z" user="papyrus048_Intégration_cadastre" uid="1009027" lat="49.0022811" lon="5.2997277"/>
 <node id="2331203502" visible="true" version="1" changeset="16413828" timestamp="2013-06-03T22:44:23Z" user="papyrus048_Intégration_cadastre" uid="1009027" lat="49.0026680" lon="5.2995955"/>
 <node id="2331203503" visible="true" version="1" changeset="16413828" timestamp="2013-06-03T22:44:24Z" user="papyrus048_Intégration_cadastre" uid="1009027" lat="49.0027785" lon="5.2995244"/>
 <node id="2331203504" visible="true" version="1" changeset="16413828" timestamp="2013-06-03T22:44:24Z" user="papyrus048_Intégration_cadastre" uid="1009027" lat="49.0033581" lon="5.2995979"/>
 <node id="2331203505" visible="true" version="1" changeset="16413828" timestamp="2013-06-03T22:44:24Z" user="papyrus048_Intégration_cadastre" uid="1009027" lat="49.0034724" lon="5.2988859"/>
 <node id="2331203506" visible="true" version="1" changeset="16413828" timestamp="2013-06-03T22:44:24Z" user="papyrus048_Intégration_cadastre" uid="1009027" lat="49.0035618" lon="5.2979005"/>
 <node id="2331203507" visible="true" version="1" changeset="16413828" timestamp="2013-06-03T22:44:24Z" user="papyrus048_Intégration_cadastre" uid="1009027" lat="49.0038571" lon="5.2978501"/>
 <node id="2331203508" visible="true" version="1" changeset="16413828" timestamp="2013-06-03T22:44:24Z" user="papyrus048_Intégration_cadastre" uid="1009027" lat="49.0041544" lon="5.2982176"/>
 <node id="2331203509" visible="true" version="1" changeset="16413828" timestamp="2013-06-03T22:44:24Z" user="papyrus048_Intégration_cadastre" uid="1009027" lat="49.0041614" lon="5.2979460"/>
 <node id="2331203510" visible="true" version="1" changeset="16413828" timestamp="2013-06-03T22:44:24Z" user="papyrus048_Intégration_cadastre" uid="1009027" lat="49.0043458" lon="5.2982290"/>
 <node id="2331203511" visible="true" version="1" changeset="16413828" timestamp="2013-06-03T22:44:24Z" user="papyrus048_Intégration_cadastre" uid="1009027" lat="49.0044216" lon="5.2982627"/>
 <node id="2331203512" visible="true" version="1" changeset="16413828" timestamp="2013-06-03T22:44:24Z" user="papyrus048_Intégration_cadastre" uid="1009027" lat="49.0044296" lon="5.2984478"/>
 <node id="2331203513" visible="true" version="1" changeset="16413828" timestamp="2013-06-03T22:44:25Z" user="papyrus048_Intégration_cadastre" uid="1009027" lat="49.0044946" lon="5.2988985"/>
 <node id="2331203514" visible="true" version="1" changeset="16413828" timestamp="2013-06-03T22:44:25Z" user="papyrus048_Intégration_cadastre" uid="1009027" lat="49.0046606" lon="5.2996466"/>
 <node id="2331203515" visible="true" version="1" changeset="16413828" timestamp="2013-06-03T22:44:25Z" user="papyrus048_Intégration_cadastre" uid="1009027" lat="49.0047980" lon="5.3000143"/>
 <node id="2331203516" visible="true" version="1" changeset="16413828" timestamp="2013-06-03T22:44:25Z" user="papyrus048_Intégration_cadastre" uid="1009027" lat="49.0048706" lon="5.3001740"/>
 <node id="2331203517" visible="true" version="1" changeset="16413828" timestamp="2013-06-03T22:44:25Z" user="papyrus048_Intégration_cadastre" uid="1009027" lat="49.0057502" lon="5.2992747"/>
 <node id="2331203518" visible="true" version="1" changeset="16413828" timestamp="2013-06-03T22:44:25Z" user="papyrus048_Intégration_cadastre" uid="1009027" lat="49.0058302" lon="5.2993960"/>
 <node id="2331203519" visible="true" version="1" changeset="16413828" timestamp="2013-06-03T22:44:25Z" user="papyrus048_Intégration_cadastre" uid="1009027" lat="49.0060057" lon="5.2992802"/>
 <node id="2331203520" visible="true" version="1" changeset="16413828" timestamp="2013-06-03T22:44:25Z" user="papyrus048_Intégration_cadastre" uid="1009027" lat="49.0064174" lon="5.2986832"/>
 <node id="2331203521" visible="true" version="1" changeset="16413828" timestamp="2013-06-03T22:44:25Z" user="papyrus048_Intégration_cadastre" uid="1009027" lat="49.0065781" lon="5.2984014"/>
 <node id="2331203522" visible="true" version="1" changeset="16413828" timestamp="2013-06-03T22:44:26Z" user="papyrus048_Intégration_cadastre" uid="1009027" lat="49.0074768" lon="5.2992322"/>
 <node id="2331203523" visible="true" version="1" changeset="16413828" timestamp="2013-06-03T22:44:26Z" user="papyrus048_Intégration_cadastre" uid="1009027" lat="49.0082216" lon="5.2998402"/>
 <node id="2331203524" visible="true" version="1" changeset="16413828" timestamp="2013-06-03T22:44:26Z" user="papyrus048_Intégration_cadastre" uid="1009027" lat="49.0093299" lon="5.3007225"/>
 <node id="2331203525" visible="true" version="1" changeset="16413828" timestamp="2013-06-03T22:44:26Z" user="papyrus048_Intégration_cadastre" uid="1009027" lat="49.0095846" lon="5.3012527"/>
 <node id="2632235418" visible="true" version="7" changeset="129474245" timestamp="2022-11-28T12:11:24Z" user="user_5589" uid="5589" lat="48.9807360" lon="5.2539500">
  <tag k="height" v="47"/>
  <tag k="operator" v="RTE"/>
  <tag k="operator:wikidata" v="Q2178795"/>
  <tag k="power" v="tower"/>
  <tag k="ref" v="1"/>
  <tag k="source" v="data.gouv.fr:RTE - 2022-01"/>
 </node>
 <node id="3497488685" visible="true" version="3" changeset="128774519" timestamp="2022-11-11T12:21:11Z" user="user_5589" uid="5589" lat="48.9418592" lon="5.6515267">
  <tag k="operator" v="RTE"/>
  <tag k="operator:wikidata" v="Q2178795"/>
  <tag k="power" v="tower"/>
 </node>
 <node id="3648005528" visible="true" version="4" changeset="128774519" timestamp="2022-11-11T12:21:11Z" user="user_5589" uid="5589" lat="48.9353667" lon="5.6996000">
  <tag k="height" v="23"/>
  <tag k="operator" v="RTE"/>
  <tag k="operator:wikidata" v="Q2178795"/>
  <tag k="power" v="tower"/>
  <tag k="ref" v="119"/>
  <tag k="source" v="data.gouv.fr:RTE - 12/2018"/>
 </node>
 <node id="3826518894" visible="true" version="2" changeset="64094657" timestamp="2018-11-01T21:45:18Z" user="InfosReseaux" uid="93222" lat="48.9810281" lon="5.2532805">
  <tag k="operator" v="RTE"/>
  <tag k="power" v="insulator"/>
 </node>
 <node id="3879795626" visible="true" version="4" changeset="128774519" timestamp="2022-11-11T12:21:11Z" user="user_5589" uid="5589" lat="48.9372498" lon="5.6885554">
  <tag k="operator" v="RTE"/>
  <tag k="operator:wikidata" v="Q2178795"/>
  <tag k="power" v="tower"/>
  <tag k="ref" v="116"/>
  <tag k="source" v="data.gouv.fr:RTE - 12/2018"/>
 </node>
 <node id="3879814412" visible="true" version="3" changeset="128774519" timestamp="2022-11-11T12:21:11Z" user="user_5589" uid="5589" lat="48.9388165" lon="5.6770185">
  <tag k="operator" v="RTE"/>
  <tag k="operator:wikidata" v="Q2178795"/>
  <tag k="power" v="tower"/>
 </node>
 <node id="3879814413" visible="true" version="4" changeset="128774519" timestamp="2022-11-11T12:21:11Z" user="user_5589" uid="5589" lat="48.9379806" lon="5.6841556">
  <tag k="operator" v="RTE"/>
  <tag k="operator:wikidata" v="Q2178795"/>
  <tag k="power" v="tower"/>
  <tag k="ref" v="114"/>
  <tag k="source" v="data.gouv.fr:RTE - 12/2018"/>
 </node>
 <node id="6030759216" visible="true" version="2" changeset="127054352" timestamp="2022-10-05T15:40:51Z" user="user_5589" uid="5589" lat="48.9366707" lon="5.9689799">
  <tag k="operator" v="RTE"/>
  <tag k="operator:wikidata" v="Q2178795"/>
  <tag k="power" v="tower"/>
 </node>
 <node id="6030759217" visible="true" version="2" changeset="127054352" timestamp="2022-10-05T15:40:51Z" user="user_5589" uid="5589" lat="48.9383727" lon="5.9748191">
  <tag k="operator" v="RTE"/>
  <tag k="operator:wikidata" v="Q2178795"/>
  <tag k="power" v="tower"/>
 </node>
 <node id="6030759218" visible="true" version="2" changeset="127054352" timestamp="2022-10-05T15:40:51Z" user="user_5589" uid="5589" lat="48.9375129" lon="5.9718525">
  <tag k="operator" v="RTE"/>
  <tag k="operator:wikidata" v="Q2178795"/>
  <tag k="power" v="tower"/>
 </node>
 <node id="6128416424" visible="true" version="1" changeset="65345658" timestamp="2018-12-10T14:03:46Z" user="Jeece" uid="1455268" lat="49.0130226" lon="5.2957077">
  <tag k="name" v="Voie de Heippes"/>
  <tag k="place" v="locality"/>
 </node>
 <node id="6128416425" visible="true" version="1" changeset="65345658" timestamp="2018-12-10T14:03:46Z" user="Jeece" uid="1455268" lat="49.0157247" lon="5.3041406">
  <tag k="name" v="La Warche"/>
  <tag k="place" v="locality"/>
 </node>
 <node id="6128616885" visible="true" version="1" changeset="65348202" timestamp="2018-12-10T15:36:41Z" user="Jeece" uid="1455268" lat="49.0091670" lon="5.2965817">
  <tag k="name" v="La Warge"/>
  <tag k="place" v="locality"/>
 </node>
 <node id="7086827876" visible="true" version="2" changeset="127054352" timestamp="2022-10-05T15:40:51Z" user="user_5589" uid="5589" lat="48.9452444" lon="5.9983139">
  <tag k="operator" v="RTE"/>
  <tag k="operator:wikidata" v="Q2178795"/>
  <tag k="power" v="tower"/>
  <tag k="ref" v="199"/>
  <tag k="source" v="data.gouv.fr:RTE - 12/2018"/>
 </node>
 <node id="7086867140" visible="true" version="2" changeset="129093375" timestamp="2022-11-18T16:25:27Z" user="user_5589" uid="5589" lat="48.9461583" lon="5.6153444">
  <tag k="operator" v="RTE"/>
  <tag k="operator:wikidata" v="Q2178795"/>
  <tag k="power" v="tower"/>
  <tag k="ref" v="97"/>
  <tag k="source" v="data.gouv.fr:RTE - 12/2018"/>
 </node>
 <node id="7086867141" visible="true" version="2" changeset="128774519" timestamp="2022-11-11T12:21:11Z" user="user_5589" uid="5589" lat="48.9410194" lon="5.6586111">
  <tag k="operator" v="RTE"/>
  <tag k="operator:wikidata" v="Q2178795"/>
  <tag k="power" v="tower"/>
  <tag k="ref" v="108"/>
  <tag k="source" v="data.gouv.fr:RTE - 12/2018"/>
 </node>
 <node id="7086867142" visible="true" version="2" changeset="128774519" timestamp="2022-11-11T12:21:11Z" user="user_5589" uid="5589" lat="48.9399028" lon="5.6682556">
  <tag k="operator" v="RTE"/>
  <tag k="operator:wikidata" v="Q2178795"/>
  <tag k="power" v="tower"/>
  <tag k="ref" v="110"/>
  <tag k="source" v="data.gouv.fr:RTE - 12/2018"/>
 </node>
 <node id="7086867143" visible="true" version="2" changeset="128774519" timestamp="2022-11-11T12:21:11Z" user="user_5589" uid="5589" lat="48.9376000" lon="5.6864361">
  <tag k="operator" v="RTE"/>
  <tag k="operator:wikidata" v="Q2178795"/>
  <tag k="power" v="tower"/>
  <tag k="ref" v="115"/>
  <tag k="source" v="data.gouv.fr:RTE - 12/2018"/>
 </node>
 <node id="7086867144" visible="true" version="2" changeset="128774519" timestamp="2022-11-11T12:21:11Z" user="user_5589" uid="5589" lat="48.9361222" lon="5.6951556">
  <tag k="operator" v="RTE"/>
  <tag k="operator:wikidata" v="Q2178795"/>
  <tag k="power" v="tower"/>
  <tag k="ref" v="117"/>
  <tag k="source" v="data.gouv.fr:RTE - 12/2018"/>
 </node>
 <node id="7086867145" visible="true" version="2" changeset="128774519" timestamp="2022-11-11T12:21:11Z" user="user_5589" uid="5589" lat="48.9356278" lon="5.6980250">
  <tag k="operator" v="RTE"/>
  <tag k="operator:wikidata" v="Q2178795"/>
  <tag k="power" v="tower"/>
  <tag k="ref" v="118"/>
  <tag k="source" v="data.gouv.fr:RTE - 12/2018"/>
 </node>
 <node id="7086867146" visible="true" version="2" changeset="128774519" timestamp="2022-11-11T12:21:11Z" user="user_5589" uid="5589" lat="48.9237861" lon="5.8127694">
  <tag k="operator" v="RTE"/>
  <tag k="operator:wikidata" v="Q2178795"/>
  <tag k="power" v="tower"/>
  <tag k="ref" v="150"/>
  <tag k="source" v="data.gouv.fr:RTE - 12/2018"/>
 </node>
 <node id="7086867147" visible="true" version="2" changeset="128774519" timestamp="2022-11-11T12:21:11Z" user="user_5589" uid="5589" lat="48.9222056" lon="5.8328139">
  <tag k="operator" v="RTE"/>
  <tag k="operator:wikidata" v="Q2178795"/>
  <tag k="power" v="tower"/>
  <tag k="ref" v="156"/>
  <tag k="source" v="data.gouv.fr:RTE - 12/2018"/>
 </node>
 <node id="7086867148" visible="true" version="2" changeset="128774519" timestamp="2022-11-11T12:21:11Z" user="user_5589" uid="5589" lat="48.9216444" lon="5.8400194">
  <tag k="operator" v="RTE"/>
  <tag k="operator:wikidata" v="Q2178795"/>
  <tag k="power" v="tower"/>
  <tag k="ref" v="158"/>
  <tag k="source" v="data.gouv.fr:RTE - 12/2018"/>
 </node>
 <node id="7086867149" visible="true" version="2" changeset="128774519" timestamp="2022-11-11T12:21:11Z" user="user_5589" uid="5589" lat="48.9213194" lon="5.8589583">
  <tag k="operator" v="RTE"/>
  <tag k="operator:wikidata" v="Q2178795"/>
  <tag k="power" v="tower"/>
  <tag k="ref" v="163"/>
  <tag k="source" v="data.gouv.fr:RTE - 12/2018"/>
 </node>
 <node id="9510877874" visible="true" version="1" changeset="117483534" timestamp="2022-02-16T16:14:35Z" user="Max-Kritic" uid="414659" lat="49.0076996" lon="5.2963006"/>
 <node id="9510877875" visible="true" version="1" changeset="117483534" timestamp="2022-02-16T16:14:35Z" user="Max-Kritic" uid="414659" lat="49.0079107" lon="5.2973735"/>
 <way id="65893905" visible="true" version="4" changeset="118363795" timestamp="2022-03-11T13:14:43Z" user="Test360" uid="1418137">
  <nd ref="801617190"/>
  <nd ref="801622301"/>
  <nd ref="801621497"/>
  <nd ref="801616641"/>
  <nd ref="801620937"/>
  <nd ref="801615637"/>
  <nd ref="9510877875"/>
  <nd ref="9510877874"/>
  <nd ref="801620598"/>
  <nd ref="801614351"/>
  <nd ref="801617751"/>
  <nd ref="801619169"/>
  <nd ref="801621287"/>
  <nd ref="801619695"/>
  <nd ref="801621850"/>
  <nd ref="801615043"/>
  <nd ref="801620061"/>
  <nd ref="801613964"/>
  <nd ref="801617190"/>
  <tag k="landuse" v="forest"/>
  <tag k="leaf_type" v="broadleaved"/>
 </way>
 <way id="209014127" visible="true" version="3" changeset="16451749" timestamp="2013-06-07T01:28:20Z" user="Verdy_p" uid="90780">
  <nd ref="2203162288"/>
  <nd ref="2203162291"/>
  <nd ref="2203162292"/>
  <nd ref="2203162287"/>
  <nd ref="2203162276"/>
  <nd ref="2203162273"/>
  <nd ref="2203162277"/>
  <nd ref="2203162271"/>
  <nd ref="2203162259"/>
  <nd ref="2203162255"/>
  <nd ref="2203162249"/>
  <nd ref="2203162243"/>
  <nd ref="2203162248"/>
  <nd ref="2203162252"/>
  <nd ref="2203162250"/>
  <nd ref="2203162283"/>
  <nd ref="2203162296"/>
  <nd ref="2203162294"/>
  <nd ref="2203162289"/>
  <nd ref="2203162285"/>
  <nd ref="2203162280"/>
  <nd ref="2203162272"/>
  <nd ref="2203162266"/>
  <nd ref="2203162245"/>
  <nd ref="2203162236"/>
  <nd ref="2203162223"/>
  <nd ref="2203162173"/>
  <nd ref="2203162176"/>
  <nd ref="2203162169"/>
  <nd ref="2203162156"/>
  <nd ref="2203162149"/>
  <nd ref="2203162133"/>
  <nd ref="2203162130"/>
  <nd ref="2203162126"/>
  <nd ref="2203162137"/>
  <nd ref="2203162142"/>
  <nd ref="2203162194"/>
  <nd ref="2203162196"/>
  <nd ref="2203162200"/>
  <nd ref="2203162209"/>
  <nd ref="2203162218"/>
  <nd ref="2203162198"/>
  <nd ref="2203162205"/>
  <nd ref="2203162210"/>
  <nd ref="2203162212"/>
  <nd ref="2203162203"/>
  <nd ref="2203162214"/>
  <nd ref="2203162219"/>
  <nd ref="2203162220"/>
  <nd ref="2203162221"/>
  <nd ref="2203162211"/>
  <nd ref="2203162187"/>
  <nd ref="2203162182"/>
  <nd ref="2203162215"/>
  <nd ref="2203162230"/>
  <nd ref="2203162228"/>
  <nd ref="2203162225"/>
  <nd ref="2203162224"/>
  <nd ref="2203162207"/>
  <nd ref="2203162189"/>
  <nd ref="2203162185"/>
  <nd ref="2203162180"/>
  <nd ref="2203162175"/>
  <nd ref="2203162170"/>
  <nd ref="2203162146"/>
  <tag k="admin_level" v="8"/>
  <tag k="boundary" v="administrative"/>
  <tag k="source" v="cadastre-dgi-fr source : Direction Générale des Impôts - Cadastre. Mise à jour : 2013"/>
 </way>
 <way id="210217807" visible="true" version="3" changeset="135937509" timestamp="2023-05-10T13:37:51Z" user="user_9375142" uid="9375142">
  <nd ref="2203162146"/>
  <nd ref="2203162192"/>
  <nd ref="2203162232"/>
  <nd ref="2203162237"/>
  <nd ref="2203162246"/>
  <nd ref="2203162278"/>
  <nd ref="2203162281"/>
  <nd ref="2203162303"/>
  <tag k="highway" v="track"/>
  <tag k="name" v="Chemin de la Voie Romaine"/>
  <tag k="source" v="cadastre-dgi-fr source : Direction Générale des Impôts - Cadastre. Mise à jour : 2013"/>
 </way>
 <way id="210217810" visible="true" version="1" changeset="15373005" timestamp="2013-03-15T12:35:35Z" user="Damouns" uid="13442">
  <nd ref="2203162569"/>
  <nd ref="2203162381"/>
  <nd ref="2203162369"/>
  <nd ref="2203162359"/>
  <nd ref="2203162348"/>
  <nd ref="2203162339"/>
  <nd ref="2203162332"/>
  <nd ref="2203162302"/>
  <nd ref="2203162238"/>
  <nd ref="2203162175"/>
  <nd ref="2203162170"/>
  <nd ref="2203162146"/>
  <tag k="highway" v="track"/>
  <tag k="name" v="Chemin de la Warche"/>
  <tag k="source" v="cadastre-dgi-fr source : Direction Générale des Impôts - Cadastre. Mise à jour : 2013"/>
 </way>
 <way id="210217841" visible="true" version="1" changeset="15373005" timestamp="2013-03-15T12:35:39Z" user="Damouns" uid="13442">
  <nd ref="2203162308"/>
  <nd ref="2203162298"/>
  <nd ref="2203162297"/>
  <nd ref="2203162284"/>
  <nd ref="2203162282"/>
  <nd ref="2203162299"/>
  <nd ref="2203162300"/>
  <nd ref="2203162309"/>
  <nd ref="2203162308"/>
  <tag k="landuse" v="forest"/>
  <tag k="source" v="Bing"/>
 </way>
 <way id="210217860" visible="true" version="1" changeset="15373005" timestamp="2013-03-15T12:35:41Z" user="Damouns" uid="13442">
  <nd ref="2203162244"/>
  <nd ref="2203162247"/>
  <nd ref="2203162251"/>
  <nd ref="2203162253"/>
  <nd ref="2203162254"/>
  <nd ref="2203162257"/>
  <nd ref="2203162261"/>
  <nd ref="2203162256"/>
  <nd ref="2203162263"/>
  <nd ref="2203162265"/>
  <nd ref="2203162262"/>
  <nd ref="2203162264"/>
  <nd ref="2203162267"/>
  <nd ref="2203162260"/>
  <nd ref="2203162240"/>
  <nd ref="2203162239"/>
  <nd ref="2203162235"/>
  <nd ref="2203162229"/>
  <nd ref="2203162233"/>
  <nd ref="2203162241"/>
  <nd ref="2203162227"/>
  <nd ref="2203162216"/>
  <nd ref="2203162172"/>
  <nd ref="2203162222"/>
  <nd ref="2203162226"/>
  <nd ref="2203162213"/>
  <nd ref="2203162171"/>
  <nd ref="2203162158"/>
  <nd ref="2203162144"/>
  <nd ref="2203162135"/>
  <nd ref="2203162151"/>
  <nd ref="2203162139"/>
  <nd ref="2203162178"/>
  <nd ref="2203162174"/>
  <nd ref="2203162192"/>
  <nd ref="2203162146"/>
  <tag k="admin_level" v="8"/>
  <tag k="boundary" v="administrative"/>
  <tag k="source" v="cadastre-dgi-fr source : Direction Générale des Impôts - Cadastre. Mise à jour : 2013"/>
 </way>
 <way id="224301729" visible="true" version="1" changeset="16413828" timestamp="2013-06-03T22:44:27Z" user="papyrus048_Intégration_cadastre" uid="1009027">
  <nd ref="2203162146"/>
  <nd ref="2331203525"/>
  <nd ref="2331203524"/>
  <nd ref="2331203523"/>
  <nd ref="2331203522"/>
  <nd ref="2331203521"/>
  <nd ref="2331203520"/>
  <nd ref="2331203519"/>
  <nd ref="2331203518"/>
  <nd ref="2331203517"/>
  <nd ref="2331203516"/>
  <nd ref="2331203515"/>
  <nd ref="2331203514"/>
  <nd ref="2331203513"/>
  <nd ref="2331203512"/>
  <nd ref="2331203511"/>
  <nd ref="2331203510"/>
  <nd ref="2331203508"/>
  <nd ref="2331203509"/>
  <nd ref="2331203507"/>
  <nd ref="2331203506"/>
  <nd ref="2331203505"/>
  <nd ref="2331203504"/>
  <nd ref="2331203503"/>
  <nd ref="2331203502"/>
  <nd ref="2331203501"/>
  <nd ref="2331203500"/>
  <nd ref="2331203499"/>
  <nd ref="2331203498"/>
  <nd ref="2331203495"/>
  <nd ref="2331203497"/>
  <nd ref="2331203496"/>
  <nd ref="2331203494"/>
  <nd ref="2331203493"/>
  <nd ref="2331203492"/>
  <nd ref="2331203491"/>
  <nd ref="2331203490"/>
  <nd ref="2331203489"/>
  <nd ref="2331203488"/>
  <nd ref="2331203487"/>
  <nd ref="2331203486"/>
  <nd ref="2331203484"/>
  <nd ref="2331203485"/>
  <nd ref="2331203483"/>
  <nd ref="2331203480"/>
  <nd ref="2331203482"/>
  <nd ref="2331203481"/>
  <nd ref="2331203479"/>
  <nd ref="2331203478"/>
  <nd ref="2331203477"/>
  <nd ref="2331203476"/>
  <nd ref="2331203474"/>
  <nd ref="2331203473"/>
  <nd ref="2331203471"/>
  <nd ref="2331203470"/>
  <nd ref="2331203468"/>
  <nd ref="2331203466"/>
  <nd ref="2331203459"/>
  <nd ref="2331203451"/>
  <nd ref="2331203444"/>
  <nd ref="2331203437"/>
  <nd ref="2331203430"/>
  <nd ref="2331203423"/>
  <nd ref="2331203415"/>
  <nd ref="2331203408"/>
  <nd ref="2331203401"/>
  <nd ref="2331203397"/>
  <nd ref="2331203395"/>
  <nd ref="2331203393"/>
  <nd ref="2331203392"/>
  <nd ref="2331203390"/>
  <nd ref="2331203388"/>
  <nd ref="740927671"/>
  <tag k="admin_level" v="8"/>
  <tag k="boundary" v="administrative"/>
  <tag k="source" v="cadastre-dgi-fr source : Direction Générale des Impôts - Cadastre ; mise à jour : 2010"/>
 </way>
 <way id="364371886" visible="true" version="13" changeset="127054352" timestamp="2022-10-05T15:40:51Z" user="user_5589" uid="5589">
  <nd ref="1780679213"/>
  <nd ref="1780679215"/>
  <nd ref="1780679230"/>
  <nd ref="1780679258"/>
  <nd ref="1780679246"/>
  <nd ref="1780679224"/>
  <nd ref="1780679202"/>
  <nd ref="7086827876"/>
  <nd ref="1780679190"/>
  <nd ref="1780679187"/>
  <nd ref="1780679184"/>
  <nd ref="1780679182"/>
  <nd ref="1780679181"/>
  <nd ref="1780653700"/>
  <nd ref="6030759217"/>
  <nd ref="6030759218"/>
  <nd ref="6030759216"/>
  <nd ref="1780653696"/>
  <nd ref="1780653695"/>
  <nd ref="1780653694"/>
  <nd ref="1780653693"/>
  <nd ref="1780653691"/>
  <nd ref="1780653690"/>
  <nd ref="1780653689"/>
  <nd ref="1780653688"/>
  <nd ref="1780653687"/>
  <nd ref="1780653686"/>
  <nd ref="1780653684"/>
  <nd ref="1780653683"/>
  <nd ref="1780653682"/>
  <nd ref="1780653681"/>
  <nd ref="1780653679"/>
  <nd ref="1780653676"/>
  <nd ref="1780653667"/>
  <nd ref="670172631"/>
  <nd ref="1780653659"/>
  <nd ref="1780653655"/>
  <nd ref="1780653648"/>
  <nd ref="1780653641"/>
  <nd ref="1780653638"/>
  <nd ref="1780653629"/>
  <nd ref="1780653624"/>
  <nd ref="1780653620"/>
  <nd ref="1780653616"/>
  <nd ref="7086867149"/>
  <nd ref="1780653602"/>
  <nd ref="1780653605"/>
  <nd ref="1780653607"/>
  <nd ref="1780653608"/>
  <nd ref="7086867148"/>
  <nd ref="1780653618"/>
  <nd ref="7086867147"/>
  <nd ref="1780653622"/>
  <nd ref="1780653627"/>
  <nd ref="1780653631"/>
  <nd ref="1780653634"/>
  <nd ref="1780653636"/>
  <nd ref="7086867146"/>
  <nd ref="1780653640"/>
  <nd ref="1780653644"/>
  <nd ref="1780653646"/>
  <nd ref="1780653651"/>
  <nd ref="1780653653"/>
  <nd ref="1780653657"/>
  <nd ref="1780653661"/>
  <nd ref="1780653663"/>
  <nd ref="1780653665"/>
  <nd ref="1780653669"/>
  <nd ref="1780653675"/>
  <nd ref="1780653677"/>
  <nd ref="1780653678"/>
  <nd ref="1780653680"/>
  <nd ref="1780653685"/>
  <nd ref="1780653692"/>
  <nd ref="1780653697"/>
  <nd ref="1780653699"/>
  <nd ref="1780653702"/>
  <nd ref="1780653704"/>
  <nd ref="1780653705"/>
  <nd ref="1780653708"/>
  <nd ref="1780653709"/>
  <nd ref="1780653710"/>
  <nd ref="1780653707"/>
  <nd ref="1780653706"/>
  <nd ref="1780653703"/>
  <nd ref="1780653701"/>
  <nd ref="1780653698"/>
  <nd ref="1780628728"/>
  <nd ref="3648005528"/>
  <nd ref="7086867145"/>
  <nd ref="7086867144"/>
  <nd ref="3879795626"/>
  <nd ref="7086867143"/>
  <nd ref="3879814413"/>
  <nd ref="1780628730"/>
  <nd ref="3879814412"/>
  <nd ref="1780628731"/>
  <nd ref="7086867142"/>
  <nd ref="1780628733"/>
  <nd ref="7086867141"/>
  <nd ref="1780628734"/>
  <nd ref="3497488685"/>
  <nd ref="1780628735"/>
  <nd ref="1780628737"/>
  <nd ref="1780628738"/>
  <nd ref="1780628739"/>
  <nd ref="1780628740"/>
  <nd ref="1780628742"/>
  <nd ref="1780628743"/>
  <nd ref="1547061150"/>
  <nd ref="7086867140"/>
  <nd ref="1780628745"/>
  <nd ref="1780628747"/>
  <nd ref="1780628748"/>
  <nd ref="1780628749"/>
  <nd ref="1780628751"/>
  <nd ref="1780628752"/>
  <nd ref="1780628753"/>
  <nd ref="1780628754"/>
  <nd ref="1780628755"/>
  <nd ref="1780628757"/>
  <nd ref="1780628758"/>
  <nd ref="1780628760"/>
  <nd ref="1780628761"/>
  <nd ref="1780628762"/>
  <nd ref="1780628764"/>
  <nd ref="1780628765"/>
  <nd ref="1780628766"/>
  <nd ref="1780628767"/>
  <nd ref="1780628768"/>
  <nd ref="1780628770"/>
  <nd ref="1780628771"/>
  <nd ref="1780628772"/>
  <nd ref="1780628773"/>
  <nd ref="1780628775"/>
  <nd ref="1780628776"/>
  <nd ref="1780628777"/>
  <nd ref="1780628778"/>
  <nd ref="1780628779"/>
  <nd ref="1780628780"/>
  <nd ref="1780628781"/>
  <nd ref="1780628783"/>
  <nd ref="1780628784"/>
  <nd ref="1780628785"/>
  <nd ref="1780628787"/>
  <nd ref="1780628788"/>
  <nd ref="1780628789"/>
  <nd ref="1780628791"/>
  <nd ref="1780628792"/>
  <nd ref="1780628793"/>
  <nd ref="1780628795"/>
  <nd ref="1780628796"/>
  <nd ref="1780628797"/>
  <nd ref="1780628799"/>
  <nd ref="1780628800"/>
  <nd ref="1780628801"/>
  <nd ref="1780628802"/>
  <nd ref="1780628804"/>
  <nd ref="1780628805"/>
  <nd ref="1780628806"/>
  <nd ref="1780628809"/>
  <nd ref="1780628810"/>
  <nd ref="1780628812"/>
  <nd ref="1780628813"/>
  <nd ref="1780628814"/>
  <nd ref="1780628816"/>
  <nd ref="1780628817"/>
  <nd ref="1780628819"/>
  <nd ref="1780628821"/>
  <nd ref="1780628822"/>
  <nd ref="1780628823"/>
  <nd ref="1780628826"/>
  <nd ref="1780628827"/>
  <nd ref="1780628828"/>
  <nd ref="1780628830"/>
  <nd ref="1780628831"/>
  <nd ref="1780628832"/>
  <nd ref="1780628835"/>
  <nd ref="1780628836"/>
  <nd ref="1780628837"/>
  <nd ref="1780628840"/>
  <nd ref="1780628841"/>
  <nd ref="1780628842"/>
  <nd ref="1780628844"/>
  <nd ref="1780628845"/>
  <nd ref="1780628847"/>
  <nd ref="1780628849"/>
  <nd ref="1780628850"/>
  <nd ref="1780628851"/>
  <nd ref="1780628853"/>
  <nd ref="1780628854"/>
  <nd ref="1780628855"/>
  <nd ref="1780628856"/>
  <nd ref="1780628857"/>
  <nd ref="1780628860"/>
  <nd ref="1780628861"/>
  <nd ref="1780628862"/>
  <nd ref="1780628859"/>
  <nd ref="1780628852"/>
  <nd ref="1780628846"/>
  <nd ref="1780628838"/>
  <nd ref="1780628834"/>
  <nd ref="1780628824"/>
  <nd ref="1780628818"/>
  <nd ref="1780628811"/>
  <nd ref="2632235418"/>
  <nd ref="3826518894"/>
  <tag k="cables" v="3"/>
  <tag k="circuits" v="1"/>
  <tag k="name" v="Liaison 225 kV n°1 Trois Domaines - Vandières"/>
  <tag k="operator" v="RTE"/>
  <tag k="operator:wikidata" v="Q2178795"/>
  <tag k="power" v="line"/>
  <tag k="voltage" v="225000"/>
  <tag k="wires" v="single"/>
 </way>
 <way id="1171246556" visible="true" version="1" changeset="135937509" timestamp="2023-05-10T13:37:51Z" user="user_9375142" uid="9375142">
  <nd ref="2203162096"/>
  <nd ref="2203162100"/>
  <nd ref="2203162105"/>
  <nd ref="2203162110"/>
  <nd ref="2203162112"/>
  <nd ref="2203162114"/>
  <nd ref="2203162116"/>
  <nd ref="2203162121"/>
  <nd ref="2203162128"/>
  <nd ref="2203162146"/>
  <tag k="highway" v="track"/>
  <tag k="name" v="Chemin de la Voie Romaine"/>
  <tag k="source" v="cadastre-dgi-fr source : Direction Générale des Impôts - Cadastre. Mise à jour : 2013"/>
 </way>
 <relation id="501717" visible="true" version="3" changeset="45348554" timestamp="2017-01-21T13:54:12Z" user="PanierAvide" uid="214436">
  <member type="node" ref="670172631" role=""/>
  <member type="node" ref="670172633" role=""/>
  <tag k="name" v="Viéville-en-Haye III"/>
  <tag k="network" v="NTF-4"/>
  <tag k="ref" v="5456403"/>
  <tag k="site" v="geodesic"/>
  <tag k="source" v="©IGN 2010 dans le cadre de la cartographie réglementaire"/>
  <tag k="type" v="site"/>
  <tag k="url" v="http://geodesie.ign.fr/fiches/index.php?module=e&amp;action=fichepdf&amp;source=carte&amp;sit_no=5456403"/>
 </relation>
 <relation id="502533" visible="true" version="3" changeset="45348554" timestamp="2017-01-21T13:56:03Z" user="PanierAvide" uid="214436">
  <member type="node" ref="670174789" role=""/>
  <tag k="name" v="Souilly III"/>
  <tag k="network" v="NTF-4"/>
  <tag k="ref" v="5549803"/>
  <tag k="site" v="geodesic"/>
  <tag k="source" v="©IGN 2010 dans le cadre de la cartographie réglementaire"/>
  <tag k="type" v="site"/>
  <tag k="url" v="http://geodesie.ign.fr/fiches/index.php?module=e&amp;action=fichepdf&amp;source=carte&amp;sit_no=5549803"/>
 </relation>
 <relation id="1024691" visible="true" version="23" changeset="118363795" timestamp="2022-03-11T13:14:43Z" user="Test360" uid="1418137">
  <member type="way" ref="1039329688" role="outer"/>
  <member type="way" ref="65893272" role="inner"/>
  <member type="way" ref="65893479" role="inner"/>
  <member type="way" ref="65894395" role="inner"/>
  <member type="way" ref="65893474" role="inner"/>
  <member type="way" ref="42007589" role="inner"/>
  <member type="way" ref="65893905" role="inner"/>
  <member type="way" ref="575124258" role="inner"/>
  <member type="way" ref="575124257" role="inner"/>
  <member type="way" ref="186531384" role="inner"/>
  <member type="way" ref="145628615" role="inner"/>
  <member type="way" ref="575199139" role="inner"/>
  <tag k="landuse" v="farmland"/>
  <tag k="source" v="Union européenne - SOeS, CORINE Land Cover, 2006."/>
  <tag k="type" v="multipolygon"/>
 </relation>
 <relation id="2820537" visible="true" version="12" changeset="116040541" timestamp="2022-01-11T20:59:44Z" user="cquest_bot" uid="541379">
  <member type="node" ref="294115660" role="admin_centre"/>
  <member type="way" ref="209014128" role="outer"/>
  <member type="way" ref="209014129" role="outer"/>
  <member type="way" ref="223404267" role="outer"/>
  <member type="way" ref="210217864" role="outer"/>
  <member type="way" ref="209014127" role="outer"/>
  <member type="way" ref="210217860" role="outer"/>
  <member type="way" ref="224788680" role="outer"/>
  <member type="way" ref="210217863" role="outer"/>
  <member type="way" ref="210217862" role="outer"/>
  <member type="way" ref="224355506" role="outer"/>
  <tag k="admin_level" v="8"/>
  <tag k="boundary" v="administrative"/>
  <tag k="name" v="Souilly"/>
  <tag k="population" v="465"/>
  <tag k="population:date" v="2019"/>
  <tag k="postal_code" v="55220"/>
  <tag k="ref:INSEE" v="55498"/>
  <tag k="source:population" v="INSEE 2022"/>
  <tag k="source:postal_code" v="La Poste - 12/2014"/>
  <tag k="type" v="boundary"/>
  <tag k="wikidata" v="Q1377718"/>
  <tag k="wikipedia" v="fr:Souilly"/>
 </relation>
 <relation id="2980346" visible="true" version="9" changeset="116040541" timestamp="2022-01-11T20:57:17Z" user="cquest_bot" uid="541379">
  <member type="node" ref="1590064954" role="admin_centre"/>
  <member type="way" ref="223404265" role="outer"/>
  <member type="way" ref="224299561" role="outer"/>
  <member type="way" ref="59707025" role="outer"/>
  <member type="way" ref="224301729" role="outer"/>
  <member type="way" ref="209014127" role="outer"/>
  <tag k="admin_level" v="8"/>
  <tag k="boundary" v="administrative"/>
  <tag k="name" v="Heippes"/>
  <tag k="population" v="78"/>
  <tag k="population:date" v="2019"/>
  <tag k="postal_code" v="55220"/>
  <tag k="ref:INSEE" v="55241"/>
  <tag k="source:population" v="INSEE 2022"/>
  <tag k="source:postal_code" v="La Poste - 12/2014"/>
  <tag k="type" v="boundary"/>
  <tag k="wikidata" v="Q775259"/>
  <tag k="wikipedia" v="fr:Heippes"/>
 </relation>
 <relation id="2989069" visible="true" version="9" changeset="143131844" timestamp="2023-10-25T19:32:55Z" user="chabe01" uid="502891">
  <member type="node" ref="1293823860" role="admin_centre"/>
  <member type="way" ref="224752568" role="outer"/>
  <member type="way" ref="210217860" role="outer"/>
  <member type="way" ref="224301729" role="outer"/>
  <member type="way" ref="1218362505" role="outer"/>
  <member type="way" ref="224301728" role="outer"/>
  <member type="way" ref="224745837" role="outer"/>
  <member type="way" ref="224745838" role="outer"/>
  <member type="way" ref="224858763" role="outer"/>
  <member type="way" ref="224846053" role="outer"/>
  <tag k="admin_level" v="8"/>
  <tag k="boundary" v="administrative"/>
  <tag k="name" v="Rambluzin-et-Benoite-Vaux"/>
  <tag k="population" v="107"/>
  <tag k="population:date" v="2019"/>
  <tag k="postal_code" v="55220"/>
  <tag k="ref:INSEE" v="55411"/>
  <tag k="source:population" v="INSEE 2022"/>
  <tag k="source:postal_code" v="La Poste - 12/2014"/>
  <tag k="type" v="boundary"/>
  <tag k="wikidata" v="Q1410120"/>
  <tag k="wikipedia" v="fr:Rambluzin-et-Benoite-Vaux"/>
 </relation>
 <relation id="8878571" visible="true" version="1" changeset="64094657" timestamp="2018-11-01T21:44:04Z" user="InfosReseaux" uid="93222">
  <member type="way" ref="177428102" role="substation"/>
  <member type="way" ref="364371886" role="line"/>
  <member type="way" ref="166626064" role="line"/>
  <member type="way" ref="640143242" role="line"/>
  <member type="way" ref="147398279" role="substation"/>
  <tag k="cables" v="3"/>
  <tag k="frequency" v="50"/>
  <tag k="operator" v="RTE"/>
  <tag k="ref:FR:RTE" v="T.DOML61VANDI"/>
  <tag k="route" v="power"/>
  <tag k="type" v="route"/>
  <tag k="voltage" v="225000"/>
 </relation>
 <relation id="12662140" visible="true" version="2" changeset="135937509" timestamp="2023-05-10T13:37:51Z" user="user_9375142" uid="9375142">
  <member type="way" ref="1171246528" role=""/>
  <member type="way" ref="1171246556" role=""/>
  <member type="way" ref="210217807" role=""/>
  <member type="way" ref="210217806" role=""/>
  <tag k="historic" v="roman_road"/>
  <tag k="name" v="Voie Romaine"/>
  <tag k="route" v="historic"/>
  <tag k="type" v="route"/>
 </relation>
 <relation id="15834140" visible="true" version="1" changeset="135937509" timestamp="2023-05-10T13:37:51Z" user="user_9375142" uid="9375142">
  <member type="way" ref="1171246541" role=""/>
  <member type="way" ref="1171246553" role=""/>
  <member type="way" ref="1171246548" role=""/>
  <member type="way" ref="1171246547" role=""/>
  <member type="way" ref="1171246554" role=""/>
  <member type="way" ref="1171246549" role=""/>
  <member type="way" ref="1171246550" role=""/>
  <member type="way" ref="497500293" role=""/>
  <member type="way" ref="1171246555" role=""/>
  <member type="way" ref="761848979" role=""/>
  <member type="way" ref="1171246526" role=""/>
  <member type="way" ref="1171246527" role=""/>
  <member type="way" ref="1171246528" role=""/>
  <member type="way" ref="1171246556" role=""/>
  <member type="way" ref="210217810" role=""/>
  <member type="way" ref="210217829" role=""/>
  <member type="way" ref="549927270" role=""/>
  <member type="way" ref="549927272" role=""/>
  <member type="way" ref="1171246515" role=""/>
  <member type="way" ref="549927273" role=""/>
  <member type="way" ref="1171246514" role=""/>
  <member type="way" ref="472386006" role=""/>
  <member type="way" ref="472386004" role=""/>
  <member type="way" ref="687782138" role=""/>
  <member type="way" ref="472386005" role=""/>
  <member type="way" ref="472386003" role=""/>
  <member type="way" ref="1171246543" role=""/>
  <member type="way" ref="1171246540" role=""/>
  <member type="way" ref="1171246541" role=""/>
  <tag k="name" v="La Fontaine de La Vierge"/>
  <tag k="network" v="lwn"/>
  <tag k="osmc:symbol" v="yellow:white:yellow_bar:39:black"/>
  <tag k="ref" v="39"/>
  <tag k="route" v="hiking"/>
  <tag k="type" v="route"/>
 </relation>
</osm>
