<?xml version="1.0" encoding="UTF-8"?>
<osm version="0.6" generator="CGImap 0.8.10 (430726 spike-08.openstreetmap.org)" copyright="OpenStreetMap and contributors" attribution="http://www.openstreetmap.org/copyright" license="http://opendatacommons.org/licenses/odbl/1-0/">
 <bounds minlat="49.2821402" minlon="5.6579590" maxlat="49.2893064" maxlon="5.6689453"/>
 <node id="520990582" visible="true" version="1" changeset="2745125" timestamp="2009-10-05T04:15:21Z" user="CLCF06" uid="143308" lat="49.2919925" lon="5.6661826"/>
 <node id="520990585" visible="true" version="1" changeset="2745125" timestamp="2009-10-05T04:15:21Z" user="CLCF06" uid="143308" lat="49.2954097" lon="5.6630941"/>
 <node id="520990586" visible="true" version="1" changeset="2745125" timestamp="2009-10-05T04:15:21Z" user="CLCF06" uid="143308" lat="49.2973861" lon="5.6608031"/>
 <node id="520990587" visible="true" version="1" changeset="2745125" timestamp="2009-10-05T04:15:21Z" user="CLCF06" uid="143308" lat="49.2979254" lon="5.6603739"/>
 <node id="520990588" visible="true" version="1" changeset="2745125" timestamp="2009-10-05T04:15:21Z" user="CLCF06" uid="143308" lat="49.3017519" lon="5.6674563"/>
 <node id="520990589" visible="true" version="1" changeset="2745125" timestamp="2009-10-05T04:15:21Z" user="CLCF06" uid="143308" lat="49.3011845" lon="5.6680520"/>
 <node id="520990590" visible="true" version="1" changeset="2745125" timestamp="2009-10-05T04:15:21Z" user="CLCF06" uid="143308" lat="49.3019372" lon="5.6709016"/>
 <node id="520990591" visible="true" version="1" changeset="2745125" timestamp="2009-10-05T04:15:21Z" user="CLCF06" uid="143308" lat="49.3013242" lon="5.6720082"/>
 <node id="520990592" visible="true" version="1" changeset="2745125" timestamp="2009-10-05T04:15:21Z" user="CLCF06" uid="143308" lat="49.3021633" lon="5.6747363"/>
 <node id="520990593" visible="true" version="1" changeset="2745125" timestamp="2009-10-05T04:15:21Z" user="CLCF06" uid="143308" lat="49.3008009" lon="5.6757942"/>
 <node id="520990594" visible="true" version="1" changeset="2745125" timestamp="2009-10-05T04:15:21Z" user="CLCF06" uid="143308" lat="49.2995784" lon="5.6718948"/>
 <node id="520990595" visible="true" version="1" changeset="2745125" timestamp="2009-10-05T04:15:21Z" user="CLCF06" uid="143308" lat="49.3004334" lon="5.6710592"/>
 <node id="520990596" visible="true" version="1" changeset="2745125" timestamp="2009-10-05T04:15:21Z" user="CLCF06" uid="143308" lat="49.2985584" lon="5.6666082"/>
 <node id="520990597" visible="true" version="1" changeset="2745125" timestamp="2009-10-05T04:15:21Z" user="CLCF06" uid="143308" lat="49.2972777" lon="5.6677986"/>
 <node id="520990598" visible="true" version="1" changeset="2745125" timestamp="2009-10-05T04:15:21Z" user="CLCF06" uid="143308" lat="49.2980841" lon="5.6696912"/>
 <node id="520990599" visible="true" version="1" changeset="2745125" timestamp="2009-10-05T04:15:21Z" user="CLCF06" uid="143308" lat="49.2972630" lon="5.6700350"/>
 <node id="520990600" visible="true" version="1" changeset="2745125" timestamp="2009-10-05T04:15:21Z" user="CLCF06" uid="143308" lat="49.2967386" lon="5.6691643"/>
 <node id="520990601" visible="true" version="1" changeset="2745125" timestamp="2009-10-05T04:15:21Z" user="CLCF06" uid="143308" lat="49.2923586" lon="5.6739720"/>
 <node id="520990602" visible="true" version="1" changeset="2745125" timestamp="2009-10-05T04:15:21Z" user="CLCF06" uid="143308" lat="49.2923162" lon="5.6754970"/>
 <node id="520990603" visible="true" version="1" changeset="2745125" timestamp="2009-10-05T04:15:21Z" user="CLCF06" uid="143308" lat="49.2929313" lon="5.6803754"/>
 <node id="520990604" visible="true" version="1" changeset="2745125" timestamp="2009-10-05T04:15:21Z" user="CLCF06" uid="143308" lat="49.2900984" lon="5.6833734"/>
 <node id="520990605" visible="true" version="1" changeset="2745125" timestamp="2009-10-05T04:15:21Z" user="CLCF06" uid="143308" lat="49.2894767" lon="5.6818053"/>
 <node id="520990606" visible="true" version="1" changeset="2745125" timestamp="2009-10-05T04:15:21Z" user="CLCF06" uid="143308" lat="49.2885560" lon="5.6789445"/>
 <node id="520990607" visible="true" version="1" changeset="2745125" timestamp="2009-10-05T04:15:21Z" user="CLCF06" uid="143308" lat="49.2884396" lon="5.6790056"/>
 <node id="520990608" visible="true" version="1" changeset="2745125" timestamp="2009-10-05T04:15:21Z" user="CLCF06" uid="143308" lat="49.2881221" lon="5.6774900"/>
 <node id="520990609" visible="true" version="1" changeset="2745125" timestamp="2009-10-05T04:15:22Z" user="CLCF06" uid="143308" lat="49.2868388" lon="5.6714940"/>
 <node id="520990610" visible="true" version="1" changeset="2745125" timestamp="2009-10-05T04:15:22Z" user="CLCF06" uid="143308" lat="49.2870221" lon="5.6712069"/>
 <node id="520990611" visible="true" version="1" changeset="2745125" timestamp="2009-10-05T04:15:22Z" user="CLCF06" uid="143308" lat="49.2874023" lon="5.6695769"/>
 <node id="520990612" visible="true" version="1" changeset="2745125" timestamp="2009-10-05T04:15:22Z" user="CLCF06" uid="143308" lat="49.2879870" lon="5.6694876"/>
 <node id="520990613" visible="true" version="1" changeset="2745125" timestamp="2009-10-05T04:15:22Z" user="CLCF06" uid="143308" lat="49.2886355" lon="5.6730935"/>
 <node id="520990614" visible="true" version="1" changeset="2745125" timestamp="2009-10-05T04:15:22Z" user="CLCF06" uid="143308" lat="49.2901216" lon="5.6795558"/>
 <node id="520990615" visible="true" version="1" changeset="2745125" timestamp="2009-10-05T04:15:22Z" user="CLCF06" uid="143308" lat="49.2914593" lon="5.6793877"/>
 <node id="520990616" visible="true" version="1" changeset="2745125" timestamp="2009-10-05T04:15:22Z" user="CLCF06" uid="143308" lat="49.2912103" lon="5.6733888"/>
 <node id="520990617" visible="true" version="1" changeset="2745125" timestamp="2009-10-05T04:15:22Z" user="CLCF06" uid="143308" lat="49.2922278" lon="5.6726910"/>
 <node id="520990618" visible="true" version="1" changeset="2745125" timestamp="2009-10-05T04:15:22Z" user="CLCF06" uid="143308" lat="49.2921801" lon="5.6714145"/>
 <node id="520990619" visible="true" version="1" changeset="2745125" timestamp="2009-10-05T04:15:22Z" user="CLCF06" uid="143308" lat="49.2910154" lon="5.6713389"/>
 <node id="520990620" visible="true" version="1" changeset="2745125" timestamp="2009-10-05T04:15:22Z" user="CLCF06" uid="143308" lat="49.2910931" lon="5.6685429"/>
 <node id="529843482" visible="true" version="1" changeset="2833949" timestamp="2009-10-13T10:11:06Z" user="Tetramonium" uid="135299" lat="49.2841920" lon="5.6582855">
  <tag k="man_made" v="water_tower"/>
  <tag k="source" v="IGN, Service de Géodésie et Nivellement: 2006"/>
 </node>
 <node id="670174736" visible="true" version="2" changeset="45308340" timestamp="2017-01-19T21:11:39Z" user="PanierAvide" uid="214436" lat="49.2841920" lon="5.6582855">
  <tag k="description" v="Château d'eau : Trou d'homme centre : Axe et sommet - Point vu en place en 2002"/>
  <tag k="ele" v="266.38"/>
  <tag k="man_made" v="survey_point"/>
  <tag k="note" v="Ne pas déplacer ce point, cf. - Do not move this node, see - http://wiki.openstreetmap.org/wiki/WikiProject_France/Repères_Géodésiques#Permanence_des_rep.C3.A8res"/>
  <tag k="ref" v="55481A - 1"/>
  <tag k="source" v="©IGN 2010 dans le cadre de la cartographie réglementaire"/>
  <tag k="url" v="http://geodesie.ign.fr/fiches/index.php?module=e&amp;action=fichepdf&amp;source=carte&amp;sit_no=55481A"/>
 </node>
 <node id="813553886" visible="true" version="1" changeset="5199903" timestamp="2010-07-12T15:14:06Z" user="FrViPofm" uid="107257" lat="49.2909656" lon="5.6621130"/>
 <node id="813554776" visible="true" version="1" changeset="5199903" timestamp="2010-07-12T15:14:47Z" user="FrViPofm" uid="107257" lat="49.2915123" lon="5.6626630"/>
 <node id="813555035" visible="true" version="1" changeset="5199903" timestamp="2010-07-12T15:14:58Z" user="FrViPofm" uid="107257" lat="49.2901077" lon="5.6619999"/>
 <node id="813555352" visible="true" version="1" changeset="5199903" timestamp="2010-07-12T15:15:11Z" user="FrViPofm" uid="107257" lat="49.2888278" lon="5.6592657"/>
 <node id="813555933" visible="true" version="1" changeset="5199903" timestamp="2010-07-12T15:15:27Z" user="FrViPofm" uid="107257" lat="49.2915486" lon="5.6599743"/>
 <node id="813556159" visible="true" version="1" changeset="5199903" timestamp="2010-07-12T15:15:32Z" user="FrViPofm" uid="107257" lat="49.2916129" lon="5.6639017"/>
 <node id="813556941" visible="true" version="1" changeset="5199903" timestamp="2010-07-12T15:15:51Z" user="FrViPofm" uid="107257" lat="49.2901663" lon="5.6598849"/>
 <node id="813557281" visible="true" version="1" changeset="5199903" timestamp="2010-07-12T15:16:00Z" user="FrViPofm" uid="107257" lat="49.2952003" lon="5.6606686"/>
 <node id="813559462" visible="true" version="1" changeset="5199903" timestamp="2010-07-12T15:17:54Z" user="FrViPofm" uid="107257" lat="49.2942364" lon="5.6589461"/>
 <node id="813559801" visible="true" version="1" changeset="5199903" timestamp="2010-07-12T15:18:59Z" user="FrViPofm" uid="107257" lat="49.2921856" lon="5.6599425"/>
 <node id="813559921" visible="true" version="1" changeset="5199903" timestamp="2010-07-12T15:19:19Z" user="FrViPofm" uid="107257" lat="49.2879202" lon="5.6620078"/>
 <node id="813560882" visible="true" version="1" changeset="5199903" timestamp="2010-07-12T15:21:06Z" user="FrViPofm" uid="107257" lat="49.2878829" lon="5.6603506"/>
 <node id="813561144" visible="true" version="1" changeset="5199903" timestamp="2010-07-12T15:21:30Z" user="FrViPofm" uid="107257" lat="49.2891450" lon="5.6629110"/>
 <node id="813561185" visible="true" version="1" changeset="5199903" timestamp="2010-07-12T15:21:34Z" user="FrViPofm" uid="107257" lat="49.2882729" lon="5.6633125"/>
 <node id="1949891794" visible="true" version="1" changeset="13390703" timestamp="2012-10-06T20:56:21Z" user="FahRadler" uid="344561" lat="49.3123263" lon="5.7672788">
  <tag k="power" v="tower"/>
 </node>
 <node id="1949915151" visible="true" version="6" changeset="144882738" timestamp="2023-12-07T22:36:09Z" user="AmiFritz" uid="172867" lat="49.1528325" lon="5.4126280">
  <tag k="height" v="29"/>
  <tag k="line_attachment" v="anchor"/>
  <tag k="line_management" v="transition"/>
  <tag k="location:transition" v="yes"/>
  <tag k="operator" v="RTE"/>
  <tag k="power" v="tower"/>
  <tag k="ref" v="107 AÉRO"/>
 </node>
 <node id="1949915155" visible="true" version="3" changeset="144882641" timestamp="2023-12-07T22:30:17Z" user="AmiFritz" uid="172867" lat="49.1540158" lon="5.4161310">
  <tag k="height" v="23"/>
  <tag k="operator" v="RTE"/>
  <tag k="power" v="tower"/>
  <tag k="ref" v="106"/>
 </node>
 <node id="1949915165" visible="true" version="3" changeset="144882641" timestamp="2023-12-07T22:30:17Z" user="AmiFritz" uid="172867" lat="49.1553997" lon="5.4202274">
  <tag k="height" v="26"/>
  <tag k="operator" v="RTE"/>
  <tag k="power" v="tower"/>
  <tag k="ref" v="105"/>
 </node>
 <node id="1949915177" visible="true" version="3" changeset="144882641" timestamp="2023-12-07T22:30:17Z" user="AmiFritz" uid="172867" lat="49.1568245" lon="5.4244302">
  <tag k="height" v="26"/>
  <tag k="operator" v="RTE"/>
  <tag k="power" v="tower"/>
  <tag k="ref" v="104"/>
 </node>
 <node id="1949915181" visible="true" version="3" changeset="144882641" timestamp="2023-12-07T22:30:17Z" user="AmiFritz" uid="172867" lat="49.1581705" lon="5.4283995">
  <tag k="height" v="26"/>
  <tag k="operator" v="RTE"/>
  <tag k="power" v="tower"/>
  <tag k="ref" v="103"/>
 </node>
 <node id="1949915183" visible="true" version="3" changeset="144882641" timestamp="2023-12-07T22:30:17Z" user="AmiFritz" uid="172867" lat="49.1596088" lon="5.4326580">
  <tag k="height" v="26"/>
  <tag k="operator" v="RTE"/>
  <tag k="power" v="tower"/>
  <tag k="ref" v="102"/>
 </node>
 <node id="1949915187" visible="true" version="3" changeset="144882641" timestamp="2023-12-07T22:30:17Z" user="AmiFritz" uid="172867" lat="49.1608730" lon="5.4363740">
  <tag k="height" v="26"/>
  <tag k="operator" v="RTE"/>
  <tag k="power" v="tower"/>
  <tag k="ref" v="101"/>
 </node>
 <node id="1949915206" visible="true" version="3" changeset="144882641" timestamp="2023-12-07T22:30:17Z" user="AmiFritz" uid="172867" lat="49.1760192" lon="5.4631719">
  <tag k="height" v="23"/>
  <tag k="operator" v="RTE"/>
  <tag k="power" v="tower"/>
  <tag k="ref" v="93"/>
 </node>
 <node id="1949915212" visible="true" version="3" changeset="144882641" timestamp="2023-12-07T22:30:17Z" user="AmiFritz" uid="172867" lat="49.1778785" lon="5.4666589">
  <tag k="height" v="26"/>
  <tag k="operator" v="RTE"/>
  <tag k="power" v="tower"/>
  <tag k="ref" v="92"/>
 </node>
 <node id="1949915227" visible="true" version="3" changeset="144882641" timestamp="2023-12-07T22:30:17Z" user="AmiFritz" uid="172867" lat="49.1883305" lon="5.4839405">
  <tag k="height" v="26"/>
  <tag k="operator" v="RTE"/>
  <tag k="power" v="tower"/>
  <tag k="ref" v="86"/>
 </node>
 <node id="1949915230" visible="true" version="3" changeset="144882641" timestamp="2023-12-07T22:30:17Z" user="AmiFritz" uid="172867" lat="49.1905906" lon="5.4871188">
  <tag k="height" v="30"/>
  <tag k="operator" v="RTE"/>
  <tag k="power" v="tower"/>
  <tag k="ref" v="85"/>
 </node>
 <node id="1949915232" visible="true" version="3" changeset="144882641" timestamp="2023-12-07T22:30:17Z" user="AmiFritz" uid="172867" lat="49.1929053" lon="5.4902802">
  <tag k="height" v="26"/>
  <tag k="operator" v="RTE"/>
  <tag k="power" v="tower"/>
  <tag k="ref" v="84"/>
 </node>
 <node id="1949915235" visible="true" version="3" changeset="144882641" timestamp="2023-12-07T22:30:17Z" user="AmiFritz" uid="172867" lat="49.1950831" lon="5.4932881">
  <tag k="operator" v="RTE"/>
  <tag k="power" v="tower"/>
  <tag k="ref" v="83"/>
 </node>
 <node id="1949915241" visible="true" version="3" changeset="144882641" timestamp="2023-12-07T22:30:17Z" user="AmiFritz" uid="172867" lat="49.1972981" lon="5.4963493">
  <tag k="operator" v="RTE"/>
  <tag k="power" v="tower"/>
  <tag k="ref" v="82"/>
 </node>
 <node id="1949915246" visible="true" version="3" changeset="144882071" timestamp="2023-12-07T22:04:31Z" user="AmiFritz" uid="172867" lat="49.1995798" lon="5.4995068">
  <tag k="height" v="30"/>
  <tag k="operator" v="RTE"/>
  <tag k="power" v="tower"/>
  <tag k="ref" v="81"/>
 </node>
 <node id="1949915250" visible="true" version="3" changeset="144882071" timestamp="2023-12-07T22:04:31Z" user="AmiFritz" uid="172867" lat="49.2019483" lon="5.5027755">
  <tag k="height" v="30"/>
  <tag k="operator" v="RTE"/>
  <tag k="power" v="tower"/>
  <tag k="ref" v="80"/>
 </node>
 <node id="1949915254" visible="true" version="3" changeset="144881928" timestamp="2023-12-07T21:58:38Z" user="AmiFritz" uid="172867" lat="49.2040841" lon="5.5057283">
  <tag k="height" v="23"/>
  <tag k="operator" v="RTE"/>
  <tag k="power" v="tower"/>
  <tag k="ref" v="79"/>
 </node>
 <node id="1949915259" visible="true" version="4" changeset="144882641" timestamp="2023-12-07T22:30:17Z" user="AmiFritz" uid="172867" lat="49.2059891" lon="5.5083612">
  <tag k="height" v="35"/>
  <tag k="operator" v="RTE"/>
  <tag k="power" v="tower"/>
  <tag k="ref" v="78"/>
 </node>
 <node id="1949915263" visible="true" version="3" changeset="144881928" timestamp="2023-12-07T21:58:38Z" user="AmiFritz" uid="172867" lat="49.2074551" lon="5.5115106">
  <tag k="height" v="23"/>
  <tag k="operator" v="RTE"/>
  <tag k="power" v="tower"/>
  <tag k="ref" v="77"/>
 </node>
 <node id="1949915268" visible="true" version="3" changeset="144881928" timestamp="2023-12-07T21:58:38Z" user="AmiFritz" uid="172867" lat="49.2088659" lon="5.5145995">
  <tag k="height" v="23"/>
  <tag k="operator" v="RTE"/>
  <tag k="power" v="tower"/>
  <tag k="ref" v="76"/>
 </node>
 <node id="1949915271" visible="true" version="3" changeset="144881928" timestamp="2023-12-07T21:58:38Z" user="AmiFritz" uid="172867" lat="49.2119365" lon="5.5212176">
  <tag k="height" v="26"/>
  <tag k="operator" v="RTE"/>
  <tag k="power" v="tower"/>
  <tag k="ref" v="74"/>
 </node>
 <node id="1949915273" visible="true" version="3" changeset="144881928" timestamp="2023-12-07T21:58:38Z" user="AmiFritz" uid="172867" lat="49.2137919" lon="5.5252291">
  <tag k="height" v="30"/>
  <tag k="operator" v="RTE"/>
  <tag k="power" v="tower"/>
  <tag k="ref" v="73"/>
 </node>
 <node id="1949915277" visible="true" version="3" changeset="144881928" timestamp="2023-12-07T21:58:38Z" user="AmiFritz" uid="172867" lat="49.2155923" lon="5.5291401">
  <tag k="operator" v="RTE"/>
  <tag k="power" v="tower"/>
  <tag k="ref" v="72"/>
 </node>
 <node id="1949927983" visible="true" version="2" changeset="144881752" timestamp="2023-12-07T21:50:51Z" user="AmiFritz" uid="172867" lat="49.2170039" lon="5.5321871">
  <tag k="operator" v="RTE"/>
  <tag k="power" v="tower"/>
  <tag k="ref" v="71"/>
 </node>
 <node id="1949927984" visible="true" version="2" changeset="144881752" timestamp="2023-12-07T21:50:51Z" user="AmiFritz" uid="172867" lat="49.2187885" lon="5.5360799">
  <tag k="height" v="26"/>
  <tag k="operator" v="RTE"/>
  <tag k="power" v="tower"/>
  <tag k="ref" v="70"/>
 </node>
 <node id="1949927985" visible="true" version="2" changeset="144881752" timestamp="2023-12-07T21:50:51Z" user="AmiFritz" uid="172867" lat="49.2203774" lon="5.5394787">
  <tag k="height" v="26"/>
  <tag k="operator" v="RTE"/>
  <tag k="power" v="tower"/>
  <tag k="ref" v="69"/>
 </node>
 <node id="1949927986" visible="true" version="2" changeset="144881752" timestamp="2023-12-07T21:50:51Z" user="AmiFritz" uid="172867" lat="49.2220478" lon="5.5430888">
  <tag k="height" v="26"/>
  <tag k="operator" v="RTE"/>
  <tag k="power" v="tower"/>
  <tag k="ref" v="68"/>
 </node>
 <node id="1949927987" visible="true" version="2" changeset="144881752" timestamp="2023-12-07T21:50:51Z" user="AmiFritz" uid="172867" lat="49.2237700" lon="5.5468465">
  <tag k="height" v="26"/>
  <tag k="operator" v="RTE"/>
  <tag k="power" v="tower"/>
  <tag k="ref" v="67"/>
 </node>
 <node id="1949927988" visible="true" version="2" changeset="144881752" timestamp="2023-12-07T21:50:51Z" user="AmiFritz" uid="172867" lat="49.2253901" lon="5.5503154">
  <tag k="height" v="26"/>
  <tag k="operator" v="RTE"/>
  <tag k="power" v="tower"/>
  <tag k="ref" v="66"/>
 </node>
 <node id="1949927989" visible="true" version="2" changeset="144881752" timestamp="2023-12-07T21:50:51Z" user="AmiFritz" uid="172867" lat="49.2270502" lon="5.5538967">
  <tag k="height" v="26"/>
  <tag k="operator" v="RTE"/>
  <tag k="power" v="tower"/>
  <tag k="ref" v="65"/>
 </node>
 <node id="1949927990" visible="true" version="4" changeset="127630922" timestamp="2022-10-16T18:14:42Z" user="user_5589" uid="5589" lat="49.2321693" lon="5.5650080">
  <tag k="height" v="26"/>
  <tag k="operator" v="RTE"/>
  <tag k="operator:wikidata" v="Q2178795"/>
  <tag k="power" v="tower"/>
  <tag k="ref" v="62"/>
  <tag k="source" v="data.gouv.fr:RTE - 2022-07"/>
 </node>
 <node id="1949927991" visible="true" version="4" changeset="144881752" timestamp="2023-12-07T21:50:51Z" user="AmiFritz" uid="172867" lat="49.2335877" lon="5.5680568">
  <tag k="operator" v="RTE"/>
  <tag k="operator:wikidata" v="Q2178795"/>
  <tag k="power" v="tower"/>
  <tag k="ref" v="61"/>
 </node>
 <node id="1949927992" visible="true" version="4" changeset="144881500" timestamp="2023-12-07T21:39:50Z" user="AmiFritz" uid="172867" lat="49.2350591" lon="5.5712588">
  <tag k="operator" v="RTE"/>
  <tag k="operator:wikidata" v="Q2178795"/>
  <tag k="power" v="tower"/>
  <tag k="ref" v="60"/>
 </node>
 <node id="1949927993" visible="true" version="4" changeset="127630922" timestamp="2022-10-16T18:14:42Z" user="user_5589" uid="5589" lat="49.2365929" lon="5.5745865">
  <tag k="height" v="26"/>
  <tag k="operator" v="RTE"/>
  <tag k="operator:wikidata" v="Q2178795"/>
  <tag k="power" v="tower"/>
  <tag k="ref" v="59"/>
  <tag k="source" v="data.gouv.fr:RTE - 2022-07"/>
 </node>
 <node id="1949927994" visible="true" version="4" changeset="144881500" timestamp="2023-12-07T21:39:50Z" user="AmiFritz" uid="172867" lat="49.2383233" lon="5.5783376">
  <tag k="operator" v="RTE"/>
  <tag k="operator:wikidata" v="Q2178795"/>
  <tag k="power" v="tower"/>
  <tag k="ref" v="58"/>
 </node>
 <node id="1949927995" visible="true" version="4" changeset="144881500" timestamp="2023-12-07T21:39:50Z" user="AmiFritz" uid="172867" lat="49.2400043" lon="5.5819616">
  <tag k="operator" v="RTE"/>
  <tag k="operator:wikidata" v="Q2178795"/>
  <tag k="power" v="tower"/>
  <tag k="ref" v="57"/>
 </node>
 <node id="1949927996" visible="true" version="4" changeset="127630922" timestamp="2022-10-16T18:14:42Z" user="user_5589" uid="5589" lat="49.2413717" lon="5.5849381">
  <tag k="height" v="26"/>
  <tag k="operator" v="RTE"/>
  <tag k="operator:wikidata" v="Q2178795"/>
  <tag k="power" v="tower"/>
  <tag k="ref" v="56"/>
  <tag k="source" v="data.gouv.fr:RTE - 2022-07"/>
 </node>
 <node id="1949927997" visible="true" version="4" changeset="127630922" timestamp="2022-10-16T18:14:42Z" user="user_5589" uid="5589" lat="49.2432034" lon="5.5888930">
  <tag k="height" v="26"/>
  <tag k="operator" v="RTE"/>
  <tag k="operator:wikidata" v="Q2178795"/>
  <tag k="power" v="tower"/>
  <tag k="ref" v="55"/>
  <tag k="source" v="data.gouv.fr:RTE - 2022-07"/>
 </node>
 <node id="1949927998" visible="true" version="2" changeset="144881500" timestamp="2023-12-07T21:39:50Z" user="AmiFritz" uid="172867" lat="49.2448449" lon="5.5924443">
  <tag k="height" v="26"/>
  <tag k="operator" v="RTE"/>
  <tag k="power" v="tower"/>
  <tag k="ref" v="54"/>
 </node>
 <node id="1949927999" visible="true" version="5" changeset="144881500" timestamp="2023-12-07T21:39:50Z" user="AmiFritz" uid="172867" lat="49.2462517" lon="5.5955083">
  <tag k="height" v="26"/>
  <tag k="operator" v="RTE"/>
  <tag k="operator:wikidata" v="Q2178795"/>
  <tag k="power" v="tower"/>
  <tag k="ref" v="53"/>
  <tag k="source" v="data.gouv.fr:RTE - 2022-07"/>
 </node>
 <node id="1949928000" visible="true" version="4" changeset="127630922" timestamp="2022-10-16T18:14:42Z" user="user_5589" uid="5589" lat="49.2496133" lon="5.6027970">
  <tag k="height" v="26"/>
  <tag k="operator" v="RTE"/>
  <tag k="operator:wikidata" v="Q2178795"/>
  <tag k="power" v="tower"/>
  <tag k="ref" v="51"/>
  <tag k="source" v="data.gouv.fr:RTE - 2022-07"/>
 </node>
 <node id="1949928001" visible="true" version="2" changeset="144881500" timestamp="2023-12-07T21:39:50Z" user="AmiFritz" uid="172867" lat="49.2529088" lon="5.6099190">
  <tag k="height" v="26"/>
  <tag k="operator" v="RTE"/>
  <tag k="power" v="tower"/>
  <tag k="ref" v="49"/>
 </node>
 <node id="1949928002" visible="true" version="2" changeset="144881500" timestamp="2023-12-07T21:39:50Z" user="AmiFritz" uid="172867" lat="49.2545562" lon="5.6135062">
  <tag k="height" v="26"/>
  <tag k="operator" v="RTE"/>
  <tag k="power" v="tower"/>
  <tag k="ref" v="48"/>
 </node>
 <node id="1949928003" visible="true" version="2" changeset="144881500" timestamp="2023-12-07T21:39:50Z" user="AmiFritz" uid="172867" lat="49.2564602" lon="5.6176246">
  <tag k="height" v="23"/>
  <tag k="operator" v="RTE"/>
  <tag k="power" v="tower"/>
  <tag k="ref" v="47"/>
 </node>
 <node id="1949928004" visible="true" version="2" changeset="144881500" timestamp="2023-12-07T21:39:50Z" user="AmiFritz" uid="172867" lat="49.2581569" lon="5.6213117">
  <tag k="height" v="26"/>
  <tag k="operator" v="RTE"/>
  <tag k="power" v="tower"/>
  <tag k="ref" v="46"/>
 </node>
 <node id="1949928005" visible="true" version="2" changeset="144881500" timestamp="2023-12-07T21:39:50Z" user="AmiFritz" uid="172867" lat="49.2597817" lon="5.6248255">
  <tag k="height" v="26"/>
  <tag k="operator" v="RTE"/>
  <tag k="power" v="tower"/>
  <tag k="ref" v="45"/>
 </node>
 <node id="1949928006" visible="true" version="2" changeset="144881500" timestamp="2023-12-07T21:39:50Z" user="AmiFritz" uid="172867" lat="49.2614907" lon="5.6285798">
  <tag k="height" v="26"/>
  <tag k="operator" v="RTE"/>
  <tag k="power" v="tower"/>
  <tag k="ref" v="44"/>
 </node>
 <node id="1949928007" visible="true" version="2" changeset="144881500" timestamp="2023-12-07T21:39:50Z" user="AmiFritz" uid="172867" lat="49.2632677" lon="5.6324088">
  <tag k="height" v="26"/>
  <tag k="operator" v="RTE"/>
  <tag k="power" v="tower"/>
  <tag k="ref" v="43"/>
 </node>
 <node id="1949928008" visible="true" version="2" changeset="144881500" timestamp="2023-12-07T21:39:50Z" user="AmiFritz" uid="172867" lat="49.2648352" lon="5.6358055">
  <tag k="height" v="26"/>
  <tag k="operator" v="RTE"/>
  <tag k="power" v="tower"/>
  <tag k="ref" v="42"/>
 </node>
 <node id="1949928009" visible="true" version="2" changeset="144881500" timestamp="2023-12-07T21:39:50Z" user="AmiFritz" uid="172867" lat="49.2666916" lon="5.6398254">
  <tag k="height" v="26"/>
  <tag k="operator" v="RTE"/>
  <tag k="power" v="tower"/>
  <tag k="ref" v="41"/>
 </node>
 <node id="1949928010" visible="true" version="2" changeset="144881500" timestamp="2023-12-07T21:39:50Z" user="AmiFritz" uid="172867" lat="49.2702071" lon="5.6474624">
  <tag k="operator" v="RTE"/>
  <tag k="power" v="tower"/>
  <tag k="ref" v="39"/>
 </node>
 <node id="1949928011" visible="true" version="2" changeset="144880978" timestamp="2023-12-07T21:17:36Z" user="AmiFritz" uid="172867" lat="49.2715664" lon="5.6504225">
  <tag k="height" v="26"/>
  <tag k="operator" v="RTE"/>
  <tag k="power" v="tower"/>
  <tag k="ref" v="38"/>
 </node>
 <node id="1949928012" visible="true" version="2" changeset="144880978" timestamp="2023-12-07T21:17:36Z" user="AmiFritz" uid="172867" lat="49.2733049" lon="5.6541731">
  <tag k="operator" v="RTE"/>
  <tag k="power" v="tower"/>
  <tag k="ref" v="37"/>
 </node>
 <node id="1949928013" visible="true" version="2" changeset="144880978" timestamp="2023-12-07T21:17:36Z" user="AmiFritz" uid="172867" lat="49.2755183" lon="5.6573107">
  <tag k="operator" v="RTE"/>
  <tag k="power" v="tower"/>
  <tag k="ref" v="36"/>
 </node>
 <node id="1949928014" visible="true" version="2" changeset="144880818" timestamp="2023-12-07T21:10:03Z" user="AmiFritz" uid="172867" lat="49.2774513" lon="5.6599891">
  <tag k="operator" v="RTE"/>
  <tag k="power" v="tower"/>
  <tag k="ref" v="35"/>
 </node>
 <node id="1949928015" visible="true" version="2" changeset="144880818" timestamp="2023-12-07T21:10:03Z" user="AmiFritz" uid="172867" lat="49.2795465" lon="5.6629408">
  <tag k="height" v="23"/>
  <tag k="operator" v="RTE"/>
  <tag k="power" v="tower"/>
  <tag k="ref" v="34"/>
 </node>
 <node id="1949928016" visible="true" version="2" changeset="144880818" timestamp="2023-12-07T21:10:03Z" user="AmiFritz" uid="172867" lat="49.2814349" lon="5.6655865">
  <tag k="height" v="23"/>
  <tag k="operator" v="RTE"/>
  <tag k="power" v="tower"/>
  <tag k="ref" v="33"/>
 </node>
 <node id="1949928017" visible="true" version="2" changeset="144880818" timestamp="2023-12-07T21:10:03Z" user="AmiFritz" uid="172867" lat="49.2833280" lon="5.6682443">
  <tag k="height" v="23"/>
  <tag k="operator" v="RTE"/>
  <tag k="power" v="tower"/>
  <tag k="ref" v="32"/>
 </node>
 <node id="1949928018" visible="true" version="2" changeset="144880818" timestamp="2023-12-07T21:10:03Z" user="AmiFritz" uid="172867" lat="49.2850850" lon="5.6707111">
  <tag k="height" v="23"/>
  <tag k="operator" v="RTE"/>
  <tag k="power" v="tower"/>
  <tag k="ref" v="31"/>
 </node>
 <node id="1949928019" visible="true" version="2" changeset="144880818" timestamp="2023-12-07T21:10:03Z" user="AmiFritz" uid="172867" lat="49.2877037" lon="5.6743901">
  <tag k="height" v="26"/>
  <tag k="operator" v="RTE"/>
  <tag k="power" v="tower"/>
  <tag k="ref" v="30"/>
 </node>
 <node id="1949928020" visible="true" version="2" changeset="144880818" timestamp="2023-12-07T21:10:03Z" user="AmiFritz" uid="172867" lat="49.2898540" lon="5.6773910">
  <tag k="height" v="26"/>
  <tag k="operator" v="RTE"/>
  <tag k="power" v="tower"/>
  <tag k="ref" v="29"/>
 </node>
 <node id="1949928021" visible="true" version="2" changeset="144880818" timestamp="2023-12-07T21:10:03Z" user="AmiFritz" uid="172867" lat="49.2919123" lon="5.6803068">
  <tag k="height" v="26"/>
  <tag k="operator" v="RTE"/>
  <tag k="power" v="tower"/>
  <tag k="ref" v="28"/>
 </node>
 <node id="1949928022" visible="true" version="2" changeset="144880818" timestamp="2023-12-07T21:10:03Z" user="AmiFritz" uid="172867" lat="49.2939277" lon="5.6831521">
  <tag k="height" v="26"/>
  <tag k="operator" v="RTE"/>
  <tag k="power" v="tower"/>
  <tag k="ref" v="27"/>
 </node>
 <node id="1949928023" visible="true" version="2" changeset="144880818" timestamp="2023-12-07T21:10:03Z" user="AmiFritz" uid="172867" lat="49.2963549" lon="5.6865415">
  <tag k="height" v="23"/>
  <tag k="operator" v="RTE"/>
  <tag k="power" v="tower"/>
  <tag k="ref" v="26"/>
 </node>
 <node id="1949928024" visible="true" version="2" changeset="144880818" timestamp="2023-12-07T21:10:03Z" user="AmiFritz" uid="172867" lat="49.2981180" lon="5.6890240">
  <tag k="height" v="36"/>
  <tag k="operator" v="RTE"/>
  <tag k="power" v="tower"/>
  <tag k="ref" v="25"/>
 </node>
 <node id="1949928025" visible="true" version="2" changeset="144880818" timestamp="2023-12-07T21:10:03Z" user="AmiFritz" uid="172867" lat="49.3006856" lon="5.6926251">
  <tag k="height" v="26"/>
  <tag k="operator" v="RTE"/>
  <tag k="power" v="tower"/>
  <tag k="ref" v="24"/>
 </node>
 <node id="1949928026" visible="true" version="2" changeset="144880818" timestamp="2023-12-07T21:10:03Z" user="AmiFritz" uid="172867" lat="49.3025934" lon="5.6953311">
  <tag k="operator" v="RTE"/>
  <tag k="power" v="tower"/>
  <tag k="ref" v="23"/>
 </node>
 <node id="1949928027" visible="true" version="2" changeset="144880818" timestamp="2023-12-07T21:10:03Z" user="AmiFritz" uid="172867" lat="49.3035685" lon="5.6994071">
  <tag k="height" v="23"/>
  <tag k="operator" v="RTE"/>
  <tag k="power" v="tower"/>
  <tag k="ref" v="22"/>
 </node>
 <node id="1949928028" visible="true" version="2" changeset="144880818" timestamp="2023-12-07T21:10:03Z" user="AmiFritz" uid="172867" lat="49.3045222" lon="5.7036766">
  <tag k="height" v="23"/>
  <tag k="operator" v="RTE"/>
  <tag k="power" v="tower"/>
  <tag k="ref" v="21"/>
 </node>
 <node id="1949928029" visible="true" version="2" changeset="144880818" timestamp="2023-12-07T21:10:03Z" user="AmiFritz" uid="172867" lat="49.3053001" lon="5.7069678">
  <tag k="height" v="23"/>
  <tag k="operator" v="RTE"/>
  <tag k="power" v="tower"/>
  <tag k="ref" v="20"/>
 </node>
 <node id="1949928030" visible="true" version="2" changeset="144880818" timestamp="2023-12-07T21:10:03Z" user="AmiFritz" uid="172867" lat="49.3062025" lon="5.7108161">
  <tag k="height" v="23"/>
  <tag k="operator" v="RTE"/>
  <tag k="power" v="tower"/>
  <tag k="ref" v="19"/>
 </node>
 <node id="1949928031" visible="true" version="2" changeset="144880818" timestamp="2023-12-07T21:10:03Z" user="AmiFritz" uid="172867" lat="49.3071188" lon="5.7147688">
  <tag k="height" v="23"/>
  <tag k="operator" v="RTE"/>
  <tag k="power" v="tower"/>
  <tag k="ref" v="18"/>
 </node>
 <node id="1949928032" visible="true" version="2" changeset="144880818" timestamp="2023-12-07T21:10:03Z" user="AmiFritz" uid="172867" lat="49.3080672" lon="5.7188864">
  <tag k="height" v="23"/>
  <tag k="operator" v="RTE"/>
  <tag k="power" v="tower"/>
  <tag k="ref" v="17"/>
 </node>
 <node id="1949928033" visible="true" version="2" changeset="144880818" timestamp="2023-12-07T21:10:03Z" user="AmiFritz" uid="172867" lat="49.3089489" lon="5.7226937">
  <tag k="height" v="26"/>
  <tag k="operator" v="RTE"/>
  <tag k="power" v="tower"/>
  <tag k="ref" v="16"/>
 </node>
 <node id="1949928034" visible="true" version="2" changeset="144880818" timestamp="2023-12-07T21:10:03Z" user="AmiFritz" uid="172867" lat="49.3101471" lon="5.7279001">
  <tag k="height" v="26"/>
  <tag k="operator" v="RTE"/>
  <tag k="power" v="tower"/>
  <tag k="ref" v="15"/>
 </node>
 <node id="1949928035" visible="true" version="2" changeset="144880818" timestamp="2023-12-07T21:10:03Z" user="AmiFritz" uid="172867" lat="49.3110473" lon="5.7317869">
  <tag k="height" v="23"/>
  <tag k="operator" v="RTE"/>
  <tag k="power" v="tower"/>
  <tag k="ref" v="14"/>
 </node>
 <node id="1949928036" visible="true" version="2" changeset="144880818" timestamp="2023-12-07T21:10:03Z" user="AmiFritz" uid="172867" lat="49.3118622" lon="5.7352845">
  <tag k="height" v="23"/>
  <tag k="operator" v="RTE"/>
  <tag k="power" v="tower"/>
  <tag k="ref" v="13"/>
 </node>
 <node id="1949928037" visible="true" version="2" changeset="144880818" timestamp="2023-12-07T21:10:03Z" user="AmiFritz" uid="172867" lat="49.3133879" lon="5.7637076">
  <tag k="height" v="23"/>
  <tag k="operator" v="RTE"/>
  <tag k="power" v="tower"/>
  <tag k="ref" v="5"/>
 </node>
 <node id="1949928038" visible="true" version="2" changeset="144880818" timestamp="2023-12-07T21:10:03Z" user="AmiFritz" uid="172867" lat="49.3135723" lon="5.7426860">
  <tag k="height" v="26"/>
  <tag k="operator" v="RTE"/>
  <tag k="power" v="tower"/>
  <tag k="ref" v="11"/>
 </node>
 <node id="1949928039" visible="true" version="2" changeset="144880818" timestamp="2023-12-07T21:10:03Z" user="AmiFritz" uid="172867" lat="49.3135839" lon="5.7607518">
  <tag k="height" v="23"/>
  <tag k="operator" v="RTE"/>
  <tag k="power" v="tower"/>
  <tag k="ref" v="6"/>
 </node>
 <node id="1949928040" visible="true" version="2" changeset="144880818" timestamp="2023-12-07T21:10:03Z" user="AmiFritz" uid="172867" lat="49.3139219" lon="5.7552999">
  <tag k="height" v="23"/>
  <tag k="operator" v="RTE"/>
  <tag k="power" v="tower"/>
  <tag k="ref" v="7"/>
 </node>
 <node id="1949928041" visible="true" version="2" changeset="144880818" timestamp="2023-12-07T21:10:03Z" user="AmiFritz" uid="172867" lat="49.3141426" lon="5.7517717">
  <tag k="height" v="23"/>
  <tag k="operator" v="RTE"/>
  <tag k="power" v="tower"/>
  <tag k="ref" v="8"/>
 </node>
 <node id="1949928042" visible="true" version="2" changeset="144880818" timestamp="2023-12-07T21:10:03Z" user="AmiFritz" uid="172867" lat="49.3143064" lon="5.7492434">
  <tag k="height" v="14"/>
  <tag k="operator" v="RTE"/>
  <tag k="power" v="tower"/>
  <tag k="ref" v="9"/>
 </node>
 <node id="1949928043" visible="true" version="2" changeset="144880818" timestamp="2023-12-07T21:10:03Z" user="AmiFritz" uid="172867" lat="49.3144623" lon="5.7466212">
  <tag k="operator" v="RTE"/>
  <tag k="power" v="tower"/>
  <tag k="ref" v="10"/>
 </node>
 <node id="2332069422" visible="true" version="2" changeset="16429518" timestamp="2013-06-05T09:23:19Z" user="StephaneP" uid="439947" lat="49.3018614" lon="5.6458490"/>
 <node id="2332902294" visible="true" version="1" changeset="16429518" timestamp="2013-06-05T09:23:07Z" user="StephaneP" uid="439947" lat="49.2846488" lon="5.6732877"/>
 <node id="2332902295" visible="true" version="1" changeset="16429518" timestamp="2013-06-05T09:23:07Z" user="StephaneP" uid="439947" lat="49.2848064" lon="5.6732181"/>
 <node id="2332902299" visible="true" version="1" changeset="16429518" timestamp="2013-06-05T09:23:07Z" user="StephaneP" uid="439947" lat="49.2851062" lon="5.6730778"/>
 <node id="2332902302" visible="true" version="1" changeset="16429518" timestamp="2013-06-05T09:23:07Z" user="StephaneP" uid="439947" lat="49.2851146" lon="5.6741965"/>
 <node id="2332902311" visible="true" version="1" changeset="16429518" timestamp="2013-06-05T09:23:08Z" user="StephaneP" uid="439947" lat="49.2852047" lon="5.6741074"/>
 <node id="2332902319" visible="true" version="1" changeset="16429518" timestamp="2013-06-05T09:23:08Z" user="StephaneP" uid="439947" lat="49.2853508" lon="5.6729606"/>
 <node id="2332902323" visible="true" version="1" changeset="16429518" timestamp="2013-06-05T09:23:08Z" user="StephaneP" uid="439947" lat="49.2854221" lon="5.6731200"/>
 <node id="2332902327" visible="true" version="1" changeset="16429518" timestamp="2013-06-05T09:23:08Z" user="StephaneP" uid="439947" lat="49.2856301" lon="5.6748024"/>
 <node id="2332902333" visible="true" version="1" changeset="16429518" timestamp="2013-06-05T09:23:08Z" user="StephaneP" uid="439947" lat="49.2857772" lon="5.6728140"/>
 <node id="2332902337" visible="true" version="1" changeset="16429518" timestamp="2013-06-05T09:23:08Z" user="StephaneP" uid="439947" lat="49.2858410" lon="5.6751765"/>
 <node id="2332902343" visible="true" version="1" changeset="16429518" timestamp="2013-06-05T09:23:08Z" user="StephaneP" uid="439947" lat="49.2860523" lon="5.6725829"/>
 <node id="2332902345" visible="true" version="1" changeset="16429518" timestamp="2013-06-05T09:23:08Z" user="StephaneP" uid="439947" lat="49.2860958" lon="5.6769215"/>
 <node id="2332902347" visible="true" version="1" changeset="16429518" timestamp="2013-06-05T09:23:08Z" user="StephaneP" uid="439947" lat="49.2861803" lon="5.6768915"/>
 <node id="2332902349" visible="true" version="1" changeset="16429518" timestamp="2013-06-05T09:23:08Z" user="StephaneP" uid="439947" lat="49.2862634" lon="5.6723474"/>
 <node id="2332902351" visible="true" version="1" changeset="16429518" timestamp="2013-06-05T09:23:08Z" user="StephaneP" uid="439947" lat="49.2863147" lon="5.6832466"/>
 <node id="2332902353" visible="true" version="1" changeset="16429518" timestamp="2013-06-05T09:23:08Z" user="StephaneP" uid="439947" lat="49.2864277" lon="5.6721176"/>
 <node id="2332902355" visible="true" version="1" changeset="16429518" timestamp="2013-06-05T09:23:08Z" user="StephaneP" uid="439947" lat="49.2865446" lon="5.6782128"/>
 <node id="2332902359" visible="true" version="1" changeset="16429518" timestamp="2013-06-05T09:23:08Z" user="StephaneP" uid="439947" lat="49.2866115" lon="5.6717494"/>
 <node id="2332902361" visible="true" version="1" changeset="16429518" timestamp="2013-06-05T09:23:08Z" user="StephaneP" uid="439947" lat="49.2866733" lon="5.6798779"/>
 <node id="2332902363" visible="true" version="1" changeset="16429518" timestamp="2013-06-05T09:23:08Z" user="StephaneP" uid="439947" lat="49.2866953" lon="5.6847416"/>
 <node id="2332902365" visible="true" version="1" changeset="16429518" timestamp="2013-06-05T09:23:08Z" user="StephaneP" uid="439947" lat="49.2867511" lon="5.6714288"/>
 <node id="2332902367" visible="true" version="1" changeset="16429518" timestamp="2013-06-05T09:23:08Z" user="StephaneP" uid="439947" lat="49.2867623" lon="5.6695650"/>
 <node id="2332902369" visible="true" version="1" changeset="16429518" timestamp="2013-06-05T09:23:08Z" user="StephaneP" uid="439947" lat="49.2868256" lon="5.6711394"/>
 <node id="2332902371" visible="true" version="1" changeset="16429518" timestamp="2013-06-05T09:23:08Z" user="StephaneP" uid="439947" lat="49.2868457" lon="5.6698412"/>
 <node id="2332902373" visible="true" version="1" changeset="16429518" timestamp="2013-06-05T09:23:08Z" user="StephaneP" uid="439947" lat="49.2868818" lon="5.6700727"/>
 <node id="2332902375" visible="true" version="1" changeset="16429518" timestamp="2013-06-05T09:23:08Z" user="StephaneP" uid="439947" lat="49.2868864" lon="5.6707867"/>
 <node id="2332902377" visible="true" version="1" changeset="16429518" timestamp="2013-06-05T09:23:08Z" user="StephaneP" uid="439947" lat="49.2869036" lon="5.6704607"/>
 <node id="2332902379" visible="true" version="1" changeset="16429518" timestamp="2013-06-05T09:23:08Z" user="StephaneP" uid="439947" lat="49.2869537" lon="5.6828143"/>
 <node id="2332902381" visible="true" version="1" changeset="16429518" timestamp="2013-06-05T09:23:08Z" user="StephaneP" uid="439947" lat="49.2869891" lon="5.6858767"/>
 <node id="2332902383" visible="true" version="1" changeset="16429518" timestamp="2013-06-05T09:23:08Z" user="StephaneP" uid="439947" lat="49.2870407" lon="5.6663364"/>
 <node id="2332902385" visible="true" version="1" changeset="16429518" timestamp="2013-06-05T09:23:08Z" user="StephaneP" uid="439947" lat="49.2870442" lon="5.6660233"/>
 <node id="2332902387" visible="true" version="1" changeset="16429518" timestamp="2013-06-05T09:23:08Z" user="StephaneP" uid="439947" lat="49.2870790" lon="5.6667217"/>
 <node id="2332902388" visible="true" version="1" changeset="16429518" timestamp="2013-06-05T09:23:08Z" user="StephaneP" uid="439947" lat="49.2871489" lon="5.6655909"/>
 <node id="2332902392" visible="true" version="1" changeset="16429518" timestamp="2013-06-05T09:23:08Z" user="StephaneP" uid="439947" lat="49.2872554" lon="5.6867513"/>
 <node id="2332902394" visible="true" version="1" changeset="16429518" timestamp="2013-06-05T09:23:08Z" user="StephaneP" uid="439947" lat="49.2872768" lon="5.6693292"/>
 <node id="2332902396" visible="true" version="1" changeset="16429518" timestamp="2013-06-05T09:23:09Z" user="StephaneP" uid="439947" lat="49.2873067" lon="5.6656983"/>
 <node id="2332902398" visible="true" version="1" changeset="16429518" timestamp="2013-06-05T09:23:09Z" user="StephaneP" uid="439947" lat="49.2873259" lon="5.6693147"/>
 <node id="2332902400" visible="true" version="1" changeset="16429518" timestamp="2013-06-05T09:23:09Z" user="StephaneP" uid="439947" lat="49.2874177" lon="5.6650939"/>
 <node id="2332902402" visible="true" version="1" changeset="16429518" timestamp="2013-06-05T09:23:09Z" user="StephaneP" uid="439947" lat="49.2874267" lon="5.6644973"/>
 <node id="2332902404" visible="true" version="1" changeset="16429518" timestamp="2013-06-05T09:23:09Z" user="StephaneP" uid="439947" lat="49.2875298" lon="5.6635959"/>
 <node id="2332902406" visible="true" version="1" changeset="16429518" timestamp="2013-06-05T09:23:09Z" user="StephaneP" uid="439947" lat="49.2876602" lon="5.6599858"/>
 <node id="2332902408" visible="true" version="1" changeset="16429518" timestamp="2013-06-05T09:23:09Z" user="StephaneP" uid="439947" lat="49.2878607" lon="5.6631893"/>
 <node id="2332902410" visible="true" version="1" changeset="16429518" timestamp="2013-06-05T09:23:09Z" user="StephaneP" uid="439947" lat="49.2878623" lon="5.6598943"/>
 <node id="2332902411" visible="true" version="1" changeset="16429518" timestamp="2013-06-05T09:23:09Z" user="StephaneP" uid="439947" lat="49.2878669" lon="5.6598315"/>
 <node id="2332902413" visible="true" version="1" changeset="16429518" timestamp="2013-06-05T09:23:09Z" user="StephaneP" uid="439947" lat="49.2878831" lon="5.6635567"/>
 <node id="2332902419" visible="true" version="1" changeset="16429518" timestamp="2013-06-05T09:23:09Z" user="StephaneP" uid="439947" lat="49.2884875" lon="5.6596337"/>
 <node id="2332902426" visible="true" version="1" changeset="16429518" timestamp="2013-06-05T09:23:09Z" user="StephaneP" uid="439947" lat="49.2888552" lon="5.6595617"/>
 <node id="2332902428" visible="true" version="1" changeset="16429518" timestamp="2013-06-05T09:23:09Z" user="StephaneP" uid="439947" lat="49.2892658" lon="5.6591493"/>
 <node id="2332902430" visible="true" version="1" changeset="16429518" timestamp="2013-06-05T09:23:09Z" user="StephaneP" uid="439947" lat="49.2892751" lon="5.6595009"/>
 <node id="2332902432" visible="true" version="1" changeset="16429518" timestamp="2013-06-05T09:23:09Z" user="StephaneP" uid="439947" lat="49.2893197" lon="5.6590370"/>
 <node id="2332902436" visible="true" version="1" changeset="16429518" timestamp="2013-06-05T09:23:09Z" user="StephaneP" uid="439947" lat="49.2897039" lon="5.6579239"/>
 <node id="2332902440" visible="true" version="1" changeset="16429518" timestamp="2013-06-05T09:23:09Z" user="StephaneP" uid="439947" lat="49.2898943" lon="5.6571903"/>
 <node id="2332902449" visible="true" version="1" changeset="16429518" timestamp="2013-06-05T09:23:09Z" user="StephaneP" uid="439947" lat="49.2901387" lon="5.6571473"/>
 <node id="2332902453" visible="true" version="1" changeset="16429518" timestamp="2013-06-05T09:23:09Z" user="StephaneP" uid="439947" lat="49.2902191" lon="5.6565163"/>
 <node id="2332902458" visible="true" version="1" changeset="16429518" timestamp="2013-06-05T09:23:09Z" user="StephaneP" uid="439947" lat="49.2903848" lon="5.6564382"/>
 <node id="2332902460" visible="true" version="1" changeset="16429518" timestamp="2013-06-05T09:23:09Z" user="StephaneP" uid="439947" lat="49.2904215" lon="5.6562444"/>
 <node id="2332902463" visible="true" version="1" changeset="16429518" timestamp="2013-06-05T09:23:09Z" user="StephaneP" uid="439947" lat="49.2907447" lon="5.6544818"/>
 <node id="2332902465" visible="true" version="1" changeset="16429518" timestamp="2013-06-05T09:23:09Z" user="StephaneP" uid="439947" lat="49.2908440" lon="5.6534654"/>
 <node id="2332902468" visible="true" version="1" changeset="16429518" timestamp="2013-06-05T09:23:09Z" user="StephaneP" uid="439947" lat="49.2913657" lon="5.6533162"/>
 <node id="2332902471" visible="true" version="1" changeset="16429518" timestamp="2013-06-05T09:23:09Z" user="StephaneP" uid="439947" lat="49.2917713" lon="5.6531472"/>
 <node id="2332902475" visible="true" version="1" changeset="16429518" timestamp="2013-06-05T09:23:09Z" user="StephaneP" uid="439947" lat="49.2921268" lon="5.6529630"/>
 <node id="2332902479" visible="true" version="1" changeset="16429518" timestamp="2013-06-05T09:23:10Z" user="StephaneP" uid="439947" lat="49.2924866" lon="5.6523567"/>
 <node id="2332902481" visible="true" version="1" changeset="16429518" timestamp="2013-06-05T09:23:10Z" user="StephaneP" uid="439947" lat="49.2925657" lon="5.6525821"/>
 <node id="2332902539" visible="true" version="1" changeset="16429518" timestamp="2013-06-05T09:23:10Z" user="StephaneP" uid="439947" lat="49.2940141" lon="5.6476771"/>
 <node id="2332902601" visible="true" version="1" changeset="16429518" timestamp="2013-06-05T09:23:11Z" user="StephaneP" uid="439947" lat="49.2950299" lon="5.6475283"/>
 <node id="2332902603" visible="true" version="1" changeset="16429518" timestamp="2013-06-05T09:23:11Z" user="StephaneP" uid="439947" lat="49.2950673" lon="5.6508262"/>
 <node id="2332902631" visible="true" version="1" changeset="16429518" timestamp="2013-06-05T09:23:11Z" user="StephaneP" uid="439947" lat="49.2958684" lon="5.6473913"/>
 <node id="2332902707" visible="true" version="1" changeset="16429518" timestamp="2013-06-05T09:23:12Z" user="StephaneP" uid="439947" lat="49.2972639" lon="5.6473662"/>
 <node id="2332902724" visible="true" version="1" changeset="16429518" timestamp="2013-06-05T09:23:12Z" user="StephaneP" uid="439947" lat="49.2976914" lon="5.6447781"/>
 <node id="2332902730" visible="true" version="1" changeset="16429518" timestamp="2013-06-05T09:23:12Z" user="StephaneP" uid="439947" lat="49.2977557" lon="5.6447445"/>
 <node id="2332902740" visible="true" version="1" changeset="16429518" timestamp="2013-06-05T09:23:12Z" user="StephaneP" uid="439947" lat="49.2979247" lon="5.6456098"/>
 <node id="2332902742" visible="true" version="1" changeset="16429518" timestamp="2013-06-05T09:23:12Z" user="StephaneP" uid="439947" lat="49.2979915" lon="5.6455344"/>
 <node id="2332902750" visible="true" version="1" changeset="16429518" timestamp="2013-06-05T09:23:13Z" user="StephaneP" uid="439947" lat="49.2981715" lon="5.6464992"/>
 <node id="2332902754" visible="true" version="1" changeset="16429518" timestamp="2013-06-05T09:23:13Z" user="StephaneP" uid="439947" lat="49.2982206" lon="5.6464667"/>
 <node id="2332902756" visible="true" version="1" changeset="16429518" timestamp="2013-06-05T09:23:13Z" user="StephaneP" uid="439947" lat="49.2982629" lon="5.6469575"/>
 <node id="2332902774" visible="true" version="1" changeset="16429518" timestamp="2013-06-05T09:23:13Z" user="StephaneP" uid="439947" lat="49.2986989" lon="5.6461918"/>
 <node id="2332902804" visible="true" version="1" changeset="16429518" timestamp="2013-06-05T09:23:13Z" user="StephaneP" uid="439947" lat="49.2990535" lon="5.6461063"/>
 <node id="2332902858" visible="true" version="1" changeset="16429518" timestamp="2013-06-05T09:23:14Z" user="StephaneP" uid="439947" lat="49.3003252" lon="5.6460824"/>
 <node id="2332948119" visible="true" version="1" changeset="16429986" timestamp="2013-06-05T09:52:21Z" user="StephaneP" uid="439947" lat="49.2881629" lon="5.6860356"/>
 <node id="2333375299" visible="true" version="1" changeset="16435149" timestamp="2013-06-05T17:43:45Z" user="StephaneP" uid="439947" lat="49.2799256" lon="5.6644691"/>
 <node id="2333375301" visible="true" version="1" changeset="16435149" timestamp="2013-06-05T17:43:45Z" user="StephaneP" uid="439947" lat="49.2814533" lon="5.6634171"/>
 <node id="2333375302" visible="true" version="1" changeset="16435149" timestamp="2013-06-05T17:43:45Z" user="StephaneP" uid="439947" lat="49.2821073" lon="5.6632352"/>
 <node id="2333375303" visible="true" version="1" changeset="16435149" timestamp="2013-06-05T17:43:45Z" user="StephaneP" uid="439947" lat="49.2837567" lon="5.6690683"/>
 <node id="2333375304" visible="true" version="1" changeset="16435149" timestamp="2013-06-05T17:43:45Z" user="StephaneP" uid="439947" lat="49.2841326" lon="5.6684588"/>
 <node id="2333375305" visible="true" version="1" changeset="16435149" timestamp="2013-06-05T17:43:45Z" user="StephaneP" uid="439947" lat="49.2841501" lon="5.6683456"/>
 <node id="2333375307" visible="true" version="1" changeset="16435149" timestamp="2013-06-05T17:43:45Z" user="StephaneP" uid="439947" lat="49.2841968" lon="5.6686430"/>
 <node id="2333375308" visible="true" version="1" changeset="16435149" timestamp="2013-06-05T17:43:45Z" user="StephaneP" uid="439947" lat="49.2853644" lon="5.6663597"/>
 <node id="2333375309" visible="true" version="1" changeset="16435149" timestamp="2013-06-05T17:43:45Z" user="StephaneP" uid="439947" lat="49.2857637" lon="5.6656810"/>
 <node id="2333375310" visible="true" version="1" changeset="16435149" timestamp="2013-06-05T17:43:45Z" user="StephaneP" uid="439947" lat="49.2865626" lon="5.6672690"/>
 <node id="2333375311" visible="true" version="1" changeset="16435149" timestamp="2013-06-05T17:43:45Z" user="StephaneP" uid="439947" lat="49.2865991" lon="5.6673001"/>
 <node id="2333375312" visible="true" version="1" changeset="16435149" timestamp="2013-06-05T17:43:45Z" user="StephaneP" uid="439947" lat="49.2867580" lon="5.6665833"/>
 <node id="2333375313" visible="true" version="1" changeset="16435149" timestamp="2013-06-05T17:43:45Z" user="StephaneP" uid="439947" lat="49.2867835" lon="5.6670278"/>
 <node id="2333375314" visible="true" version="1" changeset="16435149" timestamp="2013-06-05T17:43:45Z" user="StephaneP" uid="439947" lat="49.2869988" lon="5.6663299"/>
 <node id="2333375315" visible="true" version="1" changeset="16435149" timestamp="2013-06-05T17:43:45Z" user="StephaneP" uid="439947" lat="49.2869990" lon="5.6664457"/>
 <node id="2478627253" visible="true" version="2" changeset="117836941" timestamp="2022-02-25T06:59:54Z" user="Max-Kritic" uid="414659" lat="49.1835167" lon="5.4773139">
  <tag k="height" v="21"/>
  <tag k="operator" v="RTE"/>
  <tag k="power" v="tower"/>
  <tag k="ref" v="88"/>
  <tag k="source" v="data.gouv.fr:RTE - 2022-01"/>
 </node>
 <node id="2882629600" visible="true" version="2" changeset="144882641" timestamp="2023-12-07T22:30:17Z" user="AmiFritz" uid="172867" lat="49.1646633" lon="5.4441550">
  <tag k="operator" v="RTE"/>
  <tag k="power" v="tower"/>
  <tag k="ref" v="99"/>
 </node>
 <node id="2882630502" visible="true" version="2" changeset="144882641" timestamp="2023-12-07T22:30:17Z" user="AmiFritz" uid="172867" lat="49.1664436" lon="5.4471036">
  <tag k="operator" v="RTE"/>
  <tag k="power" v="tower"/>
  <tag k="ref" v="98"/>
  <tag k="source" v="Bing Sat"/>
 </node>
 <node id="2882630552" visible="true" version="2" changeset="144882641" timestamp="2023-12-07T22:30:17Z" user="AmiFritz" uid="172867" lat="49.1688740" lon="5.4510786">
  <tag k="operator" v="RTE"/>
  <tag k="power" v="tower"/>
  <tag k="ref" v="97"/>
  <tag k="source" v="Bing Sat"/>
 </node>
 <node id="2882630566" visible="true" version="2" changeset="144882641" timestamp="2023-12-07T22:30:17Z" user="AmiFritz" uid="172867" lat="49.1704225" lon="5.4536111">
  <tag k="operator" v="RTE"/>
  <tag k="power" v="tower"/>
  <tag k="ref" v="96"/>
  <tag k="source" v="Bing Sat"/>
 </node>
 <node id="2882630575" visible="true" version="2" changeset="144882641" timestamp="2023-12-07T22:30:17Z" user="AmiFritz" uid="172867" lat="49.1725924" lon="5.4571771">
  <tag k="height" v="26"/>
  <tag k="operator" v="RTE"/>
  <tag k="power" v="tower"/>
  <tag k="ref" v="95"/>
  <tag k="source" v="Bing Sat"/>
 </node>
 <node id="2882630584" visible="true" version="2" changeset="144882641" timestamp="2023-12-07T22:30:17Z" user="AmiFritz" uid="172867" lat="49.1744776" lon="5.4602628">
  <tag k="operator" v="RTE"/>
  <tag k="power" v="tower"/>
  <tag k="ref" v="94"/>
  <tag k="source" v="Bing Sat"/>
 </node>
 <node id="2882630591" visible="true" version="2" changeset="144882641" timestamp="2023-12-07T22:30:17Z" user="AmiFritz" uid="172867" lat="49.1794772" lon="5.4696900">
  <tag k="height" v="23"/>
  <tag k="operator" v="RTE"/>
  <tag k="power" v="tower"/>
  <tag k="ref" v="91"/>
 </node>
 <node id="3499359334" visible="true" version="2" changeset="144882641" timestamp="2023-12-07T22:30:17Z" user="AmiFritz" uid="172867" lat="49.1620677" lon="5.4399055">
  <tag k="operator" v="RTE"/>
  <tag k="power" v="tower"/>
  <tag k="ref" v="100"/>
 </node>
 <node id="3605457225" visible="true" version="4" changeset="125199848" timestamp="2022-08-21T21:16:19Z" user="user_5589" uid="5589" lat="49.2773190" lon="5.6707631">
  <tag k="operator" v="Enedis"/>
  <tag k="operator:wikidata" v="Q3587594"/>
  <tag k="power" v="pole"/>
 </node>
 <node id="3605486986" visible="true" version="5" changeset="125199848" timestamp="2022-08-21T21:16:19Z" user="user_5589" uid="5589" lat="49.2786011" lon="5.6701358">
  <tag k="operator" v="Enedis"/>
  <tag k="operator:wikidata" v="Q3587594"/>
  <tag k="power" v="pole"/>
 </node>
 <node id="3605486987" visible="true" version="5" changeset="125199848" timestamp="2022-08-21T21:16:19Z" user="user_5589" uid="5589" lat="49.2815610" lon="5.6687213">
  <tag k="operator" v="Enedis"/>
  <tag k="operator:wikidata" v="Q3587594"/>
  <tag k="power" v="pole"/>
 </node>
 <node id="3605486988" visible="true" version="5" changeset="125199848" timestamp="2022-08-21T21:16:19Z" user="user_5589" uid="5589" lat="49.2800621" lon="5.6694384">
  <tag k="operator" v="Enedis"/>
  <tag k="operator:wikidata" v="Q3587594"/>
  <tag k="power" v="pole"/>
 </node>
 <node id="3605486989" visible="true" version="5" changeset="125199848" timestamp="2022-08-21T21:16:19Z" user="user_5589" uid="5589" lat="49.2827016" lon="5.6681831">
  <tag k="operator" v="Enedis"/>
  <tag k="operator:wikidata" v="Q3587594"/>
  <tag k="power" v="pole"/>
 </node>
 <node id="3605486990" visible="true" version="5" changeset="125199848" timestamp="2022-08-21T21:16:19Z" user="user_5589" uid="5589" lat="49.2842350" lon="5.6674335">
  <tag k="operator" v="Enedis"/>
  <tag k="operator:wikidata" v="Q3587594"/>
  <tag k="power" v="pole"/>
 </node>
 <node id="3605486991" visible="true" version="5" changeset="125199848" timestamp="2022-08-21T21:16:19Z" user="user_5589" uid="5589" lat="49.2853078" lon="5.6669168">
  <tag k="operator" v="Enedis"/>
  <tag k="operator:wikidata" v="Q3587594"/>
  <tag k="power" v="pole"/>
 </node>
 <node id="3605486992" visible="true" version="5" changeset="125199848" timestamp="2022-08-21T21:16:19Z" user="user_5589" uid="5589" lat="49.2867701" lon="5.6661912">
  <tag k="operator" v="Enedis"/>
  <tag k="operator:wikidata" v="Q3587594"/>
  <tag k="power" v="pole"/>
 </node>
 <node id="3605488693" visible="true" version="5" changeset="125199848" timestamp="2022-08-21T21:16:19Z" user="user_5589" uid="5589" lat="49.2883885" lon="5.6654431">
  <tag k="operator" v="Enedis"/>
  <tag k="operator:wikidata" v="Q3587594"/>
  <tag k="power" v="pole"/>
 </node>
 <node id="3605488694" visible="true" version="5" changeset="125199848" timestamp="2022-08-21T21:16:19Z" user="user_5589" uid="5589" lat="49.2902855" lon="5.6645125">
  <tag k="operator" v="Enedis"/>
  <tag k="operator:wikidata" v="Q3587594"/>
  <tag k="power" v="pole"/>
 </node>
 <node id="3605488695" visible="true" version="5" changeset="125199848" timestamp="2022-08-21T21:16:19Z" user="user_5589" uid="5589" lat="49.2918022" lon="5.6637932">
  <tag k="operator" v="Enedis"/>
  <tag k="operator:wikidata" v="Q3587594"/>
  <tag k="power" v="pole"/>
 </node>
 <node id="3605488696" visible="true" version="5" changeset="125199848" timestamp="2022-08-21T21:16:19Z" user="user_5589" uid="5589" lat="49.2928772" lon="5.6632898">
  <tag k="operator" v="Enedis"/>
  <tag k="operator:wikidata" v="Q3587594"/>
  <tag k="power" v="pole"/>
 </node>
 <node id="3605559799" visible="true" version="5" changeset="125199848" timestamp="2022-08-21T21:16:19Z" user="user_5589" uid="5589" lat="49.2831217" lon="5.6531300">
  <tag k="operator" v="Enedis"/>
  <tag k="operator:wikidata" v="Q3587594"/>
  <tag k="power" v="pole"/>
 </node>
 <node id="3605559800" visible="true" version="5" changeset="125199848" timestamp="2022-08-21T21:16:19Z" user="user_5589" uid="5589" lat="49.2827894" lon="5.6510195">
  <tag k="operator" v="Enedis"/>
  <tag k="operator:wikidata" v="Q3587594"/>
  <tag k="power" v="pole"/>
 </node>
 <node id="3605559801" visible="true" version="5" changeset="125199848" timestamp="2022-08-21T21:16:19Z" user="user_5589" uid="5589" lat="49.2824642" lon="5.6488522">
  <tag k="operator" v="Enedis"/>
  <tag k="operator:wikidata" v="Q3587594"/>
  <tag k="power" v="pole"/>
 </node>
 <node id="3605559802" visible="true" version="5" changeset="125199848" timestamp="2022-08-21T21:16:19Z" user="user_5589" uid="5589" lat="49.2817523" lon="5.6444253">
  <tag k="operator" v="Enedis"/>
  <tag k="operator:wikidata" v="Q3587594"/>
  <tag k="power" v="pole"/>
 </node>
 <node id="3605559803" visible="true" version="5" changeset="125199848" timestamp="2022-08-21T21:16:19Z" user="user_5589" uid="5589" lat="49.2815621" lon="5.6432015">
  <tag k="operator" v="Enedis"/>
  <tag k="operator:wikidata" v="Q3587594"/>
  <tag k="power" v="pole"/>
 </node>
 <node id="3605559804" visible="true" version="5" changeset="125199848" timestamp="2022-08-21T21:16:19Z" user="user_5589" uid="5589" lat="49.2820924" lon="5.6465194">
  <tag k="operator" v="Enedis"/>
  <tag k="operator:wikidata" v="Q3587594"/>
  <tag k="power" v="pole"/>
 </node>
 <node id="3605559805" visible="true" version="5" changeset="125199848" timestamp="2022-08-21T21:16:19Z" user="user_5589" uid="5589" lat="49.2834988" lon="5.6554396">
  <tag k="operator" v="Enedis"/>
  <tag k="operator:wikidata" v="Q3587594"/>
  <tag k="power" v="pole"/>
 </node>
 <node id="3605559806" visible="true" version="5" changeset="125199848" timestamp="2022-08-21T21:16:19Z" user="user_5589" uid="5589" lat="49.2838677" lon="5.6577944">
  <tag k="operator" v="Enedis"/>
  <tag k="operator:wikidata" v="Q3587594"/>
  <tag k="power" v="pole"/>
 </node>
 <node id="3605559807" visible="true" version="5" changeset="125199848" timestamp="2022-08-21T21:16:19Z" user="user_5589" uid="5589" lat="49.2841761" lon="5.6597472">
  <tag k="operator" v="Enedis"/>
  <tag k="operator:wikidata" v="Q3587594"/>
  <tag k="power" v="pole"/>
 </node>
 <node id="3605559808" visible="true" version="5" changeset="125199848" timestamp="2022-08-21T21:16:19Z" user="user_5589" uid="5589" lat="49.2845421" lon="5.6621241">
  <tag k="operator" v="Enedis"/>
  <tag k="operator:wikidata" v="Q3587594"/>
  <tag k="power" v="pole"/>
 </node>
 <node id="3605559809" visible="true" version="5" changeset="125199848" timestamp="2022-08-21T21:16:19Z" user="user_5589" uid="5589" lat="49.2849312" lon="5.6645673">
  <tag k="operator" v="Enedis"/>
  <tag k="operator:wikidata" v="Q3587594"/>
  <tag k="power" v="pole"/>
 </node>
 <node id="3605580136" visible="true" version="5" changeset="125199848" timestamp="2022-08-21T21:16:19Z" user="user_5589" uid="5589" lat="49.2860396" lon="5.6576997">
  <tag k="operator" v="Enedis"/>
  <tag k="operator:wikidata" v="Q3587594"/>
  <tag k="power" v="pole"/>
 </node>
 <node id="3605580137" visible="true" version="5" changeset="125199848" timestamp="2022-08-21T21:16:19Z" user="user_5589" uid="5589" lat="49.2851424" lon="5.6586748">
  <tag k="operator" v="Enedis"/>
  <tag k="operator:wikidata" v="Q3587594"/>
  <tag k="power" v="pole"/>
 </node>
 <node id="5600404536" visible="true" version="1" changeset="58733499" timestamp="2018-05-06T15:57:59Z" user="gendy54" uid="713836" lat="49.2939081" lon="5.6615786"/>
 <node id="5600404537" visible="true" version="1" changeset="58733499" timestamp="2018-05-06T15:57:59Z" user="gendy54" uid="713836" lat="49.2936921" lon="5.6616551"/>
 <node id="5600404538" visible="true" version="1" changeset="58733499" timestamp="2018-05-06T15:57:59Z" user="gendy54" uid="713836" lat="49.2933912" lon="5.6617328"/>
 <node id="5600404539" visible="true" version="1" changeset="58733499" timestamp="2018-05-06T15:57:59Z" user="gendy54" uid="713836" lat="49.2931130" lon="5.6617650"/>
 <node id="5600404540" visible="true" version="1" changeset="58733499" timestamp="2018-05-06T15:57:59Z" user="gendy54" uid="713836" lat="49.2928349" lon="5.6617570"/>
 <node id="5600404541" visible="true" version="1" changeset="58733499" timestamp="2018-05-06T15:57:59Z" user="gendy54" uid="713836" lat="49.2926075" lon="5.6617409"/>
 <node id="5600404542" visible="true" version="1" changeset="58733499" timestamp="2018-05-06T15:57:59Z" user="gendy54" uid="713836" lat="49.2924562" lon="5.6616926"/>
 <node id="5600404543" visible="true" version="1" changeset="58733499" timestamp="2018-05-06T15:57:59Z" user="gendy54" uid="713836" lat="49.2921824" lon="5.6615384"/>
 <node id="5600404544" visible="true" version="1" changeset="58733499" timestamp="2018-05-06T15:57:59Z" user="gendy54" uid="713836" lat="49.2918439" lon="5.6613775"/>
 <node id="5600404545" visible="true" version="1" changeset="58733499" timestamp="2018-05-06T15:57:59Z" user="gendy54" uid="713836" lat="49.2915211" lon="5.6612192"/>
 <node id="5600404546" visible="true" version="1" changeset="58733499" timestamp="2018-05-06T15:57:59Z" user="gendy54" uid="713836" lat="49.2912937" lon="5.6611133"/>
 <node id="5600404547" visible="true" version="1" changeset="58733499" timestamp="2018-05-06T15:58:00Z" user="gendy54" uid="713836" lat="49.2911197" lon="5.6610167"/>
 <node id="5600404548" visible="true" version="1" changeset="58733499" timestamp="2018-05-06T15:58:00Z" user="gendy54" uid="713836" lat="49.2906989" lon="5.6606989"/>
 <node id="5600404549" visible="true" version="1" changeset="58733499" timestamp="2018-05-06T15:58:00Z" user="gendy54" uid="713836" lat="49.2903622" lon="5.6604414"/>
 <node id="5600404550" visible="true" version="1" changeset="58733499" timestamp="2018-05-06T15:58:00Z" user="gendy54" uid="713836" lat="49.2900858" lon="5.6602214"/>
 <node id="5600404551" visible="true" version="1" changeset="58733499" timestamp="2018-05-06T15:58:00Z" user="gendy54" uid="713836" lat="49.2898181" lon="5.6600283"/>
 <node id="5600404552" visible="true" version="1" changeset="58733499" timestamp="2018-05-06T15:58:00Z" user="gendy54" uid="713836" lat="49.2895286" lon="5.6598070"/>
 <node id="5600404553" visible="true" version="1" changeset="58733499" timestamp="2018-05-06T15:58:00Z" user="gendy54" uid="713836" lat="49.2894350" lon="5.6597118"/>
 <node id="5600404554" visible="true" version="1" changeset="58733499" timestamp="2018-05-06T15:58:00Z" user="gendy54" uid="713836" lat="49.2893773" lon="5.6596340"/>
 <node id="5600404555" visible="true" version="1" changeset="58733499" timestamp="2018-05-06T15:58:00Z" user="gendy54" uid="713836" lat="49.2893318" lon="5.6595321"/>
 <node id="5600404556" visible="true" version="1" changeset="58733499" timestamp="2018-05-06T15:58:00Z" user="gendy54" uid="713836" lat="49.2893020" lon="5.6594288"/>
 <node id="5600404557" visible="true" version="1" changeset="58733499" timestamp="2018-05-06T15:58:00Z" user="gendy54" uid="713836" lat="49.2892845" lon="5.6592599"/>
 <node id="5600404558" visible="true" version="1" changeset="58733499" timestamp="2018-05-06T15:58:00Z" user="gendy54" uid="713836" lat="49.2892723" lon="5.6590359"/>
 <node id="5600404559" visible="true" version="1" changeset="58733499" timestamp="2018-05-06T15:58:00Z" user="gendy54" uid="713836" lat="49.2892565" lon="5.6587864"/>
 <node id="5600404560" visible="true" version="1" changeset="58733499" timestamp="2018-05-06T15:58:00Z" user="gendy54" uid="713836" lat="49.2892443" lon="5.6586134"/>
 <node id="5600404561" visible="true" version="1" changeset="58733499" timestamp="2018-05-06T15:58:00Z" user="gendy54" uid="713836" lat="49.2892172" lon="5.6584217"/>
 <node id="5600404562" visible="true" version="1" changeset="58733499" timestamp="2018-05-06T15:58:00Z" user="gendy54" uid="713836" lat="49.2891603" lon="5.6581977"/>
 <node id="5600404563" visible="true" version="1" changeset="58733499" timestamp="2018-05-06T15:58:00Z" user="gendy54" uid="713836" lat="49.2890947" lon="5.6580220"/>
 <node id="5600404564" visible="true" version="1" changeset="58733499" timestamp="2018-05-06T15:58:00Z" user="gendy54" uid="713836" lat="49.2890309" lon="5.6578839"/>
 <node id="5600404565" visible="true" version="1" changeset="58733499" timestamp="2018-05-06T15:58:00Z" user="gendy54" uid="713836" lat="49.2889145" lon="5.6576988"/>
 <node id="5600404566" visible="true" version="1" changeset="58733499" timestamp="2018-05-06T15:58:00Z" user="gendy54" uid="713836" lat="49.2887160" lon="5.6574346"/>
 <node id="5600404567" visible="true" version="1" changeset="58733499" timestamp="2018-05-06T15:58:00Z" user="gendy54" uid="713836" lat="49.2884728" lon="5.6571423"/>
 <node id="5600404568" visible="true" version="1" changeset="58733499" timestamp="2018-05-06T15:58:00Z" user="gendy54" uid="713836" lat="49.2882946" lon="5.6569903"/>
 <node id="5765405078" visible="true" version="1" changeset="60789616" timestamp="2018-07-17T08:41:57Z" user="Jeece" uid="1455268" lat="49.2785781" lon="5.6748440"/>
 <node id="5765405079" visible="true" version="1" changeset="60789616" timestamp="2018-07-17T08:41:57Z" user="Jeece" uid="1455268" lat="49.2793850" lon="5.6745205"/>
 <node id="5765405080" visible="true" version="1" changeset="60789616" timestamp="2018-07-17T08:41:57Z" user="Jeece" uid="1455268" lat="49.2799034" lon="5.6745466"/>
 <node id="5765405081" visible="true" version="1" changeset="60789616" timestamp="2018-07-17T08:41:57Z" user="Jeece" uid="1455268" lat="49.2809742" lon="5.6737910"/>
 <node id="5765405082" visible="true" version="1" changeset="60789616" timestamp="2018-07-17T08:41:57Z" user="Jeece" uid="1455268" lat="49.2813481" lon="5.6738561"/>
 <node id="5765405083" visible="true" version="1" changeset="60789616" timestamp="2018-07-17T08:41:57Z" user="Jeece" uid="1455268" lat="49.2816880" lon="5.6737910"/>
 <node id="5765405084" visible="true" version="1" changeset="60789616" timestamp="2018-07-17T08:41:57Z" user="Jeece" uid="1455268" lat="49.2826823" lon="5.6732960"/>
 <node id="5765405085" visible="true" version="1" changeset="60789616" timestamp="2018-07-17T08:41:57Z" user="Jeece" uid="1455268" lat="49.2831072" lon="5.6728791"/>
 <node id="5765405086" visible="true" version="1" changeset="60789616" timestamp="2018-07-17T08:41:57Z" user="Jeece" uid="1455268" lat="49.2825973" lon="5.6704040"/>
 <node id="5765405087" visible="true" version="1" changeset="60789616" timestamp="2018-07-17T08:41:57Z" user="Jeece" uid="1455268" lat="49.2826228" lon="5.6701956"/>
 <node id="5765405088" visible="true" version="1" changeset="60789616" timestamp="2018-07-17T08:41:57Z" user="Jeece" uid="1455268" lat="49.2829967" lon="5.6698308"/>
 <node id="5765405089" visible="true" version="1" changeset="60789616" timestamp="2018-07-17T08:41:57Z" user="Jeece" uid="1455268" lat="49.2854163" lon="5.6662715"/>
 <node id="5765405090" visible="true" version="2" changeset="128582325" timestamp="2022-11-07T06:50:04Z" user="EUMapper" uid="11746909" lat="49.2846839" lon="5.6579286"/>
 <node id="5798751745" visible="true" version="1" changeset="61228681" timestamp="2018-07-31T12:44:49Z" user="Jeece" uid="1455268" lat="49.2823080" lon="5.6663734">
  <tag k="name" v="Feyge"/>
  <tag k="place" v="locality"/>
 </node>
 <node id="5814217458" visible="true" version="1" changeset="61425359" timestamp="2018-08-07T07:49:37Z" user="Jeece" uid="1455268" lat="49.2959697" lon="5.6853044"/>
 <node id="5814217459" visible="true" version="1" changeset="61425359" timestamp="2018-08-07T07:49:37Z" user="Jeece" uid="1455268" lat="49.2875329" lon="5.6573878"/>
 <node id="5814217460" visible="true" version="1" changeset="61425359" timestamp="2018-08-07T07:49:37Z" user="Jeece" uid="1455268" lat="49.2878558" lon="5.6596545"/>
 <node id="5814217461" visible="true" version="1" changeset="61425359" timestamp="2018-08-07T07:49:37Z" user="Jeece" uid="1455268" lat="49.2879322" lon="5.6600062"/>
 <node id="5814217462" visible="true" version="1" changeset="61425359" timestamp="2018-08-07T07:49:37Z" user="Jeece" uid="1455268" lat="49.2880767" lon="5.6608269"/>
 <node id="5814217463" visible="true" version="1" changeset="61425359" timestamp="2018-08-07T07:49:37Z" user="Jeece" uid="1455268" lat="49.2881702" lon="5.6613610"/>
 <node id="5814217464" visible="true" version="1" changeset="61425359" timestamp="2018-08-07T07:49:37Z" user="Jeece" uid="1455268" lat="49.2880427" lon="5.6616346"/>
 <node id="5814217465" visible="true" version="1" changeset="61425359" timestamp="2018-08-07T07:49:37Z" user="Jeece" uid="1455268" lat="49.2879407" lon="5.6625334"/>
 <node id="5814217466" visible="true" version="1" changeset="61425359" timestamp="2018-08-07T07:49:37Z" user="Jeece" uid="1455268" lat="49.2879322" lon="5.6631327"/>
 <node id="5814217467" visible="true" version="1" changeset="61425359" timestamp="2018-08-07T07:49:37Z" user="Jeece" uid="1455268" lat="49.2878728" lon="5.6641878"/>
 <node id="5814217468" visible="true" version="1" changeset="61425359" timestamp="2018-08-07T07:49:37Z" user="Jeece" uid="1455268" lat="49.2877878" lon="5.6678484"/>
 <node id="5814217469" visible="true" version="1" changeset="61425359" timestamp="2018-08-07T07:49:37Z" user="Jeece" uid="1455268" lat="49.2877623" lon="5.6687733"/>
 <node id="5814217470" visible="true" version="1" changeset="61425359" timestamp="2018-08-07T07:49:37Z" user="Jeece" uid="1455268" lat="49.2876858" lon="5.6693595"/>
 <node id="5814217471" visible="true" version="1" changeset="61425359" timestamp="2018-08-07T07:49:37Z" user="Jeece" uid="1455268" lat="49.2878558" lon="5.6702844"/>
 <node id="5814217472" visible="true" version="1" changeset="61425359" timestamp="2018-08-07T07:49:37Z" user="Jeece" uid="1455268" lat="49.2881617" lon="5.6720431"/>
 <node id="5814217473" visible="true" version="1" changeset="61425359" timestamp="2018-08-07T07:49:37Z" user="Jeece" uid="1455268" lat="49.2883741" lon="5.6734500"/>
 <node id="5814217474" visible="true" version="1" changeset="61425359" timestamp="2018-08-07T07:49:37Z" user="Jeece" uid="1455268" lat="49.2883401" lon="5.6742055"/>
 <node id="5814217475" visible="true" version="1" changeset="61425359" timestamp="2018-08-07T07:49:37Z" user="Jeece" uid="1455268" lat="49.2884675" lon="5.6751044"/>
 <node id="5814217476" visible="true" version="1" changeset="61425359" timestamp="2018-08-07T07:49:37Z" user="Jeece" uid="1455268" lat="49.2889009" lon="5.6774232"/>
 <node id="5814217477" visible="true" version="1" changeset="61425359" timestamp="2018-08-07T07:49:37Z" user="Jeece" uid="1455268" lat="49.2894192" lon="5.6782699"/>
 <node id="5814217478" visible="true" version="1" changeset="61425359" timestamp="2018-08-07T07:49:37Z" user="Jeece" uid="1455268" lat="49.2897675" lon="5.6788952"/>
 <node id="5814217479" visible="true" version="1" changeset="61425359" timestamp="2018-08-07T07:49:37Z" user="Jeece" uid="1455268" lat="49.2900309" lon="5.6796117"/>
 <node id="5814217480" visible="true" version="1" changeset="61425359" timestamp="2018-08-07T07:49:37Z" user="Jeece" uid="1455268" lat="49.2903198" lon="5.6800155"/>
 <node id="5814217481" visible="true" version="1" changeset="61425359" timestamp="2018-08-07T07:49:37Z" user="Jeece" uid="1455268" lat="49.2912034" lon="5.6806408"/>
 <node id="5814217482" visible="true" version="1" changeset="61425359" timestamp="2018-08-07T07:49:37Z" user="Jeece" uid="1455268" lat="49.2917642" lon="5.6809404"/>
 <node id="5814217483" visible="true" version="1" changeset="61425359" timestamp="2018-08-07T07:49:37Z" user="Jeece" uid="1455268" lat="49.2918747" lon="5.6811098"/>
 <node id="5814217484" visible="true" version="1" changeset="61425359" timestamp="2018-08-07T07:49:37Z" user="Jeece" uid="1455268" lat="49.2920191" lon="5.6816569"/>
 <node id="5814217485" visible="true" version="1" changeset="61425359" timestamp="2018-08-07T07:49:37Z" user="Jeece" uid="1455268" lat="49.2923759" lon="5.6823864"/>
 <node id="5814217486" visible="true" version="1" changeset="61425359" timestamp="2018-08-07T07:49:37Z" user="Jeece" uid="1455268" lat="49.2926648" lon="5.6828033"/>
 <node id="5814217487" visible="true" version="1" changeset="61425359" timestamp="2018-08-07T07:49:37Z" user="Jeece" uid="1455268" lat="49.2932510" lon="5.6835588"/>
 <node id="5814217488" visible="true" version="1" changeset="61425359" timestamp="2018-08-07T07:49:37Z" user="Jeece" uid="1455268" lat="49.2941601" lon="5.6841190"/>
 <node id="5814217489" visible="true" version="1" changeset="61425359" timestamp="2018-08-07T07:49:37Z" user="Jeece" uid="1455268" lat="49.2948652" lon="5.6846531"/>
 <node id="5814217490" visible="true" version="1" changeset="61425359" timestamp="2018-08-07T07:49:37Z" user="Jeece" uid="1455268" lat="49.2957913" lon="5.6852914"/>
 <node id="5814217491" visible="true" version="1" changeset="61425359" timestamp="2018-08-07T07:49:37Z" user="Jeece" uid="1455268" lat="49.2964199" lon="5.6856171"/>
 <node id="5814217492" visible="true" version="2" changeset="129613700" timestamp="2022-12-01T17:47:34Z" user="Denis_Helfer" uid="22165" lat="49.2969337" lon="5.6866905"/>
 <node id="5814217493" visible="true" version="2" changeset="129613700" timestamp="2022-12-01T17:47:34Z" user="Denis_Helfer" uid="22165" lat="49.2971328" lon="5.6870293"/>
 <node id="5814217510" visible="true" version="1" changeset="61425359" timestamp="2018-08-07T07:49:37Z" user="Jeece" uid="1455268" lat="49.2914719" lon="5.6807843"/>
 <node id="5814217519" visible="true" version="1" changeset="61425359" timestamp="2018-08-07T07:49:38Z" user="Jeece" uid="1455268" lat="49.2883759" lon="5.6744581"/>
 <node id="5814217530" visible="true" version="1" changeset="61425359" timestamp="2018-08-07T07:49:38Z" user="Jeece" uid="1455268" lat="49.2849438" lon="5.6731538"/>
 <node id="5823240802" visible="true" version="1" changeset="61539586" timestamp="2018-08-10T13:54:24Z" user="Jeece" uid="1455268" lat="49.2849003" lon="5.6618329">
  <tag k="name" v="Le traversin"/>
  <tag k="place" v="locality"/>
 </node>
 <node id="5863491192" visible="true" version="1" changeset="62072323" timestamp="2018-08-28T13:42:52Z" user="Jeece" uid="1455268" lat="49.2874284" lon="5.6671758">
  <tag k="name" v="Prairie de broye"/>
  <tag k="place" v="locality"/>
 </node>
 <node id="5863500061" visible="true" version="1" changeset="62072476" timestamp="2018-08-28T13:47:47Z" user="Jeece" uid="1455268" lat="49.2893114" lon="5.6607746"/>
 <node id="5863500062" visible="true" version="1" changeset="62072476" timestamp="2018-08-28T13:47:47Z" user="Jeece" uid="1455268" lat="49.2887698" lon="5.6609644"/>
 <node id="5863500063" visible="true" version="1" changeset="62072476" timestamp="2018-08-28T13:47:47Z" user="Jeece" uid="1455268" lat="49.2885738" lon="5.6611147"/>
 <node id="5863500064" visible="true" version="1" changeset="62072476" timestamp="2018-08-28T13:47:47Z" user="Jeece" uid="1455268" lat="49.2883314" lon="5.6615022"/>
 <node id="5863500065" visible="true" version="1" changeset="62072476" timestamp="2018-08-28T13:47:47Z" user="Jeece" uid="1455268" lat="49.2881405" lon="5.6616367"/>
 <node id="5863500066" visible="true" version="1" changeset="62072476" timestamp="2018-08-28T13:47:47Z" user="Jeece" uid="1455268" lat="49.2882825" lon="5.6614686"/>
 <node id="5863500067" visible="true" version="1" changeset="62072476" timestamp="2018-08-28T13:47:47Z" user="Jeece" uid="1455268" lat="49.2882929" lon="5.6613465"/>
 <node id="5863500068" visible="true" version="1" changeset="62072476" timestamp="2018-08-28T13:47:47Z" user="Jeece" uid="1455268" lat="49.2881520" lon="5.6613146"/>
 <node id="5863500069" visible="true" version="1" changeset="62072476" timestamp="2018-08-28T13:47:47Z" user="Jeece" uid="1455268" lat="49.2881393" lon="5.6614491"/>
 <node id="5863500070" visible="true" version="1" changeset="62072476" timestamp="2018-08-28T13:47:47Z" user="Jeece" uid="1455268" lat="49.2894883" lon="5.6598651"/>
 <node id="5863500071" visible="true" version="1" changeset="62072476" timestamp="2018-08-28T13:47:47Z" user="Jeece" uid="1455268" lat="49.2885443" lon="5.6603651"/>
 <node id="5863500072" visible="true" version="1" changeset="62072476" timestamp="2018-08-28T13:47:47Z" user="Jeece" uid="1455268" lat="49.2882606" lon="5.6606782"/>
 <node id="5863500073" visible="true" version="1" changeset="62072476" timestamp="2018-08-28T13:47:47Z" user="Jeece" uid="1455268" lat="49.2880596" lon="5.6607297"/>
 <node id="9533974075" visible="true" version="2" changeset="127630922" timestamp="2022-10-16T18:14:42Z" user="user_5589" uid="5589" lat="49.2511639" lon="5.6061472">
  <tag k="height" v="26"/>
  <tag k="operator" v="RTE"/>
  <tag k="operator:wikidata" v="Q2178795"/>
  <tag k="power" v="tower"/>
  <tag k="ref" v="50"/>
  <tag k="source" v="data.gouv.fr:RTE - 2022-01"/>
 </node>
 <node id="9533974076" visible="true" version="3" changeset="144881500" timestamp="2023-12-07T21:39:50Z" user="AmiFritz" uid="172867" lat="49.2479646" lon="5.5991956">
  <tag k="height" v="26"/>
  <tag k="operator" v="RTE"/>
  <tag k="operator:wikidata" v="Q2178795"/>
  <tag k="power" v="tower"/>
  <tag k="ref" v="52"/>
  <tag k="source" v="data.gouv.fr:RTE - 2022-01"/>
 </node>
 <node id="9533974077" visible="true" version="2" changeset="127630922" timestamp="2022-10-16T18:14:42Z" user="user_5589" uid="5589" lat="49.2305611" lon="5.5615252">
  <tag k="height" v="26"/>
  <tag k="operator" v="RTE"/>
  <tag k="operator:wikidata" v="Q2178795"/>
  <tag k="power" v="tower"/>
  <tag k="ref" v="63"/>
  <tag k="source" v="data.gouv.fr:RTE - 2022-01"/>
 </node>
 <node id="9533974078" visible="true" version="2" changeset="127630922" timestamp="2022-10-16T18:14:42Z" user="user_5589" uid="5589" lat="49.2288579" lon="5.5578154">
  <tag k="height" v="26"/>
  <tag k="operator" v="RTE"/>
  <tag k="operator:wikidata" v="Q2178795"/>
  <tag k="power" v="tower"/>
  <tag k="ref" v="64"/>
  <tag k="source" v="data.gouv.fr:RTE - 2022-01"/>
 </node>
 <node id="9533974079" visible="true" version="3" changeset="144881928" timestamp="2023-12-07T21:58:38Z" user="AmiFritz" uid="172867" lat="49.2103850" lon="5.5178728">
  <tag k="height" v="23"/>
  <tag k="operator" v="RTE"/>
  <tag k="operator:wikidata" v="Q2178795"/>
  <tag k="power" v="tower"/>
  <tag k="ref" v="75"/>
  <tag k="source" v="data.gouv.fr:RTE - 2022-01"/>
 </node>
 <node id="9533974080" visible="true" version="1" changeset="117836941" timestamp="2022-02-25T06:59:54Z" user="Max-Kritic" uid="414659" lat="49.1824917" lon="5.4753639">
  <tag k="height" v="26"/>
  <tag k="operator" v="RTE"/>
  <tag k="power" v="tower"/>
  <tag k="ref" v="89"/>
  <tag k="source" v="data.gouv.fr:RTE - 2022-01"/>
 </node>
 <node id="9533974082" visible="true" version="1" changeset="117836941" timestamp="2022-02-25T06:59:54Z" user="Max-Kritic" uid="414659" lat="49.1809861" lon="5.4725361">
  <tag k="height" v="23"/>
  <tag k="operator" v="RTE"/>
  <tag k="power" v="tower"/>
  <tag k="ref" v="90"/>
  <tag k="source" v="data.gouv.fr:RTE - 2022-01"/>
 </node>
 <node id="10231372591" visible="true" version="1" changeset="129613700" timestamp="2022-12-01T17:47:34Z" user="Denis_Helfer" uid="22165" lat="49.2970077" lon="5.6867733"/>
 <node id="11401763513" visible="true" version="1" changeset="144880818" timestamp="2023-12-07T21:10:03Z" user="AmiFritz" uid="172867" lat="49.3126920" lon="5.7389091">
  <tag k="height" v="23"/>
  <tag k="operator" v="RTE"/>
  <tag k="power" v="tower"/>
  <tag k="ref" v="12"/>
 </node>
 <node id="11401828487" visible="true" version="1" changeset="144881500" timestamp="2023-12-07T21:39:50Z" user="AmiFritz" uid="172867" lat="49.2684241" lon="5.6435990">
  <tag k="operator" v="RTE"/>
  <tag k="power" v="tower"/>
  <tag k="ref" v="40"/>
 </node>
 <node id="11401871651" visible="true" version="1" changeset="144882641" timestamp="2023-12-07T22:30:17Z" user="AmiFritz" uid="172867" lat="49.1869130" lon="5.4820019">
  <tag k="operator" v="RTE"/>
  <tag k="power" v="tower"/>
  <tag k="ref" v="87"/>
 </node>
 <way id="67361444" visible="true" version="1" changeset="5199903" timestamp="2010-07-12T15:25:03Z" user="FrViPofm" uid="107257">
  <nd ref="520990585"/>
  <nd ref="813557281"/>
  <nd ref="813559462"/>
  <nd ref="813559801"/>
  <nd ref="813555933"/>
  <nd ref="813556941"/>
  <nd ref="813555352"/>
  <nd ref="813560882"/>
  <nd ref="813559921"/>
  <nd ref="813561185"/>
  <nd ref="813561144"/>
  <nd ref="813555035"/>
  <nd ref="813553886"/>
  <nd ref="813554776"/>
  <nd ref="813556159"/>
  <nd ref="520990582"/>
  <nd ref="520990620"/>
  <nd ref="520990619"/>
  <nd ref="520990618"/>
  <nd ref="520990617"/>
  <nd ref="520990616"/>
  <nd ref="520990615"/>
  <nd ref="520990614"/>
  <nd ref="520990613"/>
  <nd ref="520990612"/>
  <nd ref="520990611"/>
  <nd ref="520990610"/>
  <nd ref="520990609"/>
  <nd ref="520990608"/>
  <nd ref="520990607"/>
  <nd ref="520990606"/>
  <nd ref="520990605"/>
  <nd ref="520990604"/>
  <nd ref="520990603"/>
  <nd ref="520990602"/>
  <nd ref="520990601"/>
  <nd ref="520990600"/>
  <nd ref="520990599"/>
  <nd ref="520990598"/>
  <nd ref="520990597"/>
  <nd ref="520990596"/>
  <nd ref="520990595"/>
  <nd ref="520990594"/>
  <nd ref="520990593"/>
  <nd ref="520990592"/>
  <nd ref="520990591"/>
  <nd ref="520990590"/>
  <nd ref="520990589"/>
  <nd ref="520990588"/>
  <nd ref="520990587"/>
  <nd ref="520990586"/>
  <nd ref="520990585"/>
 </way>
 <way id="184495090" visible="true" version="19" changeset="144882738" timestamp="2023-12-07T22:36:09Z" user="AmiFritz" uid="172867">
  <nd ref="1949915151"/>
  <nd ref="1949915155"/>
  <nd ref="1949915165"/>
  <nd ref="1949915177"/>
  <nd ref="1949915181"/>
  <nd ref="1949915183"/>
  <nd ref="1949915187"/>
  <nd ref="3499359334"/>
  <nd ref="2882629600"/>
  <nd ref="2882630502"/>
  <nd ref="2882630552"/>
  <nd ref="2882630566"/>
  <nd ref="2882630575"/>
  <nd ref="2882630584"/>
  <nd ref="1949915206"/>
  <nd ref="1949915212"/>
  <nd ref="2882630591"/>
  <nd ref="9533974082"/>
  <nd ref="9533974080"/>
  <nd ref="2478627253"/>
  <nd ref="11401871651"/>
  <nd ref="1949915227"/>
  <nd ref="1949915230"/>
  <nd ref="1949915232"/>
  <nd ref="1949915235"/>
  <nd ref="1949915241"/>
  <nd ref="1949915246"/>
  <nd ref="1949915250"/>
  <nd ref="1949915254"/>
  <nd ref="1949915259"/>
  <nd ref="1949915263"/>
  <nd ref="1949915268"/>
  <nd ref="9533974079"/>
  <nd ref="1949915271"/>
  <nd ref="1949915273"/>
  <nd ref="1949915277"/>
  <nd ref="1949927983"/>
  <nd ref="1949927984"/>
  <nd ref="1949927985"/>
  <nd ref="1949927986"/>
  <nd ref="1949927987"/>
  <nd ref="1949927988"/>
  <nd ref="1949927989"/>
  <nd ref="9533974078"/>
  <nd ref="9533974077"/>
  <nd ref="1949927990"/>
  <nd ref="1949927991"/>
  <nd ref="1949927992"/>
  <nd ref="1949927993"/>
  <nd ref="1949927994"/>
  <nd ref="1949927995"/>
  <nd ref="1949927996"/>
  <nd ref="1949927997"/>
  <nd ref="1949927998"/>
  <nd ref="1949927999"/>
  <nd ref="9533974076"/>
  <nd ref="1949928000"/>
  <nd ref="9533974075"/>
  <nd ref="1949928001"/>
  <nd ref="1949928002"/>
  <nd ref="1949928003"/>
  <nd ref="1949928004"/>
  <nd ref="1949928005"/>
  <nd ref="1949928006"/>
  <nd ref="1949928007"/>
  <nd ref="1949928008"/>
  <nd ref="1949928009"/>
  <nd ref="11401828487"/>
  <nd ref="1949928010"/>
  <nd ref="1949928011"/>
  <nd ref="1949928012"/>
  <nd ref="1949928013"/>
  <nd ref="1949928014"/>
  <nd ref="1949928015"/>
  <nd ref="1949928016"/>
  <nd ref="1949928017"/>
  <nd ref="1949928018"/>
  <nd ref="1949928019"/>
  <nd ref="1949928020"/>
  <nd ref="1949928021"/>
  <nd ref="1949928022"/>
  <nd ref="1949928023"/>
  <nd ref="1949928024"/>
  <nd ref="1949928025"/>
  <nd ref="1949928026"/>
  <nd ref="1949928027"/>
  <nd ref="1949928028"/>
  <nd ref="1949928029"/>
  <nd ref="1949928030"/>
  <nd ref="1949928031"/>
  <nd ref="1949928032"/>
  <nd ref="1949928033"/>
  <nd ref="1949928034"/>
  <nd ref="1949928035"/>
  <nd ref="1949928036"/>
  <nd ref="11401763513"/>
  <nd ref="1949928038"/>
  <nd ref="1949928043"/>
  <nd ref="1949928042"/>
  <nd ref="1949928041"/>
  <nd ref="1949928040"/>
  <nd ref="1949928039"/>
  <nd ref="1949928037"/>
  <nd ref="1949891794"/>
  <tag k="cables" v="3"/>
  <tag k="circuits" v="1"/>
  <tag k="frequency" v="50"/>
  <tag k="name" v="Liaison 63 kV n°1 Landres - Verdun"/>
  <tag k="operator" v="RTE"/>
  <tag k="operator:wikidata" v="Q2178795"/>
  <tag k="power" v="line"/>
  <tag k="ref:FR:RTE" v="LANDRL31VERDU"/>
  <tag k="voltage" v="63000"/>
 </way>
 <way id="224465265" visible="true" version="3" changeset="16435149" timestamp="2013-06-05T17:43:47Z" user="StephaneP" uid="439947">
  <nd ref="2332069422"/>
  <nd ref="2332902858"/>
  <nd ref="2332902804"/>
  <nd ref="2332902774"/>
  <nd ref="2332902754"/>
  <nd ref="2332902742"/>
  <nd ref="2332902730"/>
  <nd ref="2332902724"/>
  <nd ref="2332902740"/>
  <nd ref="2332902750"/>
  <nd ref="2332902756"/>
  <nd ref="2332902707"/>
  <nd ref="2332902631"/>
  <nd ref="2332902601"/>
  <nd ref="2332902539"/>
  <nd ref="2332902603"/>
  <nd ref="2332902479"/>
  <nd ref="2332902481"/>
  <nd ref="2332902475"/>
  <nd ref="2332902471"/>
  <nd ref="2332902468"/>
  <nd ref="2332902465"/>
  <nd ref="2332902463"/>
  <nd ref="2332902460"/>
  <nd ref="2332902458"/>
  <nd ref="2332902453"/>
  <nd ref="2332902449"/>
  <nd ref="2332902440"/>
  <nd ref="2332902436"/>
  <nd ref="2332902432"/>
  <nd ref="2332902428"/>
  <nd ref="2332902430"/>
  <nd ref="2332902426"/>
  <nd ref="2332902419"/>
  <nd ref="2332902411"/>
  <nd ref="2332902410"/>
  <nd ref="2332902406"/>
  <nd ref="2332902408"/>
  <nd ref="2332902413"/>
  <nd ref="2332902404"/>
  <nd ref="2332902402"/>
  <nd ref="2332902400"/>
  <nd ref="2332902396"/>
  <nd ref="2332902388"/>
  <nd ref="2332902385"/>
  <nd ref="2332902383"/>
  <tag k="boundary" v="administrative"/>
  <tag k="source" v="cadastre-dgi-fr source : Direction Générale des Impôts - Cadastre. Mise à jour : 2013"/>
 </way>
 <way id="224517694" visible="true" version="3" changeset="61425359" timestamp="2018-08-07T07:49:44Z" user="Jeece" uid="1455268">
  <nd ref="2332948119"/>
  <nd ref="2332902392"/>
  <nd ref="2332902381"/>
  <nd ref="2332902363"/>
  <nd ref="2332902351"/>
  <nd ref="2332902379"/>
  <nd ref="2332902361"/>
  <nd ref="2332902355"/>
  <nd ref="2332902347"/>
  <nd ref="2332902345"/>
  <nd ref="2332902337"/>
  <nd ref="2332902327"/>
  <nd ref="2332902311"/>
  <nd ref="2332902302"/>
  <nd ref="2332902294"/>
  <nd ref="2332902295"/>
  <nd ref="5814217530"/>
  <nd ref="2332902299"/>
  <nd ref="2332902319"/>
  <nd ref="2332902323"/>
  <nd ref="2332902333"/>
  <nd ref="2332902343"/>
  <nd ref="2332902349"/>
  <nd ref="2332902353"/>
  <nd ref="2332902359"/>
  <nd ref="2332902365"/>
  <nd ref="2332902369"/>
  <nd ref="2332902375"/>
  <nd ref="2332902377"/>
  <nd ref="2332902373"/>
  <nd ref="2332902371"/>
  <nd ref="2332902367"/>
  <nd ref="2332902394"/>
  <nd ref="2332902398"/>
  <nd ref="2332902387"/>
  <nd ref="2332902383"/>
  <tag k="boundary" v="administrative"/>
  <tag k="source" v="cadastre-dgi-fr source : Direction Générale des Impôts - Cadastre. Mise à jour : 2013"/>
 </way>
 <way id="224616643" visible="true" version="3" changeset="60789616" timestamp="2018-07-17T08:42:01Z" user="Jeece" uid="1455268">
  <nd ref="2332902383"/>
  <nd ref="2333375314"/>
  <nd ref="2333375315"/>
  <nd ref="2333375312"/>
  <nd ref="2333375313"/>
  <nd ref="2333375311"/>
  <nd ref="2333375310"/>
  <nd ref="2333375309"/>
  <nd ref="5765405089"/>
  <nd ref="2333375308"/>
  <nd ref="2333375305"/>
  <nd ref="2333375304"/>
  <nd ref="2333375307"/>
  <nd ref="2333375303"/>
  <nd ref="2333375302"/>
  <nd ref="2333375301"/>
  <nd ref="2333375299"/>
  <tag k="boundary" v="administrative"/>
  <tag k="source" v="cadastre-dgi-fr source : Direction Générale des Impôts - Cadastre. Mise à jour : 2013"/>
 </way>
 <way id="354899419" visible="true" version="6" changeset="125199848" timestamp="2022-08-21T21:16:19Z" user="user_5589" uid="5589">
  <nd ref="3605488696"/>
  <nd ref="3605488695"/>
  <nd ref="3605488694"/>
  <nd ref="3605488693"/>
  <nd ref="3605486992"/>
  <nd ref="3605486991"/>
  <nd ref="3605486990"/>
  <nd ref="3605486989"/>
  <nd ref="3605486987"/>
  <nd ref="3605486988"/>
  <nd ref="3605486986"/>
  <nd ref="3605457225"/>
  <tag k="cables" v="3"/>
  <tag k="description" v="alimentation du village de Gourainourt"/>
  <tag k="operator" v="Enedis"/>
  <tag k="operator:wikidata" v="Q3587594"/>
  <tag k="power" v="minor_line"/>
  <tag k="voltage" v="20000"/>
 </way>
 <way id="354907583" visible="true" version="6" changeset="125199848" timestamp="2022-08-21T21:16:19Z" user="user_5589" uid="5589">
  <nd ref="3605486991"/>
  <nd ref="3605559809"/>
  <nd ref="3605559808"/>
  <nd ref="3605559807"/>
  <nd ref="3605559806"/>
  <nd ref="3605559805"/>
  <nd ref="3605559799"/>
  <nd ref="3605559800"/>
  <nd ref="3605559801"/>
  <nd ref="3605559804"/>
  <nd ref="3605559802"/>
  <nd ref="3605559803"/>
  <tag k="cables" v="3"/>
  <tag k="description" v="alimentation du village de Senon et du hameau du Ratentout"/>
  <tag k="operator" v="Enedis"/>
  <tag k="operator:wikidata" v="Q3587594"/>
  <tag k="power" v="minor_line"/>
  <tag k="voltage" v="20000"/>
 </way>
 <way id="354910232" visible="true" version="4" changeset="125199848" timestamp="2022-08-21T21:16:19Z" user="user_5589" uid="5589">
  <nd ref="3605559807"/>
  <nd ref="3605580137"/>
  <nd ref="3605580136"/>
  <tag k="cables" v="3"/>
  <tag k="operator" v="Enedis"/>
  <tag k="operator:wikidata" v="Q3587594"/>
  <tag k="power" v="minor_line"/>
  <tag k="voltage" v="20000"/>
 </way>
 <way id="586083955" visible="true" version="1" changeset="58733499" timestamp="2018-05-06T15:58:02Z" user="gendy54" uid="713836">
  <nd ref="5600404568"/>
  <nd ref="5600404567"/>
  <nd ref="5600404566"/>
  <nd ref="5600404565"/>
  <nd ref="5600404564"/>
  <nd ref="5600404563"/>
  <nd ref="5600404562"/>
  <nd ref="5600404561"/>
  <nd ref="5600404560"/>
  <nd ref="5600404559"/>
  <nd ref="5600404558"/>
  <nd ref="5600404557"/>
  <nd ref="5600404556"/>
  <nd ref="5600404555"/>
  <nd ref="5600404554"/>
  <nd ref="5600404553"/>
  <nd ref="5600404552"/>
  <nd ref="5600404551"/>
  <nd ref="5600404550"/>
  <nd ref="5600404549"/>
  <nd ref="5600404548"/>
  <nd ref="5600404547"/>
  <nd ref="5600404546"/>
  <nd ref="5600404545"/>
  <nd ref="5600404544"/>
  <nd ref="5600404543"/>
  <nd ref="5600404542"/>
  <nd ref="5600404541"/>
  <nd ref="5600404540"/>
  <nd ref="5600404539"/>
  <nd ref="5600404538"/>
  <nd ref="5600404537"/>
  <nd ref="5600404536"/>
  <tag k="highway" v="track"/>
  <tag k="source" v="BDOrtho IGN"/>
 </way>
 <way id="608567868" visible="true" version="1" changeset="60789616" timestamp="2018-07-17T08:41:58Z" user="Jeece" uid="1455268">
  <nd ref="5765405078"/>
  <nd ref="5765405079"/>
  <nd ref="5765405080"/>
  <nd ref="5765405081"/>
  <nd ref="5765405082"/>
  <nd ref="5765405083"/>
  <nd ref="5765405084"/>
  <nd ref="5765405085"/>
  <nd ref="5765405086"/>
  <nd ref="5765405087"/>
  <nd ref="5765405088"/>
  <nd ref="2333375307"/>
  <nd ref="2333375304"/>
  <nd ref="2333375305"/>
  <nd ref="5765405089"/>
  <nd ref="2333375309"/>
  <nd ref="5765405090"/>
  <tag k="highway" v="track"/>
 </way>
 <way id="614703827" visible="true" version="3" changeset="129613700" timestamp="2022-12-01T17:47:34Z" user="Denis_Helfer" uid="22165">
  <nd ref="5814217459"/>
  <nd ref="5814217460"/>
  <nd ref="5814217461"/>
  <nd ref="5863500073"/>
  <nd ref="5814217462"/>
  <nd ref="5814217463"/>
  <nd ref="5814217464"/>
  <nd ref="5814217465"/>
  <nd ref="5814217466"/>
  <nd ref="5814217467"/>
  <nd ref="5814217468"/>
  <nd ref="5814217469"/>
  <nd ref="5814217470"/>
  <nd ref="5814217471"/>
  <nd ref="5814217472"/>
  <nd ref="5814217473"/>
  <nd ref="5814217474"/>
  <nd ref="5814217519"/>
  <nd ref="5814217475"/>
  <nd ref="5814217476"/>
  <nd ref="5814217477"/>
  <nd ref="5814217478"/>
  <nd ref="5814217479"/>
  <nd ref="5814217480"/>
  <nd ref="5814217481"/>
  <nd ref="5814217510"/>
  <nd ref="5814217482"/>
  <nd ref="5814217483"/>
  <nd ref="5814217484"/>
  <nd ref="5814217485"/>
  <nd ref="5814217486"/>
  <nd ref="5814217487"/>
  <nd ref="5814217488"/>
  <nd ref="5814217489"/>
  <nd ref="5814217490"/>
  <nd ref="5814217458"/>
  <nd ref="5814217491"/>
  <nd ref="5814217492"/>
  <nd ref="10231372591"/>
  <nd ref="5814217493"/>
  <tag k="name" v="La tranchette"/>
  <tag k="waterway" v="stream"/>
 </way>
 <way id="620629980" visible="true" version="1" changeset="62072476" timestamp="2018-08-28T13:47:47Z" user="Jeece" uid="1455268">
  <nd ref="5600404550"/>
  <nd ref="5863500061"/>
  <nd ref="5863500062"/>
  <nd ref="5863500063"/>
  <nd ref="5863500064"/>
  <nd ref="5863500065"/>
  <tag k="highway" v="track"/>
 </way>
 <way id="620629981" visible="true" version="1" changeset="62072476" timestamp="2018-08-28T13:47:47Z" user="Jeece" uid="1455268">
  <nd ref="5863500066"/>
  <nd ref="5863500067"/>
  <nd ref="5863500068"/>
  <nd ref="5863500069"/>
  <nd ref="5863500066"/>
  <tag k="building" v="yes"/>
 </way>
 <way id="620629983" visible="true" version="1" changeset="62072476" timestamp="2018-08-28T13:47:47Z" user="Jeece" uid="1455268">
  <nd ref="5863500070"/>
  <nd ref="5863500071"/>
  <nd ref="5863500072"/>
  <nd ref="5863500073"/>
  <tag k="waterway" v="stream"/>
 </way>
 <relation id="502512" visible="true" version="3" changeset="45348554" timestamp="2017-01-21T13:55:51Z" user="PanierAvide" uid="214436">
  <member type="node" ref="670174736" role=""/>
  <tag k="name" v="Senon A"/>
  <tag k="network" v="NTF-5"/>
  <tag k="note" v="le Ratentout"/>
  <tag k="ref" v="55481A"/>
  <tag k="site" v="geodesic"/>
  <tag k="source" v="©IGN 2010 dans le cadre de la cartographie réglementaire"/>
  <tag k="type" v="site"/>
  <tag k="url" v="http://geodesie.ign.fr/fiches/index.php?module=e&amp;action=fichepdf&amp;source=carte&amp;sit_no=55481A"/>
 </relation>
 <relation id="2982298" visible="true" version="10" changeset="143131844" timestamp="2023-10-25T19:32:55Z" user="chabe01" uid="502891">
  <member type="node" ref="1708015791" role="admin_centre"/>
  <member type="way" ref="224465265" role="outer"/>
  <member type="way" ref="224517694" role="outer"/>
  <member type="way" ref="224470009" role="outer"/>
  <member type="way" ref="224470008" role="outer"/>
  <member type="way" ref="224391844" role="outer"/>
  <member type="way" ref="1218362489" role="outer"/>
  <member type="way" ref="224465264" role="outer"/>
  <tag k="admin_level" v="8"/>
  <tag k="boundary" v="administrative"/>
  <tag k="name" v="Gouraincourt"/>
  <tag k="population" v="63"/>
  <tag k="population:date" v="2019"/>
  <tag k="postal_code" v="55230"/>
  <tag k="ref:INSEE" v="55216"/>
  <tag k="source:population" v="INSEE 2022"/>
  <tag k="source:postal_code" v="La Poste - 12/2014"/>
  <tag k="type" v="boundary"/>
  <tag k="wikidata" v="Q59231"/>
  <tag k="wikipedia" v="fr:Gouraincourt"/>
 </relation>
 <relation id="2982931" visible="true" version="11" changeset="116040541" timestamp="2022-01-11T20:56:51Z" user="cquest_bot" uid="541379">
  <member type="node" ref="1708016063" role="admin_centre"/>
  <member type="way" ref="224487042" role="outer"/>
  <member type="way" ref="224487040" role="outer"/>
  <member type="way" ref="224517692" role="outer"/>
  <member type="way" ref="224534653" role="outer"/>
  <member type="way" ref="224616643" role="outer"/>
  <member type="way" ref="224517694" role="outer"/>
  <tag k="admin_level" v="8"/>
  <tag k="boundary" v="administrative"/>
  <tag k="name" v="Éton"/>
  <tag k="population" v="208"/>
  <tag k="population:date" v="2019"/>
  <tag k="postal_code" v="55240"/>
  <tag k="ref:INSEE" v="55182"/>
  <tag k="source:population" v="INSEE 2022"/>
  <tag k="source:postal_code" v="La Poste - 12/2014"/>
  <tag k="type" v="boundary"/>
  <tag k="wikidata" v="Q1453322"/>
  <tag k="wikipedia" v="fr:Éton (Meuse)"/>
 </relation>
 <relation id="2983869" visible="true" version="9" changeset="143131844" timestamp="2023-10-25T19:32:55Z" user="chabe01" uid="502891">
  <member type="node" ref="266535415" role="admin_centre"/>
  <member type="way" ref="224613558" role="outer"/>
  <member type="way" ref="1218362486" role="outer"/>
  <member type="way" ref="224615687" role="outer"/>
  <member type="way" ref="224615688" role="outer"/>
  <member type="way" ref="224616643" role="outer"/>
  <member type="way" ref="224465265" role="outer"/>
  <member type="way" ref="224391848" role="outer"/>
  <member type="way" ref="224391846" role="outer"/>
  <tag k="admin_level" v="8"/>
  <tag k="boundary" v="administrative"/>
  <tag k="name" v="Senon"/>
  <tag k="population" v="336"/>
  <tag k="population:date" v="2019"/>
  <tag k="postal_code" v="55230"/>
  <tag k="ref:INSEE" v="55481"/>
  <tag k="source:population" v="INSEE 2022"/>
  <tag k="source:postal_code" v="La Poste - 12/2014"/>
  <tag k="type" v="boundary"/>
  <tag k="wikidata" v="Q59325"/>
  <tag k="wikipedia" v="fr:Senon"/>
 </relation>
 <relation id="3372872" visible="true" version="4" changeset="71954398" timestamp="2019-07-06T08:54:58Z" user="JFK73" uid="662440">
  <member type="way" ref="251320643" role="outer"/>
  <member type="way" ref="66094185" role="inner"/>
  <member type="way" ref="67361515" role="inner"/>
  <member type="way" ref="42007319" role="inner"/>
  <member type="way" ref="67361444" role="inner"/>
  <member type="way" ref="41906019" role="inner"/>
  <member type="way" ref="67361517" role="inner"/>
  <member type="way" ref="702048287" role="inner"/>
  <member type="way" ref="702048286" role="inner"/>
  <member type="way" ref="702048283" role="inner"/>
  <tag k="landuse" v="farmland"/>
  <tag k="source" v="Union européenne - SOeS, CORINE Land Cover, 2006."/>
  <tag k="type" v="multipolygon"/>
 </relation>
 <relation id="10568803" visible="true" version="2" changeset="143131844" timestamp="2023-10-25T19:32:55Z" user="chabe01" uid="502891">
  <member type="way" ref="59620969" role="outer"/>
  <member type="way" ref="59620972" role="outer"/>
  <member type="way" ref="224262828" role="outer"/>
  <member type="way" ref="224262829" role="outer"/>
  <member type="way" ref="224265450" role="outer"/>
  <member type="way" ref="355768121" role="outer"/>
  <member type="way" ref="355540279" role="outer"/>
  <member type="way" ref="224262833" role="outer"/>
  <member type="way" ref="59623830" role="outer"/>
  <member type="way" ref="59704705" role="outer"/>
  <member type="way" ref="223925936" role="outer"/>
  <member type="way" ref="224463088" role="outer"/>
  <member type="way" ref="224613559" role="outer"/>
  <member type="way" ref="224613558" role="outer"/>
  <member type="way" ref="1218362486" role="outer"/>
  <member type="way" ref="224615687" role="outer"/>
  <member type="way" ref="224615689" role="outer"/>
  <member type="way" ref="1218362487" role="outer"/>
  <member type="way" ref="223732853" role="outer"/>
  <member type="way" ref="224534654" role="outer"/>
  <member type="way" ref="224534653" role="outer"/>
  <member type="way" ref="224616643" role="outer"/>
  <member type="way" ref="224517694" role="outer"/>
  <member type="way" ref="224470009" role="outer"/>
  <member type="way" ref="224470010" role="outer"/>
  <member type="way" ref="224487044" role="outer"/>
  <member type="way" ref="224487041" role="outer"/>
  <member type="way" ref="153021288" role="outer"/>
  <member type="way" ref="1218362488" role="outer"/>
  <member type="way" ref="158085193" role="outer"/>
  <member type="way" ref="158085194" role="outer"/>
  <member type="way" ref="1218362491" role="outer"/>
  <member type="way" ref="97096172" role="outer"/>
  <member type="way" ref="59712075" role="outer"/>
  <member type="way" ref="35338177" role="outer"/>
  <member type="way" ref="59620971" role="outer"/>
  <member type="way" ref="33157158" role="outer"/>
  <member type="way" ref="108190143" role="outer"/>
  <tag k="boundary" v="postal_code"/>
  <tag k="postal_code" v="55230"/>
  <tag k="type" v="boundary"/>
 </relation>
 <relation id="10568804" visible="true" version="1" changeset="79435601" timestamp="2020-01-10T21:13:43Z" user="chabe01" uid="502891">
  <member type="way" ref="224485049" role="outer"/>
  <member type="way" ref="224355088" role="outer"/>
  <member type="way" ref="224487041" role="outer"/>
  <member type="way" ref="224487044" role="outer"/>
  <member type="way" ref="224470010" role="outer"/>
  <member type="way" ref="224470009" role="outer"/>
  <member type="way" ref="224517694" role="outer"/>
  <member type="way" ref="224616643" role="outer"/>
  <member type="way" ref="224534653" role="outer"/>
  <member type="way" ref="224517692" role="outer"/>
  <member type="way" ref="224517693" role="outer"/>
  <member type="way" ref="224485050" role="outer"/>
  <member type="way" ref="96712788" role="outer"/>
  <member type="way" ref="148254081" role="outer"/>
  <member type="way" ref="150831995" role="outer"/>
  <member type="way" ref="153022403" role="outer"/>
  <tag k="boundary" v="postal_code"/>
  <tag k="postal_code" v="55240"/>
  <tag k="type" v="boundary"/>
 </relation>
</osm>
