<?xml version="1.0" encoding="UTF-8"?>
<osm version="0.6" generator="CGImap 0.8.10 (1290584 spike-07.openstreetmap.org)" copyright="OpenStreetMap and contributors" attribution="http://www.openstreetmap.org/copyright" license="http://opendatacommons.org/licenses/odbl/1-0/">
 <bounds minlat="49.2749729" minlon="5.6579590" maxlat="49.2821402" maxlon="5.6689453"/>
 <node id="162231426" visible="true" version="9" changeset="14483849" timestamp="2013-01-01T06:01:31Z" user="la colle" uid="530603" lat="49.2715325" lon="5.6613459"/>
 <node id="1949891622" visible="true" version="5" changeset="127630922" timestamp="2022-10-16T18:14:42Z" user="user_5589" uid="5589" lat="49.2315232" lon="5.5662234">
  <tag k="height" v="28"/>
  <tag k="operator" v="RTE"/>
  <tag k="operator:wikidata" v="Q2178795"/>
  <tag k="power" v="tower"/>
  <tag k="ref" v="27"/>
  <tag k="source" v="data.gouv.fr:RTE - 2022-07"/>
 </node>
 <node id="1949891623" visible="true" version="5" changeset="127630922" timestamp="2022-10-16T18:14:42Z" user="user_5589" uid="5589" lat="49.2331465" lon="5.5683135">
  <tag k="height" v="27"/>
  <tag k="operator" v="RTE"/>
  <tag k="operator:wikidata" v="Q2178795"/>
  <tag k="power" v="tower"/>
  <tag k="ref" v="28"/>
  <tag k="source" v="data.gouv.fr:RTE - 2022-07"/>
 </node>
 <node id="1949891624" visible="true" version="5" changeset="127630922" timestamp="2022-10-16T18:14:42Z" user="user_5589" uid="5589" lat="49.2351280" lon="5.5726047">
  <tag k="height" v="31"/>
  <tag k="operator" v="RTE"/>
  <tag k="operator:wikidata" v="Q2178795"/>
  <tag k="power" v="tower"/>
  <tag k="ref" v="29"/>
  <tag k="source" v="data.gouv.fr:RTE - 2022-07"/>
 </node>
 <node id="1949891625" visible="true" version="5" changeset="127630922" timestamp="2022-10-16T18:14:42Z" user="user_5589" uid="5589" lat="49.2372298" lon="5.5771575">
  <tag k="height" v="27"/>
  <tag k="operator" v="RTE"/>
  <tag k="operator:wikidata" v="Q2178795"/>
  <tag k="power" v="tower"/>
  <tag k="ref" v="30"/>
  <tag k="source" v="data.gouv.fr:RTE - 2022-07"/>
 </node>
 <node id="1949891626" visible="true" version="5" changeset="127630922" timestamp="2022-10-16T18:14:42Z" user="user_5589" uid="5589" lat="49.2391778" lon="5.5813743">
  <tag k="height" v="27"/>
  <tag k="operator" v="RTE"/>
  <tag k="operator:wikidata" v="Q2178795"/>
  <tag k="power" v="tower"/>
  <tag k="ref" v="31"/>
  <tag k="source" v="data.gouv.fr:RTE - 2022-07"/>
 </node>
 <node id="1949891627" visible="true" version="5" changeset="127630922" timestamp="2022-10-16T18:14:42Z" user="user_5589" uid="5589" lat="49.2410470" lon="5.5854319">
  <tag k="height" v="27"/>
  <tag k="operator" v="RTE"/>
  <tag k="operator:wikidata" v="Q2178795"/>
  <tag k="power" v="tower"/>
  <tag k="ref" v="32"/>
  <tag k="source" v="data.gouv.fr:RTE - 2022-07"/>
 </node>
 <node id="1949891628" visible="true" version="5" changeset="127630922" timestamp="2022-10-16T18:14:42Z" user="user_5589" uid="5589" lat="49.2428868" lon="5.5894311">
  <tag k="height" v="24"/>
  <tag k="operator" v="RTE"/>
  <tag k="operator:wikidata" v="Q2178795"/>
  <tag k="power" v="tower"/>
  <tag k="ref" v="33"/>
  <tag k="source" v="data.gouv.fr:RTE - 2022-07"/>
 </node>
 <node id="1949891629" visible="true" version="2" changeset="13390897" timestamp="2012-10-06T21:14:20Z" user="FahRadler" uid="344561" lat="49.2447796" lon="5.5935323">
  <tag k="power" v="tower"/>
 </node>
 <node id="1949891630" visible="true" version="5" changeset="127630922" timestamp="2022-10-16T18:14:42Z" user="user_5589" uid="5589" lat="49.2467685" lon="5.5977968">
  <tag k="height" v="27"/>
  <tag k="operator" v="RTE"/>
  <tag k="operator:wikidata" v="Q2178795"/>
  <tag k="power" v="tower"/>
  <tag k="ref" v="35"/>
  <tag k="source" v="data.gouv.fr:RTE - 2022-07"/>
 </node>
 <node id="1949891631" visible="true" version="5" changeset="127630922" timestamp="2022-10-16T18:14:42Z" user="user_5589" uid="5589" lat="49.2487774" lon="5.6021503">
  <tag k="height" v="29"/>
  <tag k="operator" v="RTE"/>
  <tag k="operator:wikidata" v="Q2178795"/>
  <tag k="power" v="tower"/>
  <tag k="ref" v="36"/>
  <tag k="source" v="data.gouv.fr:RTE - 2022-07"/>
 </node>
 <node id="1949891632" visible="true" version="2" changeset="13390897" timestamp="2012-10-06T21:14:20Z" user="FahRadler" uid="344561" lat="49.2504483" lon="5.6058488">
  <tag k="power" v="tower"/>
 </node>
 <node id="1949891634" visible="true" version="2" changeset="13390897" timestamp="2012-10-06T21:14:20Z" user="FahRadler" uid="344561" lat="49.2524015" lon="5.6101099">
  <tag k="power" v="tower"/>
 </node>
 <node id="1949891636" visible="true" version="2" changeset="13390897" timestamp="2012-10-06T21:14:20Z" user="FahRadler" uid="344561" lat="49.2544289" lon="5.6145265">
  <tag k="power" v="tower"/>
 </node>
 <node id="1949891639" visible="true" version="2" changeset="13390897" timestamp="2012-10-06T21:14:20Z" user="FahRadler" uid="344561" lat="49.2565108" lon="5.6190510">
  <tag k="power" v="tower"/>
 </node>
 <node id="1949891651" visible="true" version="2" changeset="13390897" timestamp="2012-10-06T21:14:20Z" user="FahRadler" uid="344561" lat="49.2584052" lon="5.6231265">
  <tag k="power" v="tower"/>
 </node>
 <node id="1949891653" visible="true" version="2" changeset="13390897" timestamp="2012-10-06T21:14:20Z" user="FahRadler" uid="344561" lat="49.2600457" lon="5.6266335">
  <tag k="power" v="tower"/>
 </node>
 <node id="1949891656" visible="true" version="2" changeset="13390897" timestamp="2012-10-06T21:14:20Z" user="FahRadler" uid="344561" lat="49.2621782" lon="5.6312657">
  <tag k="power" v="tower"/>
 </node>
 <node id="1949891658" visible="true" version="2" changeset="13390897" timestamp="2012-10-06T21:14:20Z" user="FahRadler" uid="344561" lat="49.2640645" lon="5.6353652">
  <tag k="power" v="tower"/>
 </node>
 <node id="1949891661" visible="true" version="2" changeset="13390897" timestamp="2012-10-06T21:14:20Z" user="FahRadler" uid="344561" lat="49.2659821" lon="5.6395126">
  <tag k="power" v="tower"/>
 </node>
 <node id="1949891663" visible="true" version="2" changeset="13390897" timestamp="2012-10-06T21:14:20Z" user="FahRadler" uid="344561" lat="49.2676769" lon="5.6431991">
  <tag k="power" v="tower"/>
 </node>
 <node id="1949891665" visible="true" version="2" changeset="13390897" timestamp="2012-10-06T21:14:20Z" user="FahRadler" uid="344561" lat="49.2680518" lon="5.6454613">
  <tag k="power" v="tower"/>
 </node>
 <node id="1949891666" visible="true" version="2" changeset="13390897" timestamp="2012-10-06T21:14:20Z" user="FahRadler" uid="344561" lat="49.2692312" lon="5.6481484">
  <tag k="power" v="tower"/>
 </node>
 <node id="1949891667" visible="true" version="2" changeset="13390897" timestamp="2012-10-06T21:14:20Z" user="FahRadler" uid="344561" lat="49.2710118" lon="5.6512844">
  <tag k="power" v="tower"/>
 </node>
 <node id="1949891668" visible="true" version="2" changeset="13390897" timestamp="2012-10-06T21:14:20Z" user="FahRadler" uid="344561" lat="49.2727300" lon="5.6543246">
  <tag k="power" v="tower"/>
 </node>
 <node id="1949891669" visible="true" version="2" changeset="13390897" timestamp="2012-10-06T21:14:20Z" user="FahRadler" uid="344561" lat="49.2756233" lon="5.6583942">
  <tag k="power" v="tower"/>
 </node>
 <node id="1949891671" visible="true" version="2" changeset="13390897" timestamp="2012-10-06T21:14:21Z" user="FahRadler" uid="344561" lat="49.2781690" lon="5.6619970">
  <tag k="power" v="tower"/>
 </node>
 <node id="1949891672" visible="true" version="2" changeset="13390897" timestamp="2012-10-06T21:14:21Z" user="FahRadler" uid="344561" lat="49.2807028" lon="5.6655279">
  <tag k="power" v="tower"/>
 </node>
 <node id="1949891673" visible="true" version="2" changeset="13390897" timestamp="2012-10-06T21:14:21Z" user="FahRadler" uid="344561" lat="49.2835176" lon="5.6694898">
  <tag k="power" v="tower"/>
 </node>
 <node id="1949891674" visible="true" version="2" changeset="13390897" timestamp="2012-10-06T21:14:21Z" user="FahRadler" uid="344561" lat="49.2859224" lon="5.6728592">
  <tag k="power" v="tower"/>
 </node>
 <node id="1949891675" visible="true" version="2" changeset="13390897" timestamp="2012-10-06T21:14:21Z" user="FahRadler" uid="344561" lat="49.2891506" lon="5.6774015">
  <tag k="power" v="tower"/>
 </node>
 <node id="1949891676" visible="true" version="2" changeset="13390897" timestamp="2012-10-06T21:14:21Z" user="FahRadler" uid="344561" lat="49.2920977" lon="5.6815429">
  <tag k="power" v="tower"/>
 </node>
 <node id="1949891677" visible="true" version="2" changeset="13390897" timestamp="2012-10-06T21:14:21Z" user="FahRadler" uid="344561" lat="49.2950367" lon="5.6856843">
  <tag k="power" v="tower"/>
 </node>
 <node id="1949891680" visible="true" version="2" changeset="13390897" timestamp="2012-10-06T21:14:21Z" user="FahRadler" uid="344561" lat="49.2978702" lon="5.6896761">
  <tag k="power" v="tower"/>
 </node>
 <node id="1949891693" visible="true" version="2" changeset="13390897" timestamp="2012-10-06T21:14:21Z" user="FahRadler" uid="344561" lat="49.3007386" lon="5.6936918">
  <tag k="power" v="tower"/>
 </node>
 <node id="1949891696" visible="true" version="2" changeset="13390897" timestamp="2012-10-06T21:14:21Z" user="FahRadler" uid="344561" lat="49.3021943" lon="5.6957087">
  <tag k="power" v="tower"/>
 </node>
 <node id="1949891698" visible="true" version="2" changeset="13390897" timestamp="2012-10-06T21:14:21Z" user="FahRadler" uid="344561" lat="49.3030333" lon="5.6993773">
  <tag k="power" v="tower"/>
 </node>
 <node id="1949891701" visible="true" version="2" changeset="13390897" timestamp="2012-10-06T21:14:21Z" user="FahRadler" uid="344561" lat="49.3040284" lon="5.7035725">
  <tag k="power" v="tower"/>
 </node>
 <node id="1949891703" visible="true" version="2" changeset="13390897" timestamp="2012-10-06T21:14:21Z" user="FahRadler" uid="344561" lat="49.3053044" lon="5.7091084">
  <tag k="power" v="tower"/>
 </node>
 <node id="1949891708" visible="true" version="2" changeset="13390897" timestamp="2012-10-06T21:14:21Z" user="FahRadler" uid="344561" lat="49.3066116" lon="5.7147459">
  <tag k="power" v="tower"/>
 </node>
 <node id="1949891740" visible="true" version="2" changeset="13390897" timestamp="2012-10-06T21:14:21Z" user="FahRadler" uid="344561" lat="49.3078056" lon="5.7199346">
  <tag k="power" v="tower"/>
 </node>
 <node id="1949891756" visible="true" version="2" changeset="13390897" timestamp="2012-10-06T21:14:22Z" user="FahRadler" uid="344561" lat="49.3088591" lon="5.7244710">
  <tag k="power" v="tower"/>
 </node>
 <node id="1949891776" visible="true" version="2" changeset="13390897" timestamp="2012-10-06T21:14:22Z" user="FahRadler" uid="344561" lat="49.3099283" lon="5.7290792">
  <tag k="power" v="tower"/>
 </node>
 <node id="1949891786" visible="true" version="2" changeset="13390897" timestamp="2012-10-06T21:14:22Z" user="FahRadler" uid="344561" lat="49.3108452" lon="5.7330411">
  <tag k="power" v="tower"/>
 </node>
 <node id="1949891793" visible="true" version="2" changeset="13390897" timestamp="2012-10-06T21:14:22Z" user="FahRadler" uid="344561" lat="49.3116528" lon="5.7364882">
  <tag k="power" v="tower"/>
 </node>
 <node id="1949891794" visible="true" version="1" changeset="13390703" timestamp="2012-10-06T20:56:21Z" user="FahRadler" uid="344561" lat="49.3123263" lon="5.7672788">
  <tag k="power" v="tower"/>
 </node>
 <node id="1949891807" visible="true" version="2" changeset="13390897" timestamp="2012-10-06T21:14:22Z" user="FahRadler" uid="344561" lat="49.3128068" lon="5.7415258">
  <tag k="power" v="tower"/>
 </node>
 <node id="1949891809" visible="true" version="2" changeset="13390897" timestamp="2012-10-06T21:14:22Z" user="FahRadler" uid="344561" lat="49.3129466" lon="5.7633469">
  <tag k="power" v="tower"/>
 </node>
 <node id="1949891813" visible="true" version="2" changeset="13390897" timestamp="2012-10-06T21:14:22Z" user="FahRadler" uid="344561" lat="49.3132815" lon="5.7582687">
  <tag k="power" v="tower"/>
 </node>
 <node id="1949891816" visible="true" version="2" changeset="13390897" timestamp="2012-10-06T21:14:22Z" user="FahRadler" uid="344561" lat="49.3135875" lon="5.7534271">
  <tag k="power" v="tower"/>
 </node>
 <node id="1949891818" visible="true" version="2" changeset="13390897" timestamp="2012-10-06T21:14:22Z" user="FahRadler" uid="344561" lat="49.3140128" lon="5.7467362">
  <tag k="power" v="tower"/>
 </node>
 <node id="1949915151" visible="true" version="6" changeset="144882738" timestamp="2023-12-07T22:36:09Z" user="AmiFritz" uid="172867" lat="49.1528325" lon="5.4126280">
  <tag k="height" v="29"/>
  <tag k="line_attachment" v="anchor"/>
  <tag k="line_management" v="transition"/>
  <tag k="location:transition" v="yes"/>
  <tag k="operator" v="RTE"/>
  <tag k="power" v="tower"/>
  <tag k="ref" v="107 AÃ‰RO"/>
 </node>
 <node id="1949915155" visible="true" version="3" changeset="144882641" timestamp="2023-12-07T22:30:17Z" user="AmiFritz" uid="172867" lat="49.1540158" lon="5.4161310">
  <tag k="height" v="23"/>
  <tag k="operator" v="RTE"/>
  <tag k="power" v="tower"/>
  <tag k="ref" v="106"/>
 </node>
 <node id="1949915165" visible="true" version="3" changeset="144882641" timestamp="2023-12-07T22:30:17Z" user="AmiFritz" uid="172867" lat="49.1553997" lon="5.4202274">
  <tag k="height" v="26"/>
  <tag k="operator" v="RTE"/>
  <tag k="power" v="tower"/>
  <tag k="ref" v="105"/>
 </node>
 <node id="1949915177" visible="true" version="3" changeset="144882641" timestamp="2023-12-07T22:30:17Z" user="AmiFritz" uid="172867" lat="49.1568245" lon="5.4244302">
  <tag k="height" v="26"/>
  <tag k="operator" v="RTE"/>
  <tag k="power" v="tower"/>
  <tag k="ref" v="104"/>
 </node>
 <node id="1949915181" visible="true" version="3" changeset="144882641" timestamp="2023-12-07T22:30:17Z" user="AmiFritz" uid="172867" lat="49.1581705" lon="5.4283995">
  <tag k="height" v="26"/>
  <tag k="operator" v="RTE"/>
  <tag k="power" v="tower"/>
  <tag k="ref" v="103"/>
 </node>
 <node id="1949915183" visible="true" version="3" changeset="144882641" timestamp="2023-12-07T22:30:17Z" user="AmiFritz" uid="172867" lat="49.1596088" lon="5.4326580">
  <tag k="height" v="26"/>
  <tag k="operator" v="RTE"/>
  <tag k="power" v="tower"/>
  <tag k="ref" v="102"/>
 </node>
 <node id="1949915187" visible="true" version="3" changeset="144882641" timestamp="2023-12-07T22:30:17Z" user="AmiFritz" uid="172867" lat="49.1608730" lon="5.4363740">
  <tag k="height" v="26"/>
  <tag k="operator" v="RTE"/>
  <tag k="power" v="tower"/>
  <tag k="ref" v="101"/>
 </node>
 <node id="1949915206" visible="true" version="3" changeset="144882641" timestamp="2023-12-07T22:30:17Z" user="AmiFritz" uid="172867" lat="49.1760192" lon="5.4631719">
  <tag k="height" v="23"/>
  <tag k="operator" v="RTE"/>
  <tag k="power" v="tower"/>
  <tag k="ref" v="93"/>
 </node>
 <node id="1949915212" visible="true" version="3" changeset="144882641" timestamp="2023-12-07T22:30:17Z" user="AmiFritz" uid="172867" lat="49.1778785" lon="5.4666589">
  <tag k="height" v="26"/>
  <tag k="operator" v="RTE"/>
  <tag k="power" v="tower"/>
  <tag k="ref" v="92"/>
 </node>
 <node id="1949915227" visible="true" version="3" changeset="144882641" timestamp="2023-12-07T22:30:17Z" user="AmiFritz" uid="172867" lat="49.1883305" lon="5.4839405">
  <tag k="height" v="26"/>
  <tag k="operator" v="RTE"/>
  <tag k="power" v="tower"/>
  <tag k="ref" v="86"/>
 </node>
 <node id="1949915230" visible="true" version="3" changeset="144882641" timestamp="2023-12-07T22:30:17Z" user="AmiFritz" uid="172867" lat="49.1905906" lon="5.4871188">
  <tag k="height" v="30"/>
  <tag k="operator" v="RTE"/>
  <tag k="power" v="tower"/>
  <tag k="ref" v="85"/>
 </node>
 <node id="1949915232" visible="true" version="3" changeset="144882641" timestamp="2023-12-07T22:30:17Z" user="AmiFritz" uid="172867" lat="49.1929053" lon="5.4902802">
  <tag k="height" v="26"/>
  <tag k="operator" v="RTE"/>
  <tag k="power" v="tower"/>
  <tag k="ref" v="84"/>
 </node>
 <node id="1949915235" visible="true" version="3" changeset="144882641" timestamp="2023-12-07T22:30:17Z" user="AmiFritz" uid="172867" lat="49.1950831" lon="5.4932881">
  <tag k="operator" v="RTE"/>
  <tag k="power" v="tower"/>
  <tag k="ref" v="83"/>
 </node>
 <node id="1949915241" visible="true" version="3" changeset="144882641" timestamp="2023-12-07T22:30:17Z" user="AmiFritz" uid="172867" lat="49.1972981" lon="5.4963493">
  <tag k="operator" v="RTE"/>
  <tag k="power" v="tower"/>
  <tag k="ref" v="82"/>
 </node>
 <node id="1949915246" visible="true" version="3" changeset="144882071" timestamp="2023-12-07T22:04:31Z" user="AmiFritz" uid="172867" lat="49.1995798" lon="5.4995068">
  <tag k="height" v="30"/>
  <tag k="operator" v="RTE"/>
  <tag k="power" v="tower"/>
  <tag k="ref" v="81"/>
 </node>
 <node id="1949915250" visible="true" version="3" changeset="144882071" timestamp="2023-12-07T22:04:31Z" user="AmiFritz" uid="172867" lat="49.2019483" lon="5.5027755">
  <tag k="height" v="30"/>
  <tag k="operator" v="RTE"/>
  <tag k="power" v="tower"/>
  <tag k="ref" v="80"/>
 </node>
 <node id="1949915254" visible="true" version="3" changeset="144881928" timestamp="2023-12-07T21:58:38Z" user="AmiFritz" uid="172867" lat="49.2040841" lon="5.5057283">
  <tag k="height" v="23"/>
  <tag k="operator" v="RTE"/>
  <tag k="power" v="tower"/>
  <tag k="ref" v="79"/>
 </node>
 <node id="1949915259" visible="true" version="4" changeset="144882641" timestamp="2023-12-07T22:30:17Z" user="AmiFritz" uid="172867" lat="49.2059891" lon="5.5083612">
  <tag k="height" v="35"/>
  <tag k="operator" v="RTE"/>
  <tag k="power" v="tower"/>
  <tag k="ref" v="78"/>
 </node>
 <node id="1949915263" visible="true" version="3" changeset="144881928" timestamp="2023-12-07T21:58:38Z" user="AmiFritz" uid="172867" lat="49.2074551" lon="5.5115106">
  <tag k="height" v="23"/>
  <tag k="operator" v="RTE"/>
  <tag k="power" v="tower"/>
  <tag k="ref" v="77"/>
 </node>
 <node id="1949915268" visible="true" version="3" changeset="144881928" timestamp="2023-12-07T21:58:38Z" user="AmiFritz" uid="172867" lat="49.2088659" lon="5.5145995">
  <tag k="height" v="23"/>
  <tag k="operator" v="RTE"/>
  <tag k="power" v="tower"/>
  <tag k="ref" v="76"/>
 </node>
 <node id="1949915271" visible="true" version="3" changeset="144881928" timestamp="2023-12-07T21:58:38Z" user="AmiFritz" uid="172867" lat="49.2119365" lon="5.5212176">
  <tag k="height" v="26"/>
  <tag k="operator" v="RTE"/>
  <tag k="power" v="tower"/>
  <tag k="ref" v="74"/>
 </node>
 <node id="1949915273" visible="true" version="3" changeset="144881928" timestamp="2023-12-07T21:58:38Z" user="AmiFritz" uid="172867" lat="49.2137919" lon="5.5252291">
  <tag k="height" v="30"/>
  <tag k="operator" v="RTE"/>
  <tag k="power" v="tower"/>
  <tag k="ref" v="73"/>
 </node>
 <node id="1949915277" visible="true" version="3" changeset="144881928" timestamp="2023-12-07T21:58:38Z" user="AmiFritz" uid="172867" lat="49.2155923" lon="5.5291401">
  <tag k="operator" v="RTE"/>
  <tag k="power" v="tower"/>
  <tag k="ref" v="72"/>
 </node>
 <node id="1949927983" visible="true" version="2" changeset="144881752" timestamp="2023-12-07T21:50:51Z" user="AmiFritz" uid="172867" lat="49.2170039" lon="5.5321871">
  <tag k="operator" v="RTE"/>
  <tag k="power" v="tower"/>
  <tag k="ref" v="71"/>
 </node>
 <node id="1949927984" visible="true" version="2" changeset="144881752" timestamp="2023-12-07T21:50:51Z" user="AmiFritz" uid="172867" lat="49.2187885" lon="5.5360799">
  <tag k="height" v="26"/>
  <tag k="operator" v="RTE"/>
  <tag k="power" v="tower"/>
  <tag k="ref" v="70"/>
 </node>
 <node id="1949927985" visible="true" version="2" changeset="144881752" timestamp="2023-12-07T21:50:51Z" user="AmiFritz" uid="172867" lat="49.2203774" lon="5.5394787">
  <tag k="height" v="26"/>
  <tag k="operator" v="RTE"/>
  <tag k="power" v="tower"/>
  <tag k="ref" v="69"/>
 </node>
 <node id="1949927986" visible="true" version="2" changeset="144881752" timestamp="2023-12-07T21:50:51Z" user="AmiFritz" uid="172867" lat="49.2220478" lon="5.5430888">
  <tag k="height" v="26"/>
  <tag k="operator" v="RTE"/>
  <tag k="power" v="tower"/>
  <tag k="ref" v="68"/>
 </node>
 <node id="1949927987" visible="true" version="2" changeset="144881752" timestamp="2023-12-07T21:50:51Z" user="AmiFritz" uid="172867" lat="49.2237700" lon="5.5468465">
  <tag k="height" v="26"/>
  <tag k="operator" v="RTE"/>
  <tag k="power" v="tower"/>
  <tag k="ref" v="67"/>
 </node>
 <node id="1949927988" visible="true" version="2" changeset="144881752" timestamp="2023-12-07T21:50:51Z" user="AmiFritz" uid="172867" lat="49.2253901" lon="5.5503154">
  <tag k="height" v="26"/>
  <tag k="operator" v="RTE"/>
  <tag k="power" v="tower"/>
  <tag k="ref" v="66"/>
 </node>
 <node id="1949927989" visible="true" version="2" changeset="144881752" timestamp="2023-12-07T21:50:51Z" user="AmiFritz" uid="172867" lat="49.2270502" lon="5.5538967">
  <tag k="height" v="26"/>
  <tag k="operator" v="RTE"/>
  <tag k="power" v="tower"/>
  <tag k="ref" v="65"/>
 </node>
 <node id="1949927990" visible="true" version="4" changeset="127630922" timestamp="2022-10-16T18:14:42Z" user="user_5589" uid="5589" lat="49.2321693" lon="5.5650080">
  <tag k="height" v="26"/>
  <tag k="operator" v="RTE"/>
  <tag k="operator:wikidata" v="Q2178795"/>
  <tag k="power" v="tower"/>
  <tag k="ref" v="62"/>
  <tag k="source" v="data.gouv.fr:RTE - 2022-07"/>
 </node>
 <node id="1949927991" visible="true" version="4" changeset="144881752" timestamp="2023-12-07T21:50:51Z" user="AmiFritz" uid="172867" lat="49.2335877" lon="5.5680568">
  <tag k="operator" v="RTE"/>
  <tag k="operator:wikidata" v="Q2178795"/>
  <tag k="power" v="tower"/>
  <tag k="ref" v="61"/>
 </node>
 <node id="1949927992" visible="true" version="4" changeset="144881500" timestamp="2023-12-07T21:39:50Z" user="AmiFritz" uid="172867" lat="49.2350591" lon="5.5712588">
  <tag k="operator" v="RTE"/>
  <tag k="operator:wikidata" v="Q2178795"/>
  <tag k="power" v="tower"/>
  <tag k="ref" v="60"/>
 </node>
 <node id="1949927993" visible="true" version="4" changeset="127630922" timestamp="2022-10-16T18:14:42Z" user="user_5589" uid="5589" lat="49.2365929" lon="5.5745865">
  <tag k="height" v="26"/>
  <tag k="operator" v="RTE"/>
  <tag k="operator:wikidata" v="Q2178795"/>
  <tag k="power" v="tower"/>
  <tag k="ref" v="59"/>
  <tag k="source" v="data.gouv.fr:RTE - 2022-07"/>
 </node>
 <node id="1949927994" visible="true" version="4" changeset="144881500" timestamp="2023-12-07T21:39:50Z" user="AmiFritz" uid="172867" lat="49.2383233" lon="5.5783376">
  <tag k="operator" v="RTE"/>
  <tag k="operator:wikidata" v="Q2178795"/>
  <tag k="power" v="tower"/>
  <tag k="ref" v="58"/>
 </node>
 <node id="1949927995" visible="true" version="4" changeset="144881500" timestamp="2023-12-07T21:39:50Z" user="AmiFritz" uid="172867" lat="49.2400043" lon="5.5819616">
  <tag k="operator" v="RTE"/>
  <tag k="operator:wikidata" v="Q2178795"/>
  <tag k="power" v="tower"/>
  <tag k="ref" v="57"/>
 </node>
 <node id="1949927996" visible="true" version="4" changeset="127630922" timestamp="2022-10-16T18:14:42Z" user="user_5589" uid="5589" lat="49.2413717" lon="5.5849381">
  <tag k="height" v="26"/>
  <tag k="operator" v="RTE"/>
  <tag k="operator:wikidata" v="Q2178795"/>
  <tag k="power" v="tower"/>
  <tag k="ref" v="56"/>
  <tag k="source" v="data.gouv.fr:RTE - 2022-07"/>
 </node>
 <node id="1949927997" visible="true" version="4" changeset="127630922" timestamp="2022-10-16T18:14:42Z" user="user_5589" uid="5589" lat="49.2432034" lon="5.5888930">
  <tag k="height" v="26"/>
  <tag k="operator" v="RTE"/>
  <tag k="operator:wikidata" v="Q2178795"/>
  <tag k="power" v="tower"/>
  <tag k="ref" v="55"/>
  <tag k="source" v="data.gouv.fr:RTE - 2022-07"/>
 </node>
 <node id="1949927998" visible="true" version="2" changeset="144881500" timestamp="2023-12-07T21:39:50Z" user="AmiFritz" uid="172867" lat="49.2448449" lon="5.5924443">
  <tag k="height" v="26"/>
  <tag k="operator" v="RTE"/>
  <tag k="power" v="tower"/>
  <tag k="ref" v="54"/>
 </node>
 <node id="1949927999" visible="true" version="5" changeset="144881500" timestamp="2023-12-07T21:39:50Z" user="AmiFritz" uid="172867" lat="49.2462517" lon="5.5955083">
  <tag k="height" v="26"/>
  <tag k="operator" v="RTE"/>
  <tag k="operator:wikidata" v="Q2178795"/>
  <tag k="power" v="tower"/>
  <tag k="ref" v="53"/>
  <tag k="source" v="data.gouv.fr:RTE - 2022-07"/>
 </node>
 <node id="1949928000" visible="true" version="4" changeset="127630922" timestamp="2022-10-16T18:14:42Z" user="user_5589" uid="5589" lat="49.2496133" lon="5.6027970">
  <tag k="height" v="26"/>
  <tag k="operator" v="RTE"/>
  <tag k="operator:wikidata" v="Q2178795"/>
  <tag k="power" v="tower"/>
  <tag k="ref" v="51"/>
  <tag k="source" v="data.gouv.fr:RTE - 2022-07"/>
 </node>
 <node id="1949928001" visible="true" version="2" changeset="144881500" timestamp="2023-12-07T21:39:50Z" user="AmiFritz" uid="172867" lat="49.2529088" lon="5.6099190">
  <tag k="height" v="26"/>
  <tag k="operator" v="RTE"/>
  <tag k="power" v="tower"/>
  <tag k="ref" v="49"/>
 </node>
 <node id="1949928002" visible="true" version="2" changeset="144881500" timestamp="2023-12-07T21:39:50Z" user="AmiFritz" uid="172867" lat="49.2545562" lon="5.6135062">
  <tag k="height" v="26"/>
  <tag k="operator" v="RTE"/>
  <tag k="power" v="tower"/>
  <tag k="ref" v="48"/>
 </node>
 <node id="1949928003" visible="true" version="2" changeset="144881500" timestamp="2023-12-07T21:39:50Z" user="AmiFritz" uid="172867" lat="49.2564602" lon="5.6176246">
  <tag k="height" v="23"/>
  <tag k="operator" v="RTE"/>
  <tag k="power" v="tower"/>
  <tag k="ref" v="47"/>
 </node>
 <node id="1949928004" visible="true" version="2" changeset="144881500" timestamp="2023-12-07T21:39:50Z" user="AmiFritz" uid="172867" lat="49.2581569" lon="5.6213117">
  <tag k="height" v="26"/>
  <tag k="operator" v="RTE"/>
  <tag k="power" v="tower"/>
  <tag k="ref" v="46"/>
 </node>
 <node id="1949928005" visible="true" version="2" changeset="144881500" timestamp="2023-12-07T21:39:50Z" user="AmiFritz" uid="172867" lat="49.2597817" lon="5.6248255">
  <tag k="height" v="26"/>
  <tag k="operator" v="RTE"/>
  <tag k="power" v="tower"/>
  <tag k="ref" v="45"/>
 </node>
 <node id="1949928006" visible="true" version="2" changeset="144881500" timestamp="2023-12-07T21:39:50Z" user="AmiFritz" uid="172867" lat="49.2614907" lon="5.6285798">
  <tag k="height" v="26"/>
  <tag k="operator" v="RTE"/>
  <tag k="power" v="tower"/>
  <tag k="ref" v="44"/>
 </node>
 <node id="1949928007" visible="true" version="2" changeset="144881500" timestamp="2023-12-07T21:39:50Z" user="AmiFritz" uid="172867" lat="49.2632677" lon="5.6324088">
  <tag k="height" v="26"/>
  <tag k="operator" v="RTE"/>
  <tag k="power" v="tower"/>
  <tag k="ref" v="43"/>
 </node>
 <node id="1949928008" visible="true" version="2" changeset="144881500" timestamp="2023-12-07T21:39:50Z" user="AmiFritz" uid="172867" lat="49.2648352" lon="5.6358055">
  <tag k="height" v="26"/>
  <tag k="operator" v="RTE"/>
  <tag k="power" v="tower"/>
  <tag k="ref" v="42"/>
 </node>
 <node id="1949928009" visible="true" version="2" changeset="144881500" timestamp="2023-12-07T21:39:50Z" user="AmiFritz" uid="172867" lat="49.2666916" lon="5.6398254">
  <tag k="height" v="26"/>
  <tag k="operator" v="RTE"/>
  <tag k="power" v="tower"/>
  <tag k="ref" v="41"/>
 </node>
 <node id="1949928010" visible="true" version="2" changeset="144881500" timestamp="2023-12-07T21:39:50Z" user="AmiFritz" uid="172867" lat="49.2702071" lon="5.6474624">
  <tag k="operator" v="RTE"/>
  <tag k="power" v="tower"/>
  <tag k="ref" v="39"/>
 </node>
 <node id="1949928011" visible="true" version="2" changeset="144880978" timestamp="2023-12-07T21:17:36Z" user="AmiFritz" uid="172867" lat="49.2715664" lon="5.6504225">
  <tag k="height" v="26"/>
  <tag k="operator" v="RTE"/>
  <tag k="power" v="tower"/>
  <tag k="ref" v="38"/>
 </node>
 <node id="1949928012" visible="true" version="2" changeset="144880978" timestamp="2023-12-07T21:17:36Z" user="AmiFritz" uid="172867" lat="49.2733049" lon="5.6541731">
  <tag k="operator" v="RTE"/>
  <tag k="power" v="tower"/>
  <tag k="ref" v="37"/>
 </node>
 <node id="1949928013" visible="true" version="2" changeset="144880978" timestamp="2023-12-07T21:17:36Z" user="AmiFritz" uid="172867" lat="49.2755183" lon="5.6573107">
  <tag k="operator" v="RTE"/>
  <tag k="power" v="tower"/>
  <tag k="ref" v="36"/>
 </node>
 <node id="1949928014" visible="true" version="2" changeset="144880818" timestamp="2023-12-07T21:10:03Z" user="AmiFritz" uid="172867" lat="49.2774513" lon="5.6599891">
  <tag k="operator" v="RTE"/>
  <tag k="power" v="tower"/>
  <tag k="ref" v="35"/>
 </node>
 <node id="1949928015" visible="true" version="2" changeset="144880818" timestamp="2023-12-07T21:10:03Z" user="AmiFritz" uid="172867" lat="49.2795465" lon="5.6629408">
  <tag k="height" v="23"/>
  <tag k="operator" v="RTE"/>
  <tag k="power" v="tower"/>
  <tag k="ref" v="34"/>
 </node>
 <node id="1949928016" visible="true" version="2" changeset="144880818" timestamp="2023-12-07T21:10:03Z" user="AmiFritz" uid="172867" lat="49.2814349" lon="5.6655865">
  <tag k="height" v="23"/>
  <tag k="operator" v="RTE"/>
  <tag k="power" v="tower"/>
  <tag k="ref" v="33"/>
 </node>
 <node id="1949928017" visible="true" version="2" changeset="144880818" timestamp="2023-12-07T21:10:03Z" user="AmiFritz" uid="172867" lat="49.2833280" lon="5.6682443">
  <tag k="height" v="23"/>
  <tag k="operator" v="RTE"/>
  <tag k="power" v="tower"/>
  <tag k="ref" v="32"/>
 </node>
 <node id="1949928018" visible="true" version="2" changeset="144880818" timestamp="2023-12-07T21:10:03Z" user="AmiFritz" uid="172867" lat="49.2850850" lon="5.6707111">
  <tag k="height" v="23"/>
  <tag k="operator" v="RTE"/>
  <tag k="power" v="tower"/>
  <tag k="ref" v="31"/>
 </node>
 <node id="1949928019" visible="true" version="2" changeset="144880818" timestamp="2023-12-07T21:10:03Z" user="AmiFritz" uid="172867" lat="49.2877037" lon="5.6743901">
  <tag k="height" v="26"/>
  <tag k="operator" v="RTE"/>
  <tag k="power" v="tower"/>
  <tag k="ref" v="30"/>
 </node>
 <node id="1949928020" visible="true" version="2" changeset="144880818" timestamp="2023-12-07T21:10:03Z" user="AmiFritz" uid="172867" lat="49.2898540" lon="5.6773910">
  <tag k="height" v="26"/>
  <tag k="operator" v="RTE"/>
  <tag k="power" v="tower"/>
  <tag k="ref" v="29"/>
 </node>
 <node id="1949928021" visible="true" version="2" changeset="144880818" timestamp="2023-12-07T21:10:03Z" user="AmiFritz" uid="172867" lat="49.2919123" lon="5.6803068">
  <tag k="height" v="26"/>
  <tag k="operator" v="RTE"/>
  <tag k="power" v="tower"/>
  <tag k="ref" v="28"/>
 </node>
 <node id="1949928022" visible="true" version="2" changeset="144880818" timestamp="2023-12-07T21:10:03Z" user="AmiFritz" uid="172867" lat="49.2939277" lon="5.6831521">
  <tag k="height" v="26"/>
  <tag k="operator" v="RTE"/>
  <tag k="power" v="tower"/>
  <tag k="ref" v="27"/>
 </node>
 <node id="1949928023" visible="true" version="2" changeset="144880818" timestamp="2023-12-07T21:10:03Z" user="AmiFritz" uid="172867" lat="49.2963549" lon="5.6865415">
  <tag k="height" v="23"/>
  <tag k="operator" v="RTE"/>
  <tag k="power" v="tower"/>
  <tag k="ref" v="26"/>
 </node>
 <node id="1949928024" visible="true" version="2" changeset="144880818" timestamp="2023-12-07T21:10:03Z" user="AmiFritz" uid="172867" lat="49.2981180" lon="5.6890240">
  <tag k="height" v="36"/>
  <tag k="operator" v="RTE"/>
  <tag k="power" v="tower"/>
  <tag k="ref" v="25"/>
 </node>
 <node id="1949928025" visible="true" version="2" changeset="144880818" timestamp="2023-12-07T21:10:03Z" user="AmiFritz" uid="172867" lat="49.3006856" lon="5.6926251">
  <tag k="height" v="26"/>
  <tag k="operator" v="RTE"/>
  <tag k="power" v="tower"/>
  <tag k="ref" v="24"/>
 </node>
 <node id="1949928026" visible="true" version="2" changeset="144880818" timestamp="2023-12-07T21:10:03Z" user="AmiFritz" uid="172867" lat="49.3025934" lon="5.6953311">
  <tag k="operator" v="RTE"/>
  <tag k="power" v="tower"/>
  <tag k="ref" v="23"/>
 </node>
 <node id="1949928027" visible="true" version="2" changeset="144880818" timestamp="2023-12-07T21:10:03Z" user="AmiFritz" uid="172867" lat="49.3035685" lon="5.6994071">
  <tag k="height" v="23"/>
  <tag k="operator" v="RTE"/>
  <tag k="power" v="tower"/>
  <tag k="ref" v="22"/>
 </node>
 <node id="1949928028" visible="true" version="2" changeset="144880818" timestamp="2023-12-07T21:10:03Z" user="AmiFritz" uid="172867" lat="49.3045222" lon="5.7036766">
  <tag k="height" v="23"/>
  <tag k="operator" v="RTE"/>
  <tag k="power" v="tower"/>
  <tag k="ref" v="21"/>
 </node>
 <node id="1949928029" visible="true" version="2" changeset="144880818" timestamp="2023-12-07T21:10:03Z" user="AmiFritz" uid="172867" lat="49.3053001" lon="5.7069678">
  <tag k="height" v="23"/>
  <tag k="operator" v="RTE"/>
  <tag k="power" v="tower"/>
  <tag k="ref" v="20"/>
 </node>
 <node id="1949928030" visible="true" version="2" changeset="144880818" timestamp="2023-12-07T21:10:03Z" user="AmiFritz" uid="172867" lat="49.3062025" lon="5.7108161">
  <tag k="height" v="23"/>
  <tag k="operator" v="RTE"/>
  <tag k="power" v="tower"/>
  <tag k="ref" v="19"/>
 </node>
 <node id="1949928031" visible="true" version="2" changeset="144880818" timestamp="2023-12-07T21:10:03Z" user="AmiFritz" uid="172867" lat="49.3071188" lon="5.7147688">
  <tag k="height" v="23"/>
  <tag k="operator" v="RTE"/>
  <tag k="power" v="tower"/>
  <tag k="ref" v="18"/>
 </node>
 <node id="1949928032" visible="true" version="2" changeset="144880818" timestamp="2023-12-07T21:10:03Z" user="AmiFritz" uid="172867" lat="49.3080672" lon="5.7188864">
  <tag k="height" v="23"/>
  <tag k="operator" v="RTE"/>
  <tag k="power" v="tower"/>
  <tag k="ref" v="17"/>
 </node>
 <node id="1949928033" visible="true" version="2" changeset="144880818" timestamp="2023-12-07T21:10:03Z" user="AmiFritz" uid="172867" lat="49.3089489" lon="5.7226937">
  <tag k="height" v="26"/>
  <tag k="operator" v="RTE"/>
  <tag k="power" v="tower"/>
  <tag k="ref" v="16"/>
 </node>
 <node id="1949928034" visible="true" version="2" changeset="144880818" timestamp="2023-12-07T21:10:03Z" user="AmiFritz" uid="172867" lat="49.3101471" lon="5.7279001">
  <tag k="height" v="26"/>
  <tag k="operator" v="RTE"/>
  <tag k="power" v="tower"/>
  <tag k="ref" v="15"/>
 </node>
 <node id="1949928035" visible="true" version="2" changeset="144880818" timestamp="2023-12-07T21:10:03Z" user="AmiFritz" uid="172867" lat="49.3110473" lon="5.7317869">
  <tag k="height" v="23"/>
  <tag k="operator" v="RTE"/>
  <tag k="power" v="tower"/>
  <tag k="ref" v="14"/>
 </node>
 <node id="1949928036" visible="true" version="2" changeset="144880818" timestamp="2023-12-07T21:10:03Z" user="AmiFritz" uid="172867" lat="49.3118622" lon="5.7352845">
  <tag k="height" v="23"/>
  <tag k="operator" v="RTE"/>
  <tag k="power" v="tower"/>
  <tag k="ref" v="13"/>
 </node>
 <node id="1949928037" visible="true" version="2" changeset="144880818" timestamp="2023-12-07T21:10:03Z" user="AmiFritz" uid="172867" lat="49.3133879" lon="5.7637076">
  <tag k="height" v="23"/>
  <tag k="operator" v="RTE"/>
  <tag k="power" v="tower"/>
  <tag k="ref" v="5"/>
 </node>
 <node id="1949928038" visible="true" version="2" changeset="144880818" timestamp="2023-12-07T21:10:03Z" user="AmiFritz" uid="172867" lat="49.3135723" lon="5.7426860">
  <tag k="height" v="26"/>
  <tag k="operator" v="RTE"/>
  <tag k="power" v="tower"/>
  <tag k="ref" v="11"/>
 </node>
 <node id="1949928039" visible="true" version="2" changeset="144880818" timestamp="2023-12-07T21:10:03Z" user="AmiFritz" uid="172867" lat="49.3135839" lon="5.7607518">
  <tag k="height" v="23"/>
  <tag k="operator" v="RTE"/>
  <tag k="power" v="tower"/>
  <tag k="ref" v="6"/>
 </node>
 <node id="1949928040" visible="true" version="2" changeset="144880818" timestamp="2023-12-07T21:10:03Z" user="AmiFritz" uid="172867" lat="49.3139219" lon="5.7552999">
  <tag k="height" v="23"/>
  <tag k="operator" v="RTE"/>
  <tag k="power" v="tower"/>
  <tag k="ref" v="7"/>
 </node>
 <node id="1949928041" visible="true" version="2" changeset="144880818" timestamp="2023-12-07T21:10:03Z" user="AmiFritz" uid="172867" lat="49.3141426" lon="5.7517717">
  <tag k="height" v="23"/>
  <tag k="operator" v="RTE"/>
  <tag k="power" v="tower"/>
  <tag k="ref" v="8"/>
 </node>
 <node id="1949928042" visible="true" version="2" changeset="144880818" timestamp="2023-12-07T21:10:03Z" user="AmiFritz" uid="172867" lat="49.3143064" lon="5.7492434">
  <tag k="height" v="14"/>
  <tag k="operator" v="RTE"/>
  <tag k="power" v="tower"/>
  <tag k="ref" v="9"/>
 </node>
 <node id="1949928043" visible="true" version="2" changeset="144880818" timestamp="2023-12-07T21:10:03Z" user="AmiFritz" uid="172867" lat="49.3144623" lon="5.7466212">
  <tag k="operator" v="RTE"/>
  <tag k="power" v="tower"/>
  <tag k="ref" v="10"/>
 </node>
 <node id="2332902383" visible="true" version="1" changeset="16429518" timestamp="2013-06-05T09:23:08Z" user="StephaneP" uid="439947" lat="49.2870407" lon="5.6663364"/>
 <node id="2333375165" visible="true" version="1" changeset="16435149" timestamp="2013-06-05T17:43:42Z" user="StephaneP" uid="439947" lat="49.2419803" lon="5.6875986"/>
 <node id="2333375170" visible="true" version="1" changeset="16435149" timestamp="2013-06-05T17:43:43Z" user="StephaneP" uid="439947" lat="49.2428409" lon="5.6873029"/>
 <node id="2333375196" visible="true" version="1" changeset="16435149" timestamp="2013-06-05T17:43:43Z" user="StephaneP" uid="439947" lat="49.2464441" lon="5.6880484"/>
 <node id="2333375201" visible="true" version="1" changeset="16435149" timestamp="2013-06-05T17:43:43Z" user="StephaneP" uid="439947" lat="49.2471580" lon="5.6872498"/>
 <node id="2333375204" visible="true" version="1" changeset="16435149" timestamp="2013-06-05T17:43:43Z" user="StephaneP" uid="439947" lat="49.2479590" lon="5.6851942"/>
 <node id="2333375205" visible="true" version="1" changeset="16435149" timestamp="2013-06-05T17:43:43Z" user="StephaneP" uid="439947" lat="49.2483263" lon="5.6841796"/>
 <node id="2333375206" visible="true" version="1" changeset="16435149" timestamp="2013-06-05T17:43:43Z" user="StephaneP" uid="439947" lat="49.2486495" lon="5.6827768"/>
 <node id="2333375207" visible="true" version="1" changeset="16435149" timestamp="2013-06-05T17:43:43Z" user="StephaneP" uid="439947" lat="49.2488159" lon="5.6817331"/>
 <node id="2333375208" visible="true" version="1" changeset="16435149" timestamp="2013-06-05T17:43:43Z" user="StephaneP" uid="439947" lat="49.2488888" lon="5.6813068"/>
 <node id="2333375210" visible="true" version="1" changeset="16435149" timestamp="2013-06-05T17:43:43Z" user="StephaneP" uid="439947" lat="49.2511554" lon="5.6772172"/>
 <node id="2333375211" visible="true" version="1" changeset="16435149" timestamp="2013-06-05T17:43:43Z" user="StephaneP" uid="439947" lat="49.2514085" lon="5.6768338"/>
 <node id="2333375212" visible="true" version="1" changeset="16435149" timestamp="2013-06-05T17:43:43Z" user="StephaneP" uid="439947" lat="49.2520458" lon="5.6760684"/>
 <node id="2333375213" visible="true" version="1" changeset="16435149" timestamp="2013-06-05T17:43:43Z" user="StephaneP" uid="439947" lat="49.2522608" lon="5.6759105"/>
 <node id="2333375214" visible="true" version="1" changeset="16435149" timestamp="2013-06-05T17:43:44Z" user="StephaneP" uid="439947" lat="49.2523745" lon="5.6757295"/>
 <node id="2333375215" visible="true" version="1" changeset="16435149" timestamp="2013-06-05T17:43:44Z" user="StephaneP" uid="439947" lat="49.2527494" lon="5.6753197"/>
 <node id="2333375216" visible="true" version="1" changeset="16435149" timestamp="2013-06-05T17:43:44Z" user="StephaneP" uid="439947" lat="49.2530677" lon="5.6757302"/>
 <node id="2333375217" visible="true" version="1" changeset="16435149" timestamp="2013-06-05T17:43:44Z" user="StephaneP" uid="439947" lat="49.2532197" lon="5.6750089"/>
 <node id="2333375219" visible="true" version="1" changeset="16435149" timestamp="2013-06-05T17:43:44Z" user="StephaneP" uid="439947" lat="49.2533599" lon="5.6753033"/>
 <node id="2333375220" visible="true" version="1" changeset="16435149" timestamp="2013-06-05T17:43:44Z" user="StephaneP" uid="439947" lat="49.2538734" lon="5.6731547"/>
 <node id="2333375221" visible="true" version="1" changeset="16435149" timestamp="2013-06-05T17:43:44Z" user="StephaneP" uid="439947" lat="49.2539024" lon="5.6738074"/>
 <node id="2333375222" visible="true" version="1" changeset="16435149" timestamp="2013-06-05T17:43:44Z" user="StephaneP" uid="439947" lat="49.2539091" lon="5.6745318"/>
 <node id="2333375223" visible="true" version="1" changeset="16435149" timestamp="2013-06-05T17:43:44Z" user="StephaneP" uid="439947" lat="49.2540032" lon="5.6745036"/>
 <node id="2333375224" visible="true" version="1" changeset="16435149" timestamp="2013-06-05T17:43:44Z" user="StephaneP" uid="439947" lat="49.2541095" lon="5.6751847"/>
 <node id="2333375225" visible="true" version="1" changeset="16435149" timestamp="2013-06-05T17:43:44Z" user="StephaneP" uid="439947" lat="49.2541954" lon="5.6750904"/>
 <node id="2333375227" visible="true" version="1" changeset="16435149" timestamp="2013-06-05T17:43:44Z" user="StephaneP" uid="439947" lat="49.2543935" lon="5.6759933"/>
 <node id="2333375228" visible="true" version="1" changeset="16435149" timestamp="2013-06-05T17:43:44Z" user="StephaneP" uid="439947" lat="49.2544716" lon="5.6759101"/>
 <node id="2333375229" visible="true" version="1" changeset="16435149" timestamp="2013-06-05T17:43:44Z" user="StephaneP" uid="439947" lat="49.2544817" lon="5.6728685"/>
 <node id="2333375230" visible="true" version="1" changeset="16435149" timestamp="2013-06-05T17:43:44Z" user="StephaneP" uid="439947" lat="49.2545502" lon="5.6732005"/>
 <node id="2333375231" visible="true" version="1" changeset="16435149" timestamp="2013-06-05T17:43:44Z" user="StephaneP" uid="439947" lat="49.2552465" lon="5.6682200"/>
 <node id="2333375232" visible="true" version="1" changeset="16435149" timestamp="2013-06-05T17:43:44Z" user="StephaneP" uid="439947" lat="49.2552880" lon="5.6681411"/>
 <node id="2333375233" visible="true" version="1" changeset="16435149" timestamp="2013-06-05T17:43:44Z" user="StephaneP" uid="439947" lat="49.2552951" lon="5.6722044"/>
 <node id="2333375234" visible="true" version="1" changeset="16435149" timestamp="2013-06-05T17:43:44Z" user="StephaneP" uid="439947" lat="49.2554109" lon="5.6727273"/>
 <node id="2333375236" visible="true" version="1" changeset="16435149" timestamp="2013-06-05T17:43:44Z" user="StephaneP" uid="439947" lat="49.2555666" lon="5.6700933"/>
 <node id="2333375237" visible="true" version="1" changeset="16435149" timestamp="2013-06-05T17:43:44Z" user="StephaneP" uid="439947" lat="49.2559055" lon="5.6719298"/>
 <node id="2333375238" visible="true" version="1" changeset="16435149" timestamp="2013-06-05T17:43:44Z" user="StephaneP" uid="439947" lat="49.2561967" lon="5.6679084"/>
 <node id="2333375239" visible="true" version="1" changeset="16435149" timestamp="2013-06-05T17:43:44Z" user="StephaneP" uid="439947" lat="49.2570150" lon="5.6675934"/>
 <node id="2333375240" visible="true" version="1" changeset="16435149" timestamp="2013-06-05T17:43:44Z" user="StephaneP" uid="439947" lat="49.2577249" lon="5.6673309"/>
 <node id="2333375241" visible="true" version="1" changeset="16435149" timestamp="2013-06-05T17:43:44Z" user="StephaneP" uid="439947" lat="49.2578995" lon="5.6674571"/>
 <node id="2333375242" visible="true" version="1" changeset="16435149" timestamp="2013-06-05T17:43:44Z" user="StephaneP" uid="439947" lat="49.2583184" lon="5.6677632"/>
 <node id="2333375243" visible="true" version="1" changeset="16435149" timestamp="2013-06-05T17:43:44Z" user="StephaneP" uid="439947" lat="49.2589708" lon="5.6683792"/>
 <node id="2333375244" visible="true" version="1" changeset="16435149" timestamp="2013-06-05T17:43:44Z" user="StephaneP" uid="439947" lat="49.2591568" lon="5.6684789"/>
 <node id="2333375245" visible="true" version="1" changeset="16435149" timestamp="2013-06-05T17:43:44Z" user="StephaneP" uid="439947" lat="49.2593516" lon="5.6685247"/>
 <node id="2333375247" visible="true" version="1" changeset="16435149" timestamp="2013-06-05T17:43:44Z" user="StephaneP" uid="439947" lat="49.2601139" lon="5.6685436"/>
 <node id="2333375248" visible="true" version="1" changeset="16435149" timestamp="2013-06-05T17:43:44Z" user="StephaneP" uid="439947" lat="49.2610636" lon="5.6684934"/>
 <node id="2333375249" visible="true" version="1" changeset="16435149" timestamp="2013-06-05T17:43:44Z" user="StephaneP" uid="439947" lat="49.2616465" lon="5.6684294"/>
 <node id="2333375250" visible="true" version="1" changeset="16435149" timestamp="2013-06-05T17:43:44Z" user="StephaneP" uid="439947" lat="49.2631290" lon="5.6683226"/>
 <node id="2333375251" visible="true" version="1" changeset="16435149" timestamp="2013-06-05T17:43:44Z" user="StephaneP" uid="439947" lat="49.2635288" lon="5.6683061"/>
 <node id="2333375252" visible="true" version="1" changeset="16435149" timestamp="2013-06-05T17:43:44Z" user="StephaneP" uid="439947" lat="49.2639780" lon="5.6683038"/>
 <node id="2333375253" visible="true" version="1" changeset="16435149" timestamp="2013-06-05T17:43:44Z" user="StephaneP" uid="439947" lat="49.2642170" lon="5.6684234"/>
 <node id="2333375254" visible="true" version="1" changeset="16435149" timestamp="2013-06-05T17:43:44Z" user="StephaneP" uid="439947" lat="49.2652276" lon="5.6690797"/>
 <node id="2333375256" visible="true" version="1" changeset="16435149" timestamp="2013-06-05T17:43:44Z" user="StephaneP" uid="439947" lat="49.2654652" lon="5.6692483"/>
 <node id="2333375257" visible="true" version="1" changeset="16435149" timestamp="2013-06-05T17:43:44Z" user="StephaneP" uid="439947" lat="49.2658582" lon="5.6697106"/>
 <node id="2333375258" visible="true" version="1" changeset="16435149" timestamp="2013-06-05T17:43:44Z" user="StephaneP" uid="439947" lat="49.2663866" lon="5.6704613"/>
 <node id="2333375259" visible="true" version="1" changeset="16435149" timestamp="2013-06-05T17:43:44Z" user="StephaneP" uid="439947" lat="49.2674401" lon="5.6692499"/>
 <node id="2333375260" visible="true" version="1" changeset="16435149" timestamp="2013-06-05T17:43:44Z" user="StephaneP" uid="439947" lat="49.2677113" lon="5.6697227"/>
 <node id="2333375261" visible="true" version="1" changeset="16435149" timestamp="2013-06-05T17:43:44Z" user="StephaneP" uid="439947" lat="49.2679332" lon="5.6700652"/>
 <node id="2333375262" visible="true" version="1" changeset="16435149" timestamp="2013-06-05T17:43:44Z" user="StephaneP" uid="439947" lat="49.2682744" lon="5.6696876"/>
 <node id="2333375263" visible="true" version="1" changeset="16435149" timestamp="2013-06-05T17:43:44Z" user="StephaneP" uid="439947" lat="49.2684707" lon="5.6694390"/>
 <node id="2333375265" visible="true" version="1" changeset="16435149" timestamp="2013-06-05T17:43:44Z" user="StephaneP" uid="439947" lat="49.2687237" lon="5.6690555"/>
 <node id="2333375266" visible="true" version="1" changeset="16435149" timestamp="2013-06-05T17:43:44Z" user="StephaneP" uid="439947" lat="49.2687931" lon="5.6689254"/>
 <node id="2333375267" visible="true" version="1" changeset="16435149" timestamp="2013-06-05T17:43:44Z" user="StephaneP" uid="439947" lat="49.2689328" lon="5.6686267"/>
 <node id="2333375268" visible="true" version="1" changeset="16435149" timestamp="2013-06-05T17:43:44Z" user="StephaneP" uid="439947" lat="49.2691940" lon="5.6682244"/>
 <node id="2333375269" visible="true" version="1" changeset="16435149" timestamp="2013-06-05T17:43:45Z" user="StephaneP" uid="439947" lat="49.2694693" lon="5.6685551"/>
 <node id="2333375270" visible="true" version="1" changeset="16435149" timestamp="2013-06-05T17:43:45Z" user="StephaneP" uid="439947" lat="49.2697411" lon="5.6690896"/>
 <node id="2333375271" visible="true" version="1" changeset="16435149" timestamp="2013-06-05T17:43:45Z" user="StephaneP" uid="439947" lat="49.2698244" lon="5.6687370"/>
 <node id="2333375272" visible="true" version="1" changeset="16435149" timestamp="2013-06-05T17:43:45Z" user="StephaneP" uid="439947" lat="49.2700806" lon="5.6684231"/>
 <node id="2333375274" visible="true" version="1" changeset="16435149" timestamp="2013-06-05T17:43:45Z" user="StephaneP" uid="439947" lat="49.2709975" lon="5.6673988"/>
 <node id="2333375275" visible="true" version="1" changeset="16435149" timestamp="2013-06-05T17:43:45Z" user="StephaneP" uid="439947" lat="49.2712526" lon="5.6671194"/>
 <node id="2333375276" visible="true" version="1" changeset="16435149" timestamp="2013-06-05T17:43:45Z" user="StephaneP" uid="439947" lat="49.2716289" lon="5.6677073"/>
 <node id="2333375277" visible="true" version="1" changeset="16435149" timestamp="2013-06-05T17:43:45Z" user="StephaneP" uid="439947" lat="49.2719915" lon="5.6682403"/>
 <node id="2333375278" visible="true" version="1" changeset="16435149" timestamp="2013-06-05T17:43:45Z" user="StephaneP" uid="439947" lat="49.2725336" lon="5.6690204"/>
 <node id="2333375279" visible="true" version="1" changeset="16435149" timestamp="2013-06-05T17:43:45Z" user="StephaneP" uid="439947" lat="49.2728106" lon="5.6695515"/>
 <node id="2333375280" visible="true" version="1" changeset="16435149" timestamp="2013-06-05T17:43:45Z" user="StephaneP" uid="439947" lat="49.2735271" lon="5.6684867"/>
 <node id="2333375282" visible="true" version="1" changeset="16435149" timestamp="2013-06-05T17:43:45Z" user="StephaneP" uid="439947" lat="49.2738481" lon="5.6692403"/>
 <node id="2333375283" visible="true" version="1" changeset="16435149" timestamp="2013-06-05T17:43:45Z" user="StephaneP" uid="439947" lat="49.2741778" lon="5.6699522"/>
 <node id="2333375284" visible="true" version="1" changeset="16435149" timestamp="2013-06-05T17:43:45Z" user="StephaneP" uid="439947" lat="49.2743249" lon="5.6703590"/>
 <node id="2333375285" visible="true" version="1" changeset="16435149" timestamp="2013-06-05T17:43:45Z" user="StephaneP" uid="439947" lat="49.2748095" lon="5.6698139"/>
 <node id="2333375286" visible="true" version="1" changeset="16435149" timestamp="2013-06-05T17:43:45Z" user="StephaneP" uid="439947" lat="49.2751532" lon="5.6695212"/>
 <node id="2333375287" visible="true" version="1" changeset="16435149" timestamp="2013-06-05T17:43:45Z" user="StephaneP" uid="439947" lat="49.2758042" lon="5.6689797"/>
 <node id="2333375288" visible="true" version="1" changeset="16435149" timestamp="2013-06-05T17:43:45Z" user="StephaneP" uid="439947" lat="49.2762075" lon="5.6686294"/>
 <node id="2333375290" visible="true" version="1" changeset="16435149" timestamp="2013-06-05T17:43:45Z" user="StephaneP" uid="439947" lat="49.2770724" lon="5.6678365"/>
 <node id="2333375291" visible="true" version="1" changeset="16435149" timestamp="2013-06-05T17:43:45Z" user="StephaneP" uid="439947" lat="49.2771114" lon="5.6681435"/>
 <node id="2333375292" visible="true" version="1" changeset="16435149" timestamp="2013-06-05T17:43:45Z" user="StephaneP" uid="439947" lat="49.2774458" lon="5.6678271"/>
 <node id="2333375293" visible="true" version="1" changeset="16435149" timestamp="2013-06-05T17:43:45Z" user="StephaneP" uid="439947" lat="49.2776278" lon="5.6676352"/>
 <node id="2333375294" visible="true" version="1" changeset="16435149" timestamp="2013-06-05T17:43:45Z" user="StephaneP" uid="439947" lat="49.2780024" lon="5.6672328"/>
 <node id="2333375295" visible="true" version="1" changeset="16435149" timestamp="2013-06-05T17:43:45Z" user="StephaneP" uid="439947" lat="49.2784837" lon="5.6668031"/>
 <node id="2333375296" visible="true" version="1" changeset="16435149" timestamp="2013-06-05T17:43:45Z" user="StephaneP" uid="439947" lat="49.2791739" lon="5.6659930"/>
 <node id="2333375297" visible="true" version="1" changeset="16435149" timestamp="2013-06-05T17:43:45Z" user="StephaneP" uid="439947" lat="49.2792586" lon="5.6662712"/>
 <node id="2333375299" visible="true" version="1" changeset="16435149" timestamp="2013-06-05T17:43:45Z" user="StephaneP" uid="439947" lat="49.2799256" lon="5.6644691"/>
 <node id="2333375300" visible="true" version="1" changeset="16435149" timestamp="2013-06-05T17:43:45Z" user="StephaneP" uid="439947" lat="49.2801618" lon="5.6652997"/>
 <node id="2333375301" visible="true" version="1" changeset="16435149" timestamp="2013-06-05T17:43:45Z" user="StephaneP" uid="439947" lat="49.2814533" lon="5.6634171"/>
 <node id="2333375302" visible="true" version="1" changeset="16435149" timestamp="2013-06-05T17:43:45Z" user="StephaneP" uid="439947" lat="49.2821073" lon="5.6632352"/>
 <node id="2333375303" visible="true" version="1" changeset="16435149" timestamp="2013-06-05T17:43:45Z" user="StephaneP" uid="439947" lat="49.2837567" lon="5.6690683"/>
 <node id="2333375304" visible="true" version="1" changeset="16435149" timestamp="2013-06-05T17:43:45Z" user="StephaneP" uid="439947" lat="49.2841326" lon="5.6684588"/>
 <node id="2333375305" visible="true" version="1" changeset="16435149" timestamp="2013-06-05T17:43:45Z" user="StephaneP" uid="439947" lat="49.2841501" lon="5.6683456"/>
 <node id="2333375307" visible="true" version="1" changeset="16435149" timestamp="2013-06-05T17:43:45Z" user="StephaneP" uid="439947" lat="49.2841968" lon="5.6686430"/>
 <node id="2333375308" visible="true" version="1" changeset="16435149" timestamp="2013-06-05T17:43:45Z" user="StephaneP" uid="439947" lat="49.2853644" lon="5.6663597"/>
 <node id="2333375309" visible="true" version="1" changeset="16435149" timestamp="2013-06-05T17:43:45Z" user="StephaneP" uid="439947" lat="49.2857637" lon="5.6656810"/>
 <node id="2333375310" visible="true" version="1" changeset="16435149" timestamp="2013-06-05T17:43:45Z" user="StephaneP" uid="439947" lat="49.2865626" lon="5.6672690"/>
 <node id="2333375311" visible="true" version="1" changeset="16435149" timestamp="2013-06-05T17:43:45Z" user="StephaneP" uid="439947" lat="49.2865991" lon="5.6673001"/>
 <node id="2333375312" visible="true" version="1" changeset="16435149" timestamp="2013-06-05T17:43:45Z" user="StephaneP" uid="439947" lat="49.2867580" lon="5.6665833"/>
 <node id="2333375313" visible="true" version="1" changeset="16435149" timestamp="2013-06-05T17:43:45Z" user="StephaneP" uid="439947" lat="49.2867835" lon="5.6670278"/>
 <node id="2333375314" visible="true" version="1" changeset="16435149" timestamp="2013-06-05T17:43:45Z" user="StephaneP" uid="439947" lat="49.2869988" lon="5.6663299"/>
 <node id="2333375315" visible="true" version="1" changeset="16435149" timestamp="2013-06-05T17:43:45Z" user="StephaneP" uid="439947" lat="49.2869990" lon="5.6664457"/>
 <node id="2334182791" visible="true" version="1" changeset="16441711" timestamp="2013-06-06T07:58:12Z" user="StephaneP" uid="439947" lat="49.2571276" lon="5.6094827"/>
 <node id="2334182795" visible="true" version="1" changeset="16441711" timestamp="2013-06-06T07:58:12Z" user="StephaneP" uid="439947" lat="49.2572552" lon="5.6089556"/>
 <node id="2334182797" visible="true" version="1" changeset="16441711" timestamp="2013-06-06T07:58:12Z" user="StephaneP" uid="439947" lat="49.2572793" lon="5.6090980"/>
 <node id="2334182798" visible="true" version="1" changeset="16441711" timestamp="2013-06-06T07:58:12Z" user="StephaneP" uid="439947" lat="49.2572793" lon="5.6091879"/>
 <node id="2334182799" visible="true" version="1" changeset="16441711" timestamp="2013-06-06T07:58:12Z" user="StephaneP" uid="439947" lat="49.2573097" lon="5.6086582"/>
 <node id="2334182800" visible="true" version="1" changeset="16441711" timestamp="2013-06-06T07:58:12Z" user="StephaneP" uid="439947" lat="49.2573617" lon="5.6085405"/>
 <node id="2334182801" visible="true" version="1" changeset="16441711" timestamp="2013-06-06T07:58:12Z" user="StephaneP" uid="439947" lat="49.2575088" lon="5.6084955"/>
 <node id="2334182803" visible="true" version="1" changeset="16441711" timestamp="2013-06-06T07:58:12Z" user="StephaneP" uid="439947" lat="49.2576474" lon="5.6084813"/>
 <node id="2334182804" visible="true" version="1" changeset="16441711" timestamp="2013-06-06T07:58:12Z" user="StephaneP" uid="439947" lat="49.2579496" lon="5.6083802"/>
 <node id="2334182807" visible="true" version="1" changeset="16441711" timestamp="2013-06-06T07:58:12Z" user="StephaneP" uid="439947" lat="49.2581597" lon="5.6083707"/>
 <node id="2334182809" visible="true" version="1" changeset="16441711" timestamp="2013-06-06T07:58:12Z" user="StephaneP" uid="439947" lat="49.2583376" lon="5.6084138"/>
 <node id="2334182810" visible="true" version="1" changeset="16441711" timestamp="2013-06-06T07:58:12Z" user="StephaneP" uid="439947" lat="49.2586326" lon="5.6085663"/>
 <node id="2334182811" visible="true" version="1" changeset="16441711" timestamp="2013-06-06T07:58:12Z" user="StephaneP" uid="439947" lat="49.2588243" lon="5.6085751"/>
 <node id="2334182812" visible="true" version="1" changeset="16441711" timestamp="2013-06-06T07:58:12Z" user="StephaneP" uid="439947" lat="49.2589664" lon="5.6085259"/>
 <node id="2334182814" visible="true" version="1" changeset="16441711" timestamp="2013-06-06T07:58:12Z" user="StephaneP" uid="439947" lat="49.2590999" lon="5.6086012"/>
 <node id="2334182815" visible="true" version="1" changeset="16441711" timestamp="2013-06-06T07:58:12Z" user="StephaneP" uid="439947" lat="49.2592953" lon="5.6087471"/>
 <node id="2334182816" visible="true" version="1" changeset="16441711" timestamp="2013-06-06T07:58:12Z" user="StephaneP" uid="439947" lat="49.2593877" lon="5.6090073"/>
 <node id="2334182817" visible="true" version="1" changeset="16441711" timestamp="2013-06-06T07:58:12Z" user="StephaneP" uid="439947" lat="49.2595296" lon="5.6090558"/>
 <node id="2334182818" visible="true" version="1" changeset="16441711" timestamp="2013-06-06T07:58:12Z" user="StephaneP" uid="439947" lat="49.2596165" lon="5.6095972"/>
 <node id="2334182819" visible="true" version="1" changeset="16441711" timestamp="2013-06-06T07:58:12Z" user="StephaneP" uid="439947" lat="49.2601037" lon="5.6100126"/>
 <node id="2334182820" visible="true" version="1" changeset="16441711" timestamp="2013-06-06T07:58:12Z" user="StephaneP" uid="439947" lat="49.2602257" lon="5.6100403"/>
 <node id="2334182821" visible="true" version="1" changeset="16441711" timestamp="2013-06-06T07:58:12Z" user="StephaneP" uid="439947" lat="49.2609811" lon="5.6099302"/>
 <node id="2334182822" visible="true" version="1" changeset="16441711" timestamp="2013-06-06T07:58:12Z" user="StephaneP" uid="439947" lat="49.2611574" lon="5.6098481"/>
 <node id="2334182823" visible="true" version="1" changeset="16441711" timestamp="2013-06-06T07:58:12Z" user="StephaneP" uid="439947" lat="49.2613017" lon="5.6097208"/>
 <node id="2334182824" visible="true" version="1" changeset="16441711" timestamp="2013-06-06T07:58:13Z" user="StephaneP" uid="439947" lat="49.2618188" lon="5.6090828"/>
 <node id="2334182825" visible="true" version="1" changeset="16441711" timestamp="2013-06-06T07:58:13Z" user="StephaneP" uid="439947" lat="49.2620616" lon="5.6088252"/>
 <node id="2334182826" visible="true" version="1" changeset="16441711" timestamp="2013-06-06T07:58:13Z" user="StephaneP" uid="439947" lat="49.2622301" lon="5.6086566"/>
 <node id="2334182827" visible="true" version="1" changeset="16441711" timestamp="2013-06-06T07:58:13Z" user="StephaneP" uid="439947" lat="49.2625182" lon="5.6083356"/>
 <node id="2334182828" visible="true" version="1" changeset="16441711" timestamp="2013-06-06T07:58:13Z" user="StephaneP" uid="439947" lat="49.2629046" lon="5.6078842"/>
 <node id="2334182829" visible="true" version="1" changeset="16441711" timestamp="2013-06-06T07:58:13Z" user="StephaneP" uid="439947" lat="49.2630817" lon="5.6076849"/>
 <node id="2334182830" visible="true" version="1" changeset="16441711" timestamp="2013-06-06T07:58:13Z" user="StephaneP" uid="439947" lat="49.2633069" lon="5.6075005"/>
 <node id="2334182831" visible="true" version="1" changeset="16441711" timestamp="2013-06-06T07:58:13Z" user="StephaneP" uid="439947" lat="49.2635459" lon="5.6072856"/>
 <node id="2334182832" visible="true" version="1" changeset="16441711" timestamp="2013-06-06T07:58:13Z" user="StephaneP" uid="439947" lat="49.2637525" lon="5.6070374"/>
 <node id="2334182833" visible="true" version="1" changeset="16441711" timestamp="2013-06-06T07:58:13Z" user="StephaneP" uid="439947" lat="49.2641803" lon="5.6064794"/>
 <node id="2334182834" visible="true" version="1" changeset="16441711" timestamp="2013-06-06T07:58:13Z" user="StephaneP" uid="439947" lat="49.2642241" lon="5.6063806"/>
 <node id="2334182835" visible="true" version="1" changeset="16441711" timestamp="2013-06-06T07:58:13Z" user="StephaneP" uid="439947" lat="49.2642984" lon="5.6061979"/>
 <node id="2334182836" visible="true" version="1" changeset="16441711" timestamp="2013-06-06T07:58:13Z" user="StephaneP" uid="439947" lat="49.2645421" lon="5.6059052"/>
 <node id="2334182837" visible="true" version="1" changeset="16441711" timestamp="2013-06-06T07:58:13Z" user="StephaneP" uid="439947" lat="49.2647434" lon="5.6055745"/>
 <node id="2334182838" visible="true" version="1" changeset="16441711" timestamp="2013-06-06T07:58:13Z" user="StephaneP" uid="439947" lat="49.2648752" lon="5.6053486"/>
 <node id="2334182839" visible="true" version="1" changeset="16441711" timestamp="2013-06-06T07:58:13Z" user="StephaneP" uid="439947" lat="49.2651198" lon="5.6048449"/>
 <node id="2334182840" visible="true" version="1" changeset="16441711" timestamp="2013-06-06T07:58:13Z" user="StephaneP" uid="439947" lat="49.2653941" lon="5.6042844"/>
 <node id="2334182841" visible="true" version="1" changeset="16441711" timestamp="2013-06-06T07:58:13Z" user="StephaneP" uid="439947" lat="49.2654308" lon="5.6040718"/>
 <node id="2334182842" visible="true" version="1" changeset="16441711" timestamp="2013-06-06T07:58:13Z" user="StephaneP" uid="439947" lat="49.2656237" lon="5.6037679"/>
 <node id="2334182843" visible="true" version="1" changeset="16441711" timestamp="2013-06-06T07:58:13Z" user="StephaneP" uid="439947" lat="49.2657277" lon="5.6033487"/>
 <node id="2334182844" visible="true" version="1" changeset="16441711" timestamp="2013-06-06T07:58:13Z" user="StephaneP" uid="439947" lat="49.2658119" lon="5.6030884"/>
 <node id="2334182845" visible="true" version="1" changeset="16441711" timestamp="2013-06-06T07:58:13Z" user="StephaneP" uid="439947" lat="49.2660113" lon="5.6026441"/>
 <node id="2334182846" visible="true" version="1" changeset="16441711" timestamp="2013-06-06T07:58:13Z" user="StephaneP" uid="439947" lat="49.2662500" lon="5.6024371"/>
 <node id="2334182847" visible="true" version="1" changeset="16441711" timestamp="2013-06-06T07:58:13Z" user="StephaneP" uid="439947" lat="49.2667232" lon="5.6022613"/>
 <node id="2334182848" visible="true" version="1" changeset="16441711" timestamp="2013-06-06T07:58:13Z" user="StephaneP" uid="439947" lat="49.2669699" lon="5.6024027"/>
 <node id="2334182849" visible="true" version="1" changeset="16441711" timestamp="2013-06-06T07:58:13Z" user="StephaneP" uid="439947" lat="49.2670642" lon="5.6026866"/>
 <node id="2334182850" visible="true" version="1" changeset="16441711" timestamp="2013-06-06T07:58:13Z" user="StephaneP" uid="439947" lat="49.2671823" lon="5.6027648"/>
 <node id="2334182851" visible="true" version="1" changeset="16441711" timestamp="2013-06-06T07:58:13Z" user="StephaneP" uid="439947" lat="49.2672746" lon="5.6029390"/>
 <node id="2334182852" visible="true" version="1" changeset="16441711" timestamp="2013-06-06T07:58:13Z" user="StephaneP" uid="439947" lat="49.2674423" lon="5.6030674"/>
 <node id="2334182853" visible="true" version="1" changeset="16441711" timestamp="2013-06-06T07:58:13Z" user="StephaneP" uid="439947" lat="49.2675827" lon="5.6032605"/>
 <node id="2334182854" visible="true" version="1" changeset="16441711" timestamp="2013-06-06T07:58:13Z" user="StephaneP" uid="439947" lat="49.2676222" lon="5.6034000"/>
 <node id="2334182855" visible="true" version="1" changeset="16441711" timestamp="2013-06-06T07:58:13Z" user="StephaneP" uid="439947" lat="49.2678039" lon="5.6034902"/>
 <node id="2334182856" visible="true" version="1" changeset="16441711" timestamp="2013-06-06T07:58:13Z" user="StephaneP" uid="439947" lat="49.2678336" lon="5.6036173"/>
 <node id="2334182857" visible="true" version="1" changeset="16441711" timestamp="2013-06-06T07:58:13Z" user="StephaneP" uid="439947" lat="49.2679205" lon="5.6039789"/>
 <node id="2334182858" visible="true" version="1" changeset="16441711" timestamp="2013-06-06T07:58:13Z" user="StephaneP" uid="439947" lat="49.2680463" lon="5.6042753"/>
 <node id="2334182859" visible="true" version="1" changeset="16441711" timestamp="2013-06-06T07:58:13Z" user="StephaneP" uid="439947" lat="49.2682220" lon="5.6045883"/>
 <node id="2334182860" visible="true" version="1" changeset="16441711" timestamp="2013-06-06T07:58:13Z" user="StephaneP" uid="439947" lat="49.2683113" lon="5.6047546"/>
 <node id="2334182861" visible="true" version="1" changeset="16441711" timestamp="2013-06-06T07:58:13Z" user="StephaneP" uid="439947" lat="49.2683320" lon="5.6049190"/>
 <node id="2334182862" visible="true" version="1" changeset="16441711" timestamp="2013-06-06T07:58:13Z" user="StephaneP" uid="439947" lat="49.2684122" lon="5.6050267"/>
 <node id="2334182863" visible="true" version="1" changeset="16441711" timestamp="2013-06-06T07:58:13Z" user="StephaneP" uid="439947" lat="49.2685470" lon="5.6050577"/>
 <node id="2334182864" visible="true" version="1" changeset="16441711" timestamp="2013-06-06T07:58:13Z" user="StephaneP" uid="439947" lat="49.2687006" lon="5.6053831"/>
 <node id="2334182865" visible="true" version="1" changeset="16441711" timestamp="2013-06-06T07:58:13Z" user="StephaneP" uid="439947" lat="49.2687036" lon="5.6055326"/>
 <node id="2334182866" visible="true" version="1" changeset="16441711" timestamp="2013-06-06T07:58:13Z" user="StephaneP" uid="439947" lat="49.2688184" lon="5.6058831"/>
 <node id="2334182867" visible="true" version="1" changeset="16441711" timestamp="2013-06-06T07:58:13Z" user="StephaneP" uid="439947" lat="49.2689129" lon="5.6061243"/>
 <node id="2334182868" visible="true" version="1" changeset="16441711" timestamp="2013-06-06T07:58:13Z" user="StephaneP" uid="439947" lat="49.2690252" lon="5.6061843"/>
 <node id="2334182869" visible="true" version="1" changeset="16441711" timestamp="2013-06-06T07:58:13Z" user="StephaneP" uid="439947" lat="49.2690736" lon="5.6063894"/>
 <node id="2334182870" visible="true" version="1" changeset="16441711" timestamp="2013-06-06T07:58:13Z" user="StephaneP" uid="439947" lat="49.2690749" lon="5.6062816"/>
 <node id="2334182871" visible="true" version="1" changeset="16441711" timestamp="2013-06-06T07:58:13Z" user="StephaneP" uid="439947" lat="49.2690788" lon="5.6065252"/>
 <node id="2334189896" visible="true" version="1" changeset="16441932" timestamp="2013-06-06T08:20:55Z" user="StephaneP" uid="439947" lat="49.2681133" lon="5.6322022"/>
 <node id="2334189897" visible="true" version="1" changeset="16441932" timestamp="2013-06-06T08:20:55Z" user="StephaneP" uid="439947" lat="49.2684360" lon="5.6329964"/>
 <node id="2334189898" visible="true" version="1" changeset="16441932" timestamp="2013-06-06T08:20:55Z" user="StephaneP" uid="439947" lat="49.2686707" lon="5.6318618"/>
 <node id="2334189899" visible="true" version="1" changeset="16441932" timestamp="2013-06-06T08:20:55Z" user="StephaneP" uid="439947" lat="49.2691573" lon="5.6315755"/>
 <node id="2334189901" visible="true" version="1" changeset="16441932" timestamp="2013-06-06T08:20:55Z" user="StephaneP" uid="439947" lat="49.2692114" lon="5.6235940"/>
 <node id="2334189902" visible="true" version="1" changeset="16441932" timestamp="2013-06-06T08:20:55Z" user="StephaneP" uid="439947" lat="49.2692205" lon="5.6236676"/>
 <node id="2334189903" visible="true" version="1" changeset="16441932" timestamp="2013-06-06T08:20:55Z" user="StephaneP" uid="439947" lat="49.2692519" lon="5.6238006"/>
 <node id="2334189904" visible="true" version="1" changeset="16441932" timestamp="2013-06-06T08:20:55Z" user="StephaneP" uid="439947" lat="49.2692880" lon="5.6218459"/>
 <node id="2334189905" visible="true" version="1" changeset="16441932" timestamp="2013-06-06T08:20:55Z" user="StephaneP" uid="439947" lat="49.2693079" lon="5.6063306"/>
 <node id="2334189906" visible="true" version="1" changeset="16441932" timestamp="2013-06-06T08:20:55Z" user="StephaneP" uid="439947" lat="49.2693104" lon="5.6228818"/>
 <node id="2334189907" visible="true" version="1" changeset="16441932" timestamp="2013-06-06T08:20:55Z" user="StephaneP" uid="439947" lat="49.2693310" lon="5.6227501"/>
 <node id="2334189908" visible="true" version="1" changeset="16441932" timestamp="2013-06-06T08:20:55Z" user="StephaneP" uid="439947" lat="49.2693392" lon="5.6314975"/>
 <node id="2334189909" visible="true" version="1" changeset="16441932" timestamp="2013-06-06T08:20:55Z" user="StephaneP" uid="439947" lat="49.2693413" lon="5.6240598"/>
 <node id="2334189910" visible="true" version="1" changeset="16441932" timestamp="2013-06-06T08:20:55Z" user="StephaneP" uid="439947" lat="49.2693476" lon="5.6222190"/>
 <node id="2334189912" visible="true" version="1" changeset="16441932" timestamp="2013-06-06T08:20:55Z" user="StephaneP" uid="439947" lat="49.2693896" lon="5.6244364"/>
 <node id="2334189913" visible="true" version="1" changeset="16441932" timestamp="2013-06-06T08:20:55Z" user="StephaneP" uid="439947" lat="49.2693920" lon="5.6247456"/>
 <node id="2334189914" visible="true" version="1" changeset="16441932" timestamp="2013-06-06T08:20:55Z" user="StephaneP" uid="439947" lat="49.2694388" lon="5.6207444"/>
 <node id="2334189915" visible="true" version="1" changeset="16441932" timestamp="2013-06-06T08:20:55Z" user="StephaneP" uid="439947" lat="49.2694559" lon="5.6277156"/>
 <node id="2334189916" visible="true" version="1" changeset="16441932" timestamp="2013-06-06T08:20:55Z" user="StephaneP" uid="439947" lat="49.2694783" lon="5.6287986"/>
 <node id="2334189917" visible="true" version="1" changeset="16441932" timestamp="2013-06-06T08:20:55Z" user="StephaneP" uid="439947" lat="49.2695408" lon="5.6316183"/>
 <node id="2334189918" visible="true" version="1" changeset="16441932" timestamp="2013-06-06T08:20:55Z" user="StephaneP" uid="439947" lat="49.2697155" lon="5.6361765"/>
 <node id="2334189919" visible="true" version="1" changeset="16441932" timestamp="2013-06-06T08:20:55Z" user="StephaneP" uid="439947" lat="49.2698054" lon="5.6058359"/>
 <node id="2334189921" visible="true" version="1" changeset="16441932" timestamp="2013-06-06T08:20:55Z" user="StephaneP" uid="439947" lat="49.2698119" lon="5.6062505"/>
 <node id="2334189922" visible="true" version="1" changeset="16441932" timestamp="2013-06-06T08:20:55Z" user="StephaneP" uid="439947" lat="49.2698906" lon="5.6064629"/>
 <node id="2334189923" visible="true" version="1" changeset="16441932" timestamp="2013-06-06T08:20:55Z" user="StephaneP" uid="439947" lat="49.2699603" lon="5.6072641"/>
 <node id="2334189924" visible="true" version="1" changeset="16441932" timestamp="2013-06-06T08:20:55Z" user="StephaneP" uid="439947" lat="49.2699634" lon="5.6066987"/>
 <node id="2334189925" visible="true" version="1" changeset="16441932" timestamp="2013-06-06T08:20:55Z" user="StephaneP" uid="439947" lat="49.2699815" lon="5.6068393"/>
 <node id="2334189926" visible="true" version="1" changeset="16441932" timestamp="2013-06-06T08:20:55Z" user="StephaneP" uid="439947" lat="49.2700257" lon="5.6076250"/>
 <node id="2334189927" visible="true" version="1" changeset="16441932" timestamp="2013-06-06T08:20:55Z" user="StephaneP" uid="439947" lat="49.2701396" lon="5.6079253"/>
 <node id="2334189928" visible="true" version="1" changeset="16441932" timestamp="2013-06-06T08:20:55Z" user="StephaneP" uid="439947" lat="49.2701786" lon="5.6080673"/>
 <node id="2334189930" visible="true" version="1" changeset="16441932" timestamp="2013-06-06T08:20:55Z" user="StephaneP" uid="439947" lat="49.2702334" lon="5.6083876"/>
 <node id="2334189931" visible="true" version="1" changeset="16441932" timestamp="2013-06-06T08:20:55Z" user="StephaneP" uid="439947" lat="49.2703974" lon="5.6087609"/>
 <node id="2334189932" visible="true" version="1" changeset="16441932" timestamp="2013-06-06T08:20:55Z" user="StephaneP" uid="439947" lat="49.2705047" lon="5.6087900"/>
 <node id="2334189933" visible="true" version="1" changeset="16441932" timestamp="2013-06-06T08:20:55Z" user="StephaneP" uid="439947" lat="49.2707346" lon="5.6089546"/>
 <node id="2334189934" visible="true" version="1" changeset="16441932" timestamp="2013-06-06T08:20:55Z" user="StephaneP" uid="439947" lat="49.2707866" lon="5.6090059"/>
 <node id="2334189935" visible="true" version="1" changeset="16441932" timestamp="2013-06-06T08:20:55Z" user="StephaneP" uid="439947" lat="49.2708538" lon="5.6100335"/>
 <node id="2334189936" visible="true" version="1" changeset="16441932" timestamp="2013-06-06T08:20:55Z" user="StephaneP" uid="439947" lat="49.2710290" lon="5.6394363"/>
 <node id="2334189938" visible="true" version="1" changeset="16441932" timestamp="2013-06-06T08:20:55Z" user="StephaneP" uid="439947" lat="49.2710550" lon="5.6091014"/>
 <node id="2334189939" visible="true" version="1" changeset="16441932" timestamp="2013-06-06T08:20:55Z" user="StephaneP" uid="439947" lat="49.2711817" lon="5.6092293"/>
 <node id="2334189940" visible="true" version="1" changeset="16441932" timestamp="2013-06-06T08:20:55Z" user="StephaneP" uid="439947" lat="49.2712381" lon="5.6093525"/>
 <node id="2334189941" visible="true" version="1" changeset="16441932" timestamp="2013-06-06T08:20:56Z" user="StephaneP" uid="439947" lat="49.2713261" lon="5.6093743"/>
 <node id="2334189942" visible="true" version="1" changeset="16441932" timestamp="2013-06-06T08:20:56Z" user="StephaneP" uid="439947" lat="49.2714714" lon="5.6093063"/>
 <node id="2334189943" visible="true" version="1" changeset="16441932" timestamp="2013-06-06T08:20:56Z" user="StephaneP" uid="439947" lat="49.2715252" lon="5.6092939"/>
 <node id="2334189944" visible="true" version="1" changeset="16441932" timestamp="2013-06-06T08:20:56Z" user="StephaneP" uid="439947" lat="49.2715317" lon="5.6095034"/>
 <node id="2334189945" visible="true" version="1" changeset="16441932" timestamp="2013-06-06T08:20:56Z" user="StephaneP" uid="439947" lat="49.2715702" lon="5.6093536"/>
 <node id="2334189946" visible="true" version="1" changeset="16441932" timestamp="2013-06-06T08:20:56Z" user="StephaneP" uid="439947" lat="49.2716215" lon="5.6094344"/>
 <node id="2334189947" visible="true" version="1" changeset="16441932" timestamp="2013-06-06T08:20:56Z" user="StephaneP" uid="439947" lat="49.2716557" lon="5.6094549"/>
 <node id="2334189949" visible="true" version="1" changeset="16441932" timestamp="2013-06-06T08:20:56Z" user="StephaneP" uid="439947" lat="49.2717409" lon="5.6094955"/>
 <node id="2334189950" visible="true" version="1" changeset="16441932" timestamp="2013-06-06T08:20:56Z" user="StephaneP" uid="439947" lat="49.2718131" lon="5.6095397"/>
 <node id="2334189951" visible="true" version="1" changeset="16441932" timestamp="2013-06-06T08:20:56Z" user="StephaneP" uid="439947" lat="49.2718206" lon="5.6098102"/>
 <node id="2334189952" visible="true" version="1" changeset="16441932" timestamp="2013-06-06T08:20:56Z" user="StephaneP" uid="439947" lat="49.2718502" lon="5.6095999"/>
 <node id="2334189953" visible="true" version="1" changeset="16441932" timestamp="2013-06-06T08:20:56Z" user="StephaneP" uid="439947" lat="49.2718530" lon="5.6097442"/>
 <node id="2334189954" visible="true" version="1" changeset="16441932" timestamp="2013-06-06T08:20:56Z" user="StephaneP" uid="439947" lat="49.2718630" lon="5.6096705"/>
 <node id="2334189955" visible="true" version="1" changeset="16441932" timestamp="2013-06-06T08:20:56Z" user="StephaneP" uid="439947" lat="49.2726159" lon="5.6454612"/>
 <node id="2334189956" visible="true" version="1" changeset="16441932" timestamp="2013-06-06T08:20:56Z" user="StephaneP" uid="439947" lat="49.2731497" lon="5.6470632"/>
 <node id="2334189957" visible="true" version="1" changeset="16441932" timestamp="2013-06-06T08:20:56Z" user="StephaneP" uid="439947" lat="49.2731964" lon="5.6447452"/>
 <node id="2334189958" visible="true" version="1" changeset="16441932" timestamp="2013-06-06T08:20:56Z" user="StephaneP" uid="439947" lat="49.2741228" lon="5.6499634"/>
 <node id="2334189960" visible="true" version="1" changeset="16441932" timestamp="2013-06-06T08:20:56Z" user="StephaneP" uid="439947" lat="49.2745894" lon="5.6514153"/>
 <node id="2334189961" visible="true" version="1" changeset="16441932" timestamp="2013-06-06T08:20:56Z" user="StephaneP" uid="439947" lat="49.2755598" lon="5.6542669"/>
 <node id="2334189962" visible="true" version="1" changeset="16441932" timestamp="2013-06-06T08:20:56Z" user="StephaneP" uid="439947" lat="49.2761235" lon="5.6559318"/>
 <node id="2334189963" visible="true" version="1" changeset="16441932" timestamp="2013-06-06T08:20:56Z" user="StephaneP" uid="439947" lat="49.2764404" lon="5.6600873"/>
 <node id="2334189964" visible="true" version="1" changeset="16441932" timestamp="2013-06-06T08:20:56Z" user="StephaneP" uid="439947" lat="49.2764926" lon="5.6581421"/>
 <node id="2334189965" visible="true" version="1" changeset="16441932" timestamp="2013-06-06T08:20:56Z" user="StephaneP" uid="439947" lat="49.2765364" lon="5.6556622"/>
 <node id="2334189966" visible="true" version="1" changeset="16441932" timestamp="2013-06-06T08:20:56Z" user="StephaneP" uid="439947" lat="49.2787369" lon="5.6595137"/>
 <node id="2345240162" visible="true" version="1" changeset="16559753" timestamp="2013-06-15T07:38:37Z" user="Jeece" uid="1455268" lat="49.2782162" lon="5.6464051"/>
 <node id="2345240165" visible="true" version="1" changeset="16559753" timestamp="2013-06-15T07:38:37Z" user="Jeece" uid="1455268" lat="49.2777654" lon="5.6476701"/>
 <node id="2345240167" visible="true" version="1" changeset="16559753" timestamp="2013-06-15T07:38:37Z" user="Jeece" uid="1455268" lat="49.2775065" lon="5.6501485"/>
 <node id="2345240172" visible="true" version="2" changeset="32079794" timestamp="2015-06-19T17:00:17Z" user="olive55" uid="2762634" lat="49.2774480" lon="5.6493876"/>
 <node id="2345240174" visible="true" version="2" changeset="32079794" timestamp="2015-06-19T17:00:17Z" user="olive55" uid="2762634" lat="49.2774672" lon="5.6487787"/>
 <node id="2345240176" visible="true" version="1" changeset="16559753" timestamp="2013-06-15T07:38:38Z" user="Jeece" uid="1455268" lat="49.2774435" lon="5.6508888"/>
 <node id="2345240196" visible="true" version="2" changeset="128582325" timestamp="2022-11-07T06:50:04Z" user="EUMapper" uid="11746909" lat="49.2765152" lon="5.6552873"/>
 <node id="2345240197" visible="true" version="1" changeset="16559753" timestamp="2013-06-15T07:38:38Z" user="Jeece" uid="1455268" lat="49.2765055" lon="5.6545580"/>
 <node id="2345240199" visible="true" version="1" changeset="16559753" timestamp="2013-06-15T07:38:38Z" user="Jeece" uid="1455268" lat="49.2766315" lon="5.6541932"/>
 <node id="2345240201" visible="true" version="1" changeset="16559753" timestamp="2013-06-15T07:38:38Z" user="Jeece" uid="1455268" lat="49.2769675" lon="5.6535602"/>
 <node id="2345240207" visible="true" version="3" changeset="128582325" timestamp="2022-11-07T06:50:04Z" user="EUMapper" uid="11746909" lat="49.2764227" lon="5.6600999"/>
 <node id="2478627253" visible="true" version="2" changeset="117836941" timestamp="2022-02-25T06:59:54Z" user="Max-Kritic" uid="414659" lat="49.1835167" lon="5.4773139">
  <tag k="height" v="21"/>
  <tag k="operator" v="RTE"/>
  <tag k="power" v="tower"/>
  <tag k="ref" v="88"/>
  <tag k="source" v="data.gouv.fr:RTE - 2022-01"/>
 </node>
 <node id="2882629600" visible="true" version="2" changeset="144882641" timestamp="2023-12-07T22:30:17Z" user="AmiFritz" uid="172867" lat="49.1646633" lon="5.4441550">
  <tag k="operator" v="RTE"/>
  <tag k="power" v="tower"/>
  <tag k="ref" v="99"/>
 </node>
 <node id="2882630502" visible="true" version="2" changeset="144882641" timestamp="2023-12-07T22:30:17Z" user="AmiFritz" uid="172867" lat="49.1664436" lon="5.4471036">
  <tag k="operator" v="RTE"/>
  <tag k="power" v="tower"/>
  <tag k="ref" v="98"/>
  <tag k="source" v="Bing Sat"/>
 </node>
 <node id="2882630552" visible="true" version="2" changeset="144882641" timestamp="2023-12-07T22:30:17Z" user="AmiFritz" uid="172867" lat="49.1688740" lon="5.4510786">
  <tag k="operator" v="RTE"/>
  <tag k="power" v="tower"/>
  <tag k="ref" v="97"/>
  <tag k="source" v="Bing Sat"/>
 </node>
 <node id="2882630566" visible="true" version="2" changeset="144882641" timestamp="2023-12-07T22:30:17Z" user="AmiFritz" uid="172867" lat="49.1704225" lon="5.4536111">
  <tag k="operator" v="RTE"/>
  <tag k="power" v="tower"/>
  <tag k="ref" v="96"/>
  <tag k="source" v="Bing Sat"/>
 </node>
 <node id="2882630575" visible="true" version="2" changeset="144882641" timestamp="2023-12-07T22:30:17Z" user="AmiFritz" uid="172867" lat="49.1725924" lon="5.4571771">
  <tag k="height" v="26"/>
  <tag k="operator" v="RTE"/>
  <tag k="power" v="tower"/>
  <tag k="ref" v="95"/>
  <tag k="source" v="Bing Sat"/>
 </node>
 <node id="2882630584" visible="true" version="2" changeset="144882641" timestamp="2023-12-07T22:30:17Z" user="AmiFritz" uid="172867" lat="49.1744776" lon="5.4602628">
  <tag k="operator" v="RTE"/>
  <tag k="power" v="tower"/>
  <tag k="ref" v="94"/>
  <tag k="source" v="Bing Sat"/>
 </node>
 <node id="2882630591" visible="true" version="2" changeset="144882641" timestamp="2023-12-07T22:30:17Z" user="AmiFritz" uid="172867" lat="49.1794772" lon="5.4696900">
  <tag k="height" v="23"/>
  <tag k="operator" v="RTE"/>
  <tag k="power" v="tower"/>
  <tag k="ref" v="91"/>
 </node>
 <node id="3168070201" visible="true" version="1" changeset="26564973" timestamp="2014-11-05T07:24:50Z" user="Denis_Helfer" uid="22165" lat="49.2784046" lon="5.6755583"/>
 <node id="3499359334" visible="true" version="2" changeset="144882641" timestamp="2023-12-07T22:30:17Z" user="AmiFritz" uid="172867" lat="49.1620677" lon="5.4399055">
  <tag k="operator" v="RTE"/>
  <tag k="power" v="tower"/>
  <tag k="ref" v="100"/>
 </node>
 <node id="3605443212" visible="true" version="4" changeset="125199848" timestamp="2022-08-21T21:16:19Z" user="user_5589" uid="5589" lat="49.2590690" lon="5.6544002">
  <tag k="operator" v="Enedis"/>
  <tag k="operator:wikidata" v="Q3587594"/>
  <tag k="power" v="pole"/>
 </node>
 <node id="3605443213" visible="true" version="4" changeset="125199848" timestamp="2022-08-21T21:16:19Z" user="user_5589" uid="5589" lat="49.2600213" lon="5.6538253">
  <tag k="operator" v="Enedis"/>
  <tag k="operator:wikidata" v="Q3587594"/>
  <tag k="power" v="pole"/>
 </node>
 <node id="3605443214" visible="true" version="4" changeset="125199848" timestamp="2022-08-21T21:16:19Z" user="user_5589" uid="5589" lat="49.2612656" lon="5.6528683">
  <tag k="operator" v="Enedis"/>
  <tag k="operator:wikidata" v="Q3587594"/>
  <tag k="power" v="pole"/>
 </node>
 <node id="3605443215" visible="true" version="4" changeset="125199848" timestamp="2022-08-21T21:16:19Z" user="user_5589" uid="5589" lat="49.2633434" lon="5.6512273">
  <tag k="operator" v="Enedis"/>
  <tag k="operator:wikidata" v="Q3587594"/>
  <tag k="power" v="pole"/>
 </node>
 <node id="3605443216" visible="true" version="4" changeset="125199848" timestamp="2022-08-21T21:16:19Z" user="user_5589" uid="5589" lat="49.2649674" lon="5.6511167">
  <tag k="operator" v="Enedis"/>
  <tag k="operator:wikidata" v="Q3587594"/>
  <tag k="power" v="pole"/>
 </node>
 <node id="3605443217" visible="true" version="4" changeset="125199848" timestamp="2022-08-21T21:16:19Z" user="user_5589" uid="5589" lat="49.2575897" lon="5.6557663">
  <tag k="operator" v="Enedis"/>
  <tag k="operator:wikidata" v="Q3587594"/>
  <tag k="power" v="pole"/>
 </node>
 <node id="3605443218" visible="true" version="4" changeset="125199848" timestamp="2022-08-21T21:16:19Z" user="user_5589" uid="5589" lat="49.2589220" lon="5.6546493">
  <tag k="operator" v="Enedis"/>
  <tag k="operator:wikidata" v="Q3587594"/>
  <tag k="power" v="pole"/>
 </node>
 <node id="3605443219" visible="true" version="4" changeset="125199848" timestamp="2022-08-21T21:16:19Z" user="user_5589" uid="5589" lat="49.2562361" lon="5.6570799">
  <tag k="operator" v="Enedis"/>
  <tag k="operator:wikidata" v="Q3587594"/>
  <tag k="power" v="pole"/>
 </node>
 <node id="3605443220" visible="true" version="4" changeset="125199848" timestamp="2022-08-21T21:16:19Z" user="user_5589" uid="5589" lat="49.2667161" lon="5.6509858">
  <tag k="operator" v="Enedis"/>
  <tag k="operator:wikidata" v="Q3587594"/>
  <tag k="power" v="pole"/>
 </node>
 <node id="3605443221" visible="true" version="4" changeset="125199848" timestamp="2022-08-21T21:16:19Z" user="user_5589" uid="5589" lat="49.2680986" lon="5.6520092">
  <tag k="operator" v="Enedis"/>
  <tag k="operator:wikidata" v="Q3587594"/>
  <tag k="power" v="pole"/>
 </node>
 <node id="3605443222" visible="true" version="5" changeset="125199848" timestamp="2022-08-21T21:16:19Z" user="user_5589" uid="5589" lat="49.2695681" lon="5.6530942">
  <tag k="operator" v="Enedis"/>
  <tag k="operator:wikidata" v="Q3587594"/>
  <tag k="power" v="pole"/>
 </node>
 <node id="3605447045" visible="true" version="4" changeset="126051820" timestamp="2022-09-11T14:37:44Z" user="user_5589" uid="5589" lat="49.2396083" lon="5.6642811">
  <tag k="operator" v="Enedis"/>
  <tag k="operator:wikidata" v="Q3587594"/>
  <tag k="power" v="pole"/>
 </node>
 <node id="3605447046" visible="true" version="4" changeset="126051820" timestamp="2022-09-11T14:37:44Z" user="user_5589" uid="5589" lat="49.2405538" lon="5.6639500">
  <tag k="operator" v="Enedis"/>
  <tag k="operator:wikidata" v="Q3587594"/>
  <tag k="power" v="pole"/>
 </node>
 <node id="3605447047" visible="true" version="4" changeset="126051820" timestamp="2022-09-11T14:37:44Z" user="user_5589" uid="5589" lat="49.2390952" lon="5.6639572">
  <tag k="operator" v="Enedis"/>
  <tag k="operator:wikidata" v="Q3587594"/>
  <tag k="power" v="pole"/>
 </node>
 <node id="3605450644" visible="true" version="4" changeset="126051820" timestamp="2022-09-11T14:37:44Z" user="user_5589" uid="5589" lat="49.2419547" lon="5.6634409">
  <tag k="operator" v="Enedis"/>
  <tag k="operator:wikidata" v="Q3587594"/>
  <tag k="power" v="pole"/>
 </node>
 <node id="3605450645" visible="true" version="4" changeset="126051820" timestamp="2022-09-11T14:37:44Z" user="user_5589" uid="5589" lat="49.2435708" lon="5.6628715">
  <tag k="operator" v="Enedis"/>
  <tag k="operator:wikidata" v="Q3587594"/>
  <tag k="power" v="pole"/>
 </node>
 <node id="3605450646" visible="true" version="4" changeset="126051820" timestamp="2022-09-11T14:37:44Z" user="user_5589" uid="5589" lat="49.2448698" lon="5.6624100">
  <tag k="operator" v="Enedis"/>
  <tag k="operator:wikidata" v="Q3587594"/>
  <tag k="power" v="pole"/>
 </node>
 <node id="3605450647" visible="true" version="4" changeset="126051820" timestamp="2022-09-11T14:37:44Z" user="user_5589" uid="5589" lat="49.2462123" lon="5.6618615">
  <tag k="operator" v="Enedis"/>
  <tag k="operator:wikidata" v="Q3587594"/>
  <tag k="power" v="pole"/>
 </node>
 <node id="3605450648" visible="true" version="4" changeset="126051820" timestamp="2022-09-11T14:37:44Z" user="user_5589" uid="5589" lat="49.2475461" lon="5.6614570">
  <tag k="operator" v="Enedis"/>
  <tag k="operator:wikidata" v="Q3587594"/>
  <tag k="power" v="pole"/>
 </node>
 <node id="3605450649" visible="true" version="4" changeset="126051820" timestamp="2022-09-11T14:37:44Z" user="user_5589" uid="5589" lat="49.2491072" lon="5.6608816">
  <tag k="operator" v="Enedis"/>
  <tag k="operator:wikidata" v="Q3587594"/>
  <tag k="power" v="pole"/>
 </node>
 <node id="3605450650" visible="true" version="4" changeset="126051820" timestamp="2022-09-11T14:37:44Z" user="user_5589" uid="5589" lat="49.2508093" lon="5.6603016">
  <tag k="operator" v="Enedis"/>
  <tag k="operator:wikidata" v="Q3587594"/>
  <tag k="power" v="pole"/>
 </node>
 <node id="3605450651" visible="true" version="4" changeset="126051820" timestamp="2022-09-11T14:37:44Z" user="user_5589" uid="5589" lat="49.2525337" lon="5.6596939">
  <tag k="operator" v="Enedis"/>
  <tag k="operator:wikidata" v="Q3587594"/>
  <tag k="power" v="pole"/>
 </node>
 <node id="3605450652" visible="true" version="4" changeset="125199848" timestamp="2022-08-21T21:16:19Z" user="user_5589" uid="5589" lat="49.2541487" lon="5.6591226">
  <tag k="operator" v="Enedis"/>
  <tag k="operator:wikidata" v="Q3587594"/>
  <tag k="power" v="pole"/>
 </node>
 <node id="3605450653" visible="true" version="4" changeset="125199848" timestamp="2022-08-21T21:16:19Z" user="user_5589" uid="5589" lat="49.2552317" lon="5.6580492">
  <tag k="operator" v="Enedis"/>
  <tag k="operator:wikidata" v="Q3587594"/>
  <tag k="power" v="pole"/>
 </node>
 <node id="3605455465" visible="true" version="4" changeset="125199848" timestamp="2022-08-21T21:16:19Z" user="user_5589" uid="5589" lat="49.2716112" lon="5.6577549">
  <tag k="operator" v="Enedis"/>
  <tag k="operator:wikidata" v="Q3587594"/>
  <tag k="power" v="pole"/>
 </node>
 <node id="3605455466" visible="true" version="4" changeset="125199848" timestamp="2022-08-21T21:16:19Z" user="user_5589" uid="5589" lat="49.2705084" lon="5.6552496">
  <tag k="operator" v="Enedis"/>
  <tag k="operator:wikidata" v="Q3587594"/>
  <tag k="power" v="pole"/>
 </node>
 <node id="3605457220" visible="true" version="4" changeset="125199848" timestamp="2022-08-21T21:16:19Z" user="user_5589" uid="5589" lat="49.2727282" lon="5.6603582">
  <tag k="operator" v="Enedis"/>
  <tag k="operator:wikidata" v="Q3587594"/>
  <tag k="power" v="pole"/>
 </node>
 <node id="3605457221" visible="true" version="4" changeset="125199848" timestamp="2022-08-21T21:16:19Z" user="user_5589" uid="5589" lat="49.2734790" lon="5.6620184">
  <tag k="operator" v="Enedis"/>
  <tag k="operator:wikidata" v="Q3587594"/>
  <tag k="power" v="pole"/>
 </node>
 <node id="3605457222" visible="true" version="4" changeset="125199848" timestamp="2022-08-21T21:16:19Z" user="user_5589" uid="5589" lat="49.2744879" lon="5.6643499">
  <tag k="operator" v="Enedis"/>
  <tag k="operator:wikidata" v="Q3587594"/>
  <tag k="power" v="pole"/>
 </node>
 <node id="3605457223" visible="true" version="4" changeset="125199848" timestamp="2022-08-21T21:16:19Z" user="user_5589" uid="5589" lat="49.2753990" lon="5.6664297">
  <tag k="operator" v="Enedis"/>
  <tag k="operator:wikidata" v="Q3587594"/>
  <tag k="power" v="pole"/>
 </node>
 <node id="3605457224" visible="true" version="4" changeset="125199848" timestamp="2022-08-21T21:16:19Z" user="user_5589" uid="5589" lat="49.2763922" lon="5.6686953">
  <tag k="operator" v="Enedis"/>
  <tag k="operator:wikidata" v="Q3587594"/>
  <tag k="power" v="pole"/>
 </node>
 <node id="3605457225" visible="true" version="4" changeset="125199848" timestamp="2022-08-21T21:16:19Z" user="user_5589" uid="5589" lat="49.2773190" lon="5.6707631">
  <tag k="operator" v="Enedis"/>
  <tag k="operator:wikidata" v="Q3587594"/>
  <tag k="power" v="pole"/>
 </node>
 <node id="3605457226" visible="true" version="4" changeset="125199848" timestamp="2022-08-21T21:16:19Z" user="user_5589" uid="5589" lat="49.2782340" lon="5.6728728">
  <tag k="operator" v="Enedis"/>
  <tag k="operator:wikidata" v="Q3587594"/>
  <tag k="power" v="pole"/>
 </node>
 <node id="3605457227" visible="true" version="4" changeset="125199848" timestamp="2022-08-21T21:16:19Z" user="user_5589" uid="5589" lat="49.2783630" lon="5.6756718">
  <tag k="operator" v="Enedis"/>
  <tag k="operator:wikidata" v="Q3587594"/>
  <tag k="power" v="pole"/>
 </node>
 <node id="3605457228" visible="true" version="4" changeset="125199848" timestamp="2022-08-21T21:16:19Z" user="user_5589" uid="5589" lat="49.2774324" lon="5.6766608">
  <tag k="operator" v="Enedis"/>
  <tag k="operator:wikidata" v="Q3587594"/>
  <tag k="power" v="pole"/>
 </node>
 <node id="3605457229" visible="true" version="4" changeset="125199848" timestamp="2022-08-21T21:16:19Z" user="user_5589" uid="5589" lat="49.2764978" lon="5.6777156">
  <tag k="operator" v="Enedis"/>
  <tag k="operator:wikidata" v="Q3587594"/>
  <tag k="power" v="pole"/>
 </node>
 <node id="3605458477" visible="true" version="4" changeset="125199848" timestamp="2022-08-21T21:16:19Z" user="user_5589" uid="5589" lat="49.2791151" lon="5.6748947">
  <tag k="operator" v="Enedis"/>
  <tag k="operator:wikidata" v="Q3587594"/>
  <tag k="power" v="pole"/>
 </node>
 <node id="3605486986" visible="true" version="5" changeset="125199848" timestamp="2022-08-21T21:16:19Z" user="user_5589" uid="5589" lat="49.2786011" lon="5.6701358">
  <tag k="operator" v="Enedis"/>
  <tag k="operator:wikidata" v="Q3587594"/>
  <tag k="power" v="pole"/>
 </node>
 <node id="3605486987" visible="true" version="5" changeset="125199848" timestamp="2022-08-21T21:16:19Z" user="user_5589" uid="5589" lat="49.2815610" lon="5.6687213">
  <tag k="operator" v="Enedis"/>
  <tag k="operator:wikidata" v="Q3587594"/>
  <tag k="power" v="pole"/>
 </node>
 <node id="3605486988" visible="true" version="5" changeset="125199848" timestamp="2022-08-21T21:16:19Z" user="user_5589" uid="5589" lat="49.2800621" lon="5.6694384">
  <tag k="operator" v="Enedis"/>
  <tag k="operator:wikidata" v="Q3587594"/>
  <tag k="power" v="pole"/>
 </node>
 <node id="3605486989" visible="true" version="5" changeset="125199848" timestamp="2022-08-21T21:16:19Z" user="user_5589" uid="5589" lat="49.2827016" lon="5.6681831">
  <tag k="operator" v="Enedis"/>
  <tag k="operator:wikidata" v="Q3587594"/>
  <tag k="power" v="pole"/>
 </node>
 <node id="3605486990" visible="true" version="5" changeset="125199848" timestamp="2022-08-21T21:16:19Z" user="user_5589" uid="5589" lat="49.2842350" lon="5.6674335">
  <tag k="operator" v="Enedis"/>
  <tag k="operator:wikidata" v="Q3587594"/>
  <tag k="power" v="pole"/>
 </node>
 <node id="3605486991" visible="true" version="5" changeset="125199848" timestamp="2022-08-21T21:16:19Z" user="user_5589" uid="5589" lat="49.2853078" lon="5.6669168">
  <tag k="operator" v="Enedis"/>
  <tag k="operator:wikidata" v="Q3587594"/>
  <tag k="power" v="pole"/>
 </node>
 <node id="3605486992" visible="true" version="5" changeset="125199848" timestamp="2022-08-21T21:16:19Z" user="user_5589" uid="5589" lat="49.2867701" lon="5.6661912">
  <tag k="operator" v="Enedis"/>
  <tag k="operator:wikidata" v="Q3587594"/>
  <tag k="power" v="pole"/>
 </node>
 <node id="3605488693" visible="true" version="5" changeset="125199848" timestamp="2022-08-21T21:16:19Z" user="user_5589" uid="5589" lat="49.2883885" lon="5.6654431">
  <tag k="operator" v="Enedis"/>
  <tag k="operator:wikidata" v="Q3587594"/>
  <tag k="power" v="pole"/>
 </node>
 <node id="3605488694" visible="true" version="5" changeset="125199848" timestamp="2022-08-21T21:16:19Z" user="user_5589" uid="5589" lat="49.2902855" lon="5.6645125">
  <tag k="operator" v="Enedis"/>
  <tag k="operator:wikidata" v="Q3587594"/>
  <tag k="power" v="pole"/>
 </node>
 <node id="3605488695" visible="true" version="5" changeset="125199848" timestamp="2022-08-21T21:16:19Z" user="user_5589" uid="5589" lat="49.2918022" lon="5.6637932">
  <tag k="operator" v="Enedis"/>
  <tag k="operator:wikidata" v="Q3587594"/>
  <tag k="power" v="pole"/>
 </node>
 <node id="3605488696" visible="true" version="5" changeset="125199848" timestamp="2022-08-21T21:16:19Z" user="user_5589" uid="5589" lat="49.2928772" lon="5.6632898">
  <tag k="operator" v="Enedis"/>
  <tag k="operator:wikidata" v="Q3587594"/>
  <tag k="power" v="pole"/>
 </node>
 <node id="3605559794" visible="true" version="1" changeset="32079794" timestamp="2015-06-19T17:00:17Z" user="olive55" uid="2762634" lat="49.2776002" lon="5.6482289"/>
 <node id="3605559795" visible="true" version="1" changeset="32079794" timestamp="2015-06-19T17:00:17Z" user="olive55" uid="2762634" lat="49.2775075" lon="5.6485668"/>
 <node id="3605559796" visible="true" version="1" changeset="32079794" timestamp="2015-06-19T17:00:17Z" user="olive55" uid="2762634" lat="49.2774427" lon="5.6489772"/>
 <node id="3605559797" visible="true" version="1" changeset="32079794" timestamp="2015-06-19T17:00:17Z" user="olive55" uid="2762634" lat="49.2774357" lon="5.6491650"/>
 <node id="3605559798" visible="true" version="1" changeset="32079794" timestamp="2015-06-19T17:00:17Z" user="olive55" uid="2762634" lat="49.2774795" lon="5.6496826"/>
 <node id="5630515673" visible="true" version="1" changeset="59122840" timestamp="2018-05-20T13:13:26Z" user="crln1" uid="2351029" lat="49.2754166" lon="5.6599736"/>
 <node id="5630515674" visible="true" version="1" changeset="59122840" timestamp="2018-05-20T13:13:26Z" user="crln1" uid="2351029" lat="49.2754201" lon="5.6600460"/>
 <node id="5630515675" visible="true" version="1" changeset="59122840" timestamp="2018-05-20T13:13:26Z" user="crln1" uid="2351029" lat="49.2753466" lon="5.6600567"/>
 <node id="5630515676" visible="true" version="1" changeset="59122840" timestamp="2018-05-20T13:13:26Z" user="crln1" uid="2351029" lat="49.2753396" lon="5.6599870"/>
 <node id="5630516253" visible="true" version="1" changeset="59122858" timestamp="2018-05-20T13:14:13Z" user="crln1" uid="2351029" lat="49.2752994" lon="5.6602284"/>
 <node id="5630516254" visible="true" version="1" changeset="59122858" timestamp="2018-05-20T13:14:13Z" user="crln1" uid="2351029" lat="49.2752136" lon="5.6602498"/>
 <node id="5630516255" visible="true" version="1" changeset="59122858" timestamp="2018-05-20T13:14:13Z" user="crln1" uid="2351029" lat="49.2752066" lon="5.6602069"/>
 <node id="5630516256" visible="true" version="1" changeset="59122858" timestamp="2018-05-20T13:14:13Z" user="crln1" uid="2351029" lat="49.2751839" lon="5.6602203"/>
 <node id="5630516257" visible="true" version="1" changeset="59122858" timestamp="2018-05-20T13:14:13Z" user="crln1" uid="2351029" lat="49.2751944" lon="5.6602686"/>
 <node id="5630516258" visible="true" version="1" changeset="59122858" timestamp="2018-05-20T13:14:13Z" user="crln1" uid="2351029" lat="49.2751261" lon="5.6603142"/>
 <node id="5630516259" visible="true" version="1" changeset="59122858" timestamp="2018-05-20T13:14:13Z" user="crln1" uid="2351029" lat="49.2750964" lon="5.6601828"/>
 <node id="5630516260" visible="true" version="1" changeset="59122858" timestamp="2018-05-20T13:14:13Z" user="crln1" uid="2351029" lat="49.2751646" lon="5.6601506"/>
 <node id="5630516261" visible="true" version="1" changeset="59122858" timestamp="2018-05-20T13:14:13Z" user="crln1" uid="2351029" lat="49.2751751" lon="5.6601881"/>
 <node id="5630516262" visible="true" version="1" changeset="59122858" timestamp="2018-05-20T13:14:13Z" user="crln1" uid="2351029" lat="49.2751996" lon="5.6601694"/>
 <node id="5630516263" visible="true" version="1" changeset="59122858" timestamp="2018-05-20T13:14:13Z" user="crln1" uid="2351029" lat="49.2751926" lon="5.6601050"/>
 <node id="5630516264" visible="true" version="1" changeset="59122858" timestamp="2018-05-20T13:14:13Z" user="crln1" uid="2351029" lat="49.2752591" lon="5.6600943"/>
 <node id="5630516265" visible="true" version="1" changeset="59122858" timestamp="2018-05-20T13:14:13Z" user="crln1" uid="2351029" lat="49.2752626" lon="5.6601291"/>
 <node id="5630516266" visible="true" version="1" changeset="59122858" timestamp="2018-05-20T13:14:14Z" user="crln1" uid="2351029" lat="49.2752906" lon="5.6601264"/>
 <node id="5765389980" visible="true" version="1" changeset="60789309" timestamp="2018-07-17T08:35:14Z" user="Jeece" uid="1455268" lat="49.2756083" lon="5.6642574"/>
 <node id="5765389981" visible="true" version="1" changeset="60789309" timestamp="2018-07-17T08:35:14Z" user="Jeece" uid="1455268" lat="49.2714280" lon="5.6673934"/>
 <node id="5765389982" visible="true" version="2" changeset="128582325" timestamp="2022-11-07T06:50:04Z" user="EUMapper" uid="11746909" lat="49.2739961" lon="5.6607182"/>
 <node id="5765389983" visible="true" version="2" changeset="128582325" timestamp="2022-11-07T06:50:04Z" user="EUMapper" uid="11746909" lat="49.2743431" lon="5.6617425"/>
 <node id="5765389984" visible="true" version="1" changeset="60789309" timestamp="2018-07-17T08:35:14Z" user="Jeece" uid="1455268" lat="49.2766277" lon="5.6666012"/>
 <node id="5765389985" visible="true" version="1" changeset="60789309" timestamp="2018-07-17T08:35:14Z" user="Jeece" uid="1455268" lat="49.2770663" lon="5.6676550"/>
 <node id="5765389986" visible="true" version="1" changeset="60789309" timestamp="2018-07-17T08:35:14Z" user="Jeece" uid="1455268" lat="49.2778249" lon="5.6712343"/>
 <node id="5765389987" visible="true" version="1" changeset="60789309" timestamp="2018-07-17T08:35:14Z" user="Jeece" uid="1455268" lat="49.2786072" lon="5.6745956"/>
 <node id="5765389988" visible="true" version="1" changeset="60789309" timestamp="2018-07-17T08:35:14Z" user="Jeece" uid="1455268" lat="49.2785242" lon="5.6753042"/>
 <node id="5765389989" visible="true" version="1" changeset="60789309" timestamp="2018-07-17T08:35:15Z" user="Jeece" uid="1455268" lat="49.2776234" lon="5.6628038">
  <tag k="name" v="A la GorgiÃ¨re"/>
  <tag k="place" v="locality"/>
 </node>
 <node id="5765389990" visible="true" version="1" changeset="60789309" timestamp="2018-07-17T08:35:15Z" user="Jeece" uid="1455268" lat="49.2763788" lon="5.6604418"/>
 <node id="5765389991" visible="true" version="1" changeset="60789309" timestamp="2018-07-17T08:35:15Z" user="Jeece" uid="1455268" lat="49.2760587" lon="5.6622769"/>
 <node id="5765389992" visible="true" version="1" changeset="60789309" timestamp="2018-07-17T08:35:15Z" user="Jeece" uid="1455268" lat="49.2766870" lon="5.6625858"/>
 <node id="5765389993" visible="true" version="1" changeset="60789309" timestamp="2018-07-17T08:35:15Z" user="Jeece" uid="1455268" lat="49.2780027" lon="5.6651840"/>
 <node id="5765389994" visible="true" version="1" changeset="60789309" timestamp="2018-07-17T08:35:15Z" user="Jeece" uid="1455268" lat="49.2781331" lon="5.6656564"/>
 <node id="5765389995" visible="true" version="1" changeset="60789309" timestamp="2018-07-17T08:35:15Z" user="Jeece" uid="1455268" lat="49.2814875" lon="5.6683818"/>
 <node id="5765405063" visible="true" version="1" changeset="60789616" timestamp="2018-07-17T08:41:57Z" user="Jeece" uid="1455268" lat="49.2594006" lon="5.6685259"/>
 <node id="5765405064" visible="true" version="1" changeset="60789616" timestamp="2018-07-17T08:41:57Z" user="Jeece" uid="1455268" lat="49.2632010" lon="5.6683196"/>
 <node id="5765405073" visible="true" version="1" changeset="60789616" timestamp="2018-07-17T08:41:57Z" user="Jeece" uid="1455268" lat="49.2740346" lon="5.6729838"/>
 <node id="5765405074" visible="true" version="1" changeset="60789616" timestamp="2018-07-17T08:41:57Z" user="Jeece" uid="1455268" lat="49.2747447" lon="5.6717718"/>
 <node id="5765405075" visible="true" version="1" changeset="60789616" timestamp="2018-07-17T08:41:57Z" user="Jeece" uid="1455268" lat="49.2747702" lon="5.6715504"/>
 <node id="5765405076" visible="true" version="1" changeset="60789616" timestamp="2018-07-17T08:41:57Z" user="Jeece" uid="1455268" lat="49.2743705" lon="5.6703077"/>
 <node id="5765405077" visible="true" version="1" changeset="60789616" timestamp="2018-07-17T08:41:57Z" user="Jeece" uid="1455268" lat="49.2770936" lon="5.6677837"/>
 <node id="5765405078" visible="true" version="1" changeset="60789616" timestamp="2018-07-17T08:41:57Z" user="Jeece" uid="1455268" lat="49.2785781" lon="5.6748440"/>
 <node id="5765405089" visible="true" version="1" changeset="60789616" timestamp="2018-07-17T08:41:57Z" user="Jeece" uid="1455268" lat="49.2854163" lon="5.6662715"/>
 <node id="5765405090" visible="true" version="2" changeset="128582325" timestamp="2022-11-07T06:50:04Z" user="EUMapper" uid="11746909" lat="49.2846839" lon="5.6579286"/>
 <node id="5798751746" visible="true" version="1" changeset="61228681" timestamp="2018-07-31T12:44:49Z" user="Jeece" uid="1455268" lat="49.2792282" lon="5.6684471">
  <tag k="name" v="Entre deux rats"/>
  <tag k="place" v="locality"/>
 </node>
 <node id="9533974075" visible="true" version="2" changeset="127630922" timestamp="2022-10-16T18:14:42Z" user="user_5589" uid="5589" lat="49.2511639" lon="5.6061472">
  <tag k="height" v="26"/>
  <tag k="operator" v="RTE"/>
  <tag k="operator:wikidata" v="Q2178795"/>
  <tag k="power" v="tower"/>
  <tag k="ref" v="50"/>
  <tag k="source" v="data.gouv.fr:RTE - 2022-01"/>
 </node>
 <node id="9533974076" visible="true" version="3" changeset="144881500" timestamp="2023-12-07T21:39:50Z" user="AmiFritz" uid="172867" lat="49.2479646" lon="5.5991956">
  <tag k="height" v="26"/>
  <tag k="operator" v="RTE"/>
  <tag k="operator:wikidata" v="Q2178795"/>
  <tag k="power" v="tower"/>
  <tag k="ref" v="52"/>
  <tag k="source" v="data.gouv.fr:RTE - 2022-01"/>
 </node>
 <node id="9533974077" visible="true" version="2" changeset="127630922" timestamp="2022-10-16T18:14:42Z" user="user_5589" uid="5589" lat="49.2305611" lon="5.5615252">
  <tag k="height" v="26"/>
  <tag k="operator" v="RTE"/>
  <tag k="operator:wikidata" v="Q2178795"/>
  <tag k="power" v="tower"/>
  <tag k="ref" v="63"/>
  <tag k="source" v="data.gouv.fr:RTE - 2022-01"/>
 </node>
 <node id="9533974078" visible="true" version="2" changeset="127630922" timestamp="2022-10-16T18:14:42Z" user="user_5589" uid="5589" lat="49.2288579" lon="5.5578154">
  <tag k="height" v="26"/>
  <tag k="operator" v="RTE"/>
  <tag k="operator:wikidata" v="Q2178795"/>
  <tag k="power" v="tower"/>
  <tag k="ref" v="64"/>
  <tag k="source" v="data.gouv.fr:RTE - 2022-01"/>
 </node>
 <node id="9533974079" visible="true" version="3" changeset="144881928" timestamp="2023-12-07T21:58:38Z" user="AmiFritz" uid="172867" lat="49.2103850" lon="5.5178728">
  <tag k="height" v="23"/>
  <tag k="operator" v="RTE"/>
  <tag k="operator:wikidata" v="Q2178795"/>
  <tag k="power" v="tower"/>
  <tag k="ref" v="75"/>
  <tag k="source" v="data.gouv.fr:RTE - 2022-01"/>
 </node>
 <node id="9533974080" visible="true" version="1" changeset="117836941" timestamp="2022-02-25T06:59:54Z" user="Max-Kritic" uid="414659" lat="49.1824917" lon="5.4753639">
  <tag k="height" v="26"/>
  <tag k="operator" v="RTE"/>
  <tag k="power" v="tower"/>
  <tag k="ref" v="89"/>
  <tag k="source" v="data.gouv.fr:RTE - 2022-01"/>
 </node>
 <node id="9533974082" visible="true" version="1" changeset="117836941" timestamp="2022-02-25T06:59:54Z" user="Max-Kritic" uid="414659" lat="49.1809861" lon="5.4725361">
  <tag k="height" v="23"/>
  <tag k="operator" v="RTE"/>
  <tag k="power" v="tower"/>
  <tag k="ref" v="90"/>
  <tag k="source" v="data.gouv.fr:RTE - 2022-01"/>
 </node>
 <node id="10164932327" visible="true" version="1" changeset="128582325" timestamp="2022-11-07T06:50:04Z" user="EUMapper" uid="11746909" lat="49.2855272" lon="5.6577094"/>
 <node id="10164932329" visible="true" version="1" changeset="128582325" timestamp="2022-11-07T06:50:04Z" user="EUMapper" uid="11746909" lat="49.2778010" lon="5.6597486"/>
 <node id="10171337583" visible="true" version="1" changeset="128685813" timestamp="2022-11-09T12:37:10Z" user="EUMapper" uid="11746909" lat="49.2771191" lon="5.6529879"/>
 <node id="11401763513" visible="true" version="1" changeset="144880818" timestamp="2023-12-07T21:10:03Z" user="AmiFritz" uid="172867" lat="49.3126920" lon="5.7389091">
  <tag k="height" v="23"/>
  <tag k="operator" v="RTE"/>
  <tag k="power" v="tower"/>
  <tag k="ref" v="12"/>
 </node>
 <node id="11401828487" visible="true" version="1" changeset="144881500" timestamp="2023-12-07T21:39:50Z" user="AmiFritz" uid="172867" lat="49.2684241" lon="5.6435990">
  <tag k="operator" v="RTE"/>
  <tag k="power" v="tower"/>
  <tag k="ref" v="40"/>
 </node>
 <node id="11401871651" visible="true" version="1" changeset="144882641" timestamp="2023-12-07T22:30:17Z" user="AmiFritz" uid="172867" lat="49.1869130" lon="5.4820019">
  <tag k="operator" v="RTE"/>
  <tag k="power" v="tower"/>
  <tag k="ref" v="87"/>
 </node>
 <way id="184495090" visible="true" version="19" changeset="144882738" timestamp="2023-12-07T22:36:09Z" user="AmiFritz" uid="172867">
  <nd ref="1949915151"/>
  <nd ref="1949915155"/>
  <nd ref="1949915165"/>
  <nd ref="1949915177"/>
  <nd ref="1949915181"/>
  <nd ref="1949915183"/>
  <nd ref="1949915187"/>
  <nd ref="3499359334"/>
  <nd ref="2882629600"/>
  <nd ref="2882630502"/>
  <nd ref="2882630552"/>
  <nd ref="2882630566"/>
  <nd ref="2882630575"/>
  <nd ref="2882630584"/>
  <nd ref="1949915206"/>
  <nd ref="1949915212"/>
  <nd ref="2882630591"/>
  <nd ref="9533974082"/>
  <nd ref="9533974080"/>
  <nd ref="2478627253"/>
  <nd ref="11401871651"/>
  <nd ref="1949915227"/>
  <nd ref="1949915230"/>
  <nd ref="1949915232"/>
  <nd ref="1949915235"/>
  <nd ref="1949915241"/>
  <nd ref="1949915246"/>
  <nd ref="1949915250"/>
  <nd ref="1949915254"/>
  <nd ref="1949915259"/>
  <nd ref="1949915263"/>
  <nd ref="1949915268"/>
  <nd ref="9533974079"/>
  <nd ref="1949915271"/>
  <nd ref="1949915273"/>
  <nd ref="1949915277"/>
  <nd ref="1949927983"/>
  <nd ref="1949927984"/>
  <nd ref="1949927985"/>
  <nd ref="1949927986"/>
  <nd ref="1949927987"/>
  <nd ref="1949927988"/>
  <nd ref="1949927989"/>
  <nd ref="9533974078"/>
  <nd ref="9533974077"/>
  <nd ref="1949927990"/>
  <nd ref="1949927991"/>
  <nd ref="1949927992"/>
  <nd ref="1949927993"/>
  <nd ref="1949927994"/>
  <nd ref="1949927995"/>
  <nd ref="1949927996"/>
  <nd ref="1949927997"/>
  <nd ref="1949927998"/>
  <nd ref="1949927999"/>
  <nd ref="9533974076"/>
  <nd ref="1949928000"/>
  <nd ref="9533974075"/>
  <nd ref="1949928001"/>
  <nd ref="1949928002"/>
  <nd ref="1949928003"/>
  <nd ref="1949928004"/>
  <nd ref="1949928005"/>
  <nd ref="1949928006"/>
  <nd ref="1949928007"/>
  <nd ref="1949928008"/>
  <nd ref="1949928009"/>
  <nd ref="11401828487"/>
  <nd ref="1949928010"/>
  <nd ref="1949928011"/>
  <nd ref="1949928012"/>
  <nd ref="1949928013"/>
  <nd ref="1949928014"/>
  <nd ref="1949928015"/>
  <nd ref="1949928016"/>
  <nd ref="1949928017"/>
  <nd ref="1949928018"/>
  <nd ref="1949928019"/>
  <nd ref="1949928020"/>
  <nd ref="1949928021"/>
  <nd ref="1949928022"/>
  <nd ref="1949928023"/>
  <nd ref="1949928024"/>
  <nd ref="1949928025"/>
  <nd ref="1949928026"/>
  <nd ref="1949928027"/>
  <nd ref="1949928028"/>
  <nd ref="1949928029"/>
  <nd ref="1949928030"/>
  <nd ref="1949928031"/>
  <nd ref="1949928032"/>
  <nd ref="1949928033"/>
  <nd ref="1949928034"/>
  <nd ref="1949928035"/>
  <nd ref="1949928036"/>
  <nd ref="11401763513"/>
  <nd ref="1949928038"/>
  <nd ref="1949928043"/>
  <nd ref="1949928042"/>
  <nd ref="1949928041"/>
  <nd ref="1949928040"/>
  <nd ref="1949928039"/>
  <nd ref="1949928037"/>
  <nd ref="1949891794"/>
  <tag k="cables" v="3"/>
  <tag k="circuits" v="1"/>
  <tag k="frequency" v="50"/>
  <tag k="name" v="Liaison 63Â kV nÂ°1 LandresÂ - Verdun"/>
  <tag k="operator" v="RTE"/>
  <tag k="operator:wikidata" v="Q2178795"/>
  <tag k="power" v="line"/>
  <tag k="ref:FR:RTE" v="LANDRL31VERDU"/>
  <tag k="voltage" v="63000"/>
 </way>
 <way id="224534653" visible="true" version="5" changeset="60789616" timestamp="2018-07-17T08:42:00Z" user="Jeece" uid="1455268">
  <nd ref="2333375299"/>
  <nd ref="2333375300"/>
  <nd ref="2333375296"/>
  <nd ref="2333375297"/>
  <nd ref="2333375295"/>
  <nd ref="2333375294"/>
  <nd ref="2333375293"/>
  <nd ref="2333375292"/>
  <nd ref="2333375291"/>
  <nd ref="2333375290"/>
  <nd ref="2333375288"/>
  <nd ref="2333375287"/>
  <nd ref="2333375286"/>
  <nd ref="2333375285"/>
  <nd ref="5765405076"/>
  <nd ref="2333375284"/>
  <nd ref="2333375283"/>
  <nd ref="2333375282"/>
  <nd ref="2333375280"/>
  <nd ref="2333375279"/>
  <nd ref="2333375278"/>
  <nd ref="2333375277"/>
  <nd ref="2333375276"/>
  <nd ref="5765389981"/>
  <nd ref="2333375275"/>
  <nd ref="2333375274"/>
  <nd ref="2333375272"/>
  <nd ref="2333375271"/>
  <nd ref="2333375270"/>
  <nd ref="2333375269"/>
  <nd ref="2333375268"/>
  <nd ref="2333375267"/>
  <nd ref="2333375266"/>
  <nd ref="2333375265"/>
  <nd ref="2333375263"/>
  <nd ref="2333375262"/>
  <nd ref="2333375261"/>
  <nd ref="2333375260"/>
  <nd ref="2333375259"/>
  <nd ref="2333375258"/>
  <nd ref="2333375257"/>
  <nd ref="2333375256"/>
  <nd ref="2333375254"/>
  <nd ref="2333375253"/>
  <nd ref="2333375252"/>
  <nd ref="2333375251"/>
  <nd ref="5765405064"/>
  <nd ref="2333375250"/>
  <nd ref="2333375249"/>
  <nd ref="2333375248"/>
  <nd ref="2333375247"/>
  <nd ref="5765405063"/>
  <nd ref="2333375245"/>
  <nd ref="2333375244"/>
  <nd ref="2333375243"/>
  <nd ref="2333375242"/>
  <nd ref="2333375241"/>
  <nd ref="2333375240"/>
  <nd ref="2333375239"/>
  <nd ref="2333375238"/>
  <nd ref="2333375232"/>
  <nd ref="2333375231"/>
  <nd ref="2333375236"/>
  <nd ref="2333375237"/>
  <nd ref="2333375233"/>
  <nd ref="2333375234"/>
  <nd ref="2333375230"/>
  <nd ref="2333375229"/>
  <nd ref="2333375220"/>
  <nd ref="2333375221"/>
  <nd ref="2333375223"/>
  <nd ref="2333375225"/>
  <nd ref="2333375228"/>
  <nd ref="2333375227"/>
  <nd ref="2333375224"/>
  <nd ref="2333375222"/>
  <nd ref="2333375217"/>
  <nd ref="2333375219"/>
  <nd ref="2333375216"/>
  <nd ref="2333375215"/>
  <nd ref="2333375214"/>
  <nd ref="2333375213"/>
  <nd ref="2333375212"/>
  <nd ref="2333375211"/>
  <nd ref="2333375210"/>
  <nd ref="2333375208"/>
  <nd ref="2333375207"/>
  <nd ref="2333375206"/>
  <nd ref="2333375205"/>
  <nd ref="2333375204"/>
  <nd ref="2333375201"/>
  <nd ref="2333375196"/>
  <nd ref="2333375170"/>
  <nd ref="2333375165"/>
  <tag k="boundary" v="administrative"/>
  <tag k="source" v="cadastre-dgi-fr source : Direction GÃ©nÃ©rale des ImpÃ´ts - Cadastre. Mise Ã  jour : 2013"/>
 </way>
 <way id="224615688" visible="true" version="3" changeset="16468605" timestamp="2013-06-08T13:02:37Z" user="Verdy_p" uid="90780">
  <nd ref="2333375299"/>
  <nd ref="2334189966"/>
  <nd ref="2334189963"/>
  <nd ref="2334189964"/>
  <nd ref="2334189965"/>
  <nd ref="2334189962"/>
  <nd ref="2334189961"/>
  <nd ref="2334189960"/>
  <nd ref="2334189958"/>
  <nd ref="2334189956"/>
  <nd ref="2334189955"/>
  <nd ref="2334189957"/>
  <nd ref="2334189936"/>
  <nd ref="2334189918"/>
  <nd ref="2334189897"/>
  <nd ref="2334189896"/>
  <nd ref="2334189898"/>
  <nd ref="2334189899"/>
  <nd ref="2334189908"/>
  <nd ref="2334189917"/>
  <nd ref="2334189916"/>
  <nd ref="2334189915"/>
  <nd ref="2334189913"/>
  <nd ref="2334189912"/>
  <nd ref="2334189909"/>
  <nd ref="2334189903"/>
  <nd ref="2334189902"/>
  <nd ref="2334189901"/>
  <nd ref="2334189906"/>
  <nd ref="2334189907"/>
  <nd ref="2334189910"/>
  <nd ref="2334189904"/>
  <nd ref="2334189914"/>
  <nd ref="2334189935"/>
  <nd ref="2334189944"/>
  <nd ref="2334189951"/>
  <nd ref="2334189953"/>
  <nd ref="2334189954"/>
  <nd ref="2334189952"/>
  <nd ref="2334189950"/>
  <nd ref="2334189949"/>
  <nd ref="2334189947"/>
  <nd ref="2334189946"/>
  <nd ref="2334189945"/>
  <nd ref="2334189943"/>
  <nd ref="2334189942"/>
  <nd ref="2334189941"/>
  <nd ref="2334189940"/>
  <nd ref="2334189939"/>
  <nd ref="2334189938"/>
  <nd ref="2334189934"/>
  <nd ref="2334189933"/>
  <nd ref="2334189932"/>
  <nd ref="2334189931"/>
  <nd ref="2334189930"/>
  <nd ref="2334189928"/>
  <nd ref="2334189927"/>
  <nd ref="2334189926"/>
  <nd ref="2334189923"/>
  <nd ref="2334189925"/>
  <nd ref="2334189924"/>
  <nd ref="2334189922"/>
  <nd ref="2334189921"/>
  <nd ref="2334189919"/>
  <nd ref="2334189905"/>
  <nd ref="2334182871"/>
  <nd ref="2334182869"/>
  <nd ref="2334182870"/>
  <nd ref="2334182868"/>
  <nd ref="2334182867"/>
  <nd ref="2334182866"/>
  <nd ref="2334182865"/>
  <nd ref="2334182864"/>
  <nd ref="2334182863"/>
  <nd ref="2334182862"/>
  <nd ref="2334182861"/>
  <nd ref="2334182860"/>
  <nd ref="2334182859"/>
  <nd ref="2334182858"/>
  <nd ref="2334182857"/>
  <nd ref="2334182856"/>
  <nd ref="2334182855"/>
  <nd ref="2334182854"/>
  <nd ref="2334182853"/>
  <nd ref="2334182852"/>
  <nd ref="2334182851"/>
  <nd ref="2334182850"/>
  <nd ref="2334182849"/>
  <nd ref="2334182848"/>
  <nd ref="2334182847"/>
  <nd ref="2334182846"/>
  <nd ref="2334182845"/>
  <nd ref="2334182844"/>
  <nd ref="2334182843"/>
  <nd ref="2334182842"/>
  <nd ref="2334182841"/>
  <nd ref="2334182840"/>
  <nd ref="2334182839"/>
  <nd ref="2334182838"/>
  <nd ref="2334182837"/>
  <nd ref="2334182836"/>
  <nd ref="2334182835"/>
  <nd ref="2334182834"/>
  <nd ref="2334182833"/>
  <nd ref="2334182832"/>
  <nd ref="2334182831"/>
  <nd ref="2334182830"/>
  <nd ref="2334182829"/>
  <nd ref="2334182828"/>
  <nd ref="2334182827"/>
  <nd ref="2334182826"/>
  <nd ref="2334182825"/>
  <nd ref="2334182824"/>
  <nd ref="2334182823"/>
  <nd ref="2334182822"/>
  <nd ref="2334182821"/>
  <nd ref="2334182820"/>
  <nd ref="2334182819"/>
  <nd ref="2334182818"/>
  <nd ref="2334182817"/>
  <nd ref="2334182816"/>
  <nd ref="2334182815"/>
  <nd ref="2334182814"/>
  <nd ref="2334182812"/>
  <nd ref="2334182811"/>
  <nd ref="2334182810"/>
  <nd ref="2334182809"/>
  <nd ref="2334182807"/>
  <nd ref="2334182804"/>
  <nd ref="2334182803"/>
  <nd ref="2334182801"/>
  <nd ref="2334182800"/>
  <nd ref="2334182799"/>
  <nd ref="2334182795"/>
  <nd ref="2334182797"/>
  <nd ref="2334182798"/>
  <nd ref="2334182791"/>
  <tag k="boundary" v="administrative"/>
  <tag k="source" v="cadastre-dgi-fr source : Direction GÃ©nÃ©rale des ImpÃ´ts - Cadastre. Mise Ã  jour : 2013"/>
 </way>
 <way id="224616643" visible="true" version="3" changeset="60789616" timestamp="2018-07-17T08:42:01Z" user="Jeece" uid="1455268">
  <nd ref="2332902383"/>
  <nd ref="2333375314"/>
  <nd ref="2333375315"/>
  <nd ref="2333375312"/>
  <nd ref="2333375313"/>
  <nd ref="2333375311"/>
  <nd ref="2333375310"/>
  <nd ref="2333375309"/>
  <nd ref="5765405089"/>
  <nd ref="2333375308"/>
  <nd ref="2333375305"/>
  <nd ref="2333375304"/>
  <nd ref="2333375307"/>
  <nd ref="2333375303"/>
  <nd ref="2333375302"/>
  <nd ref="2333375301"/>
  <nd ref="2333375299"/>
  <tag k="boundary" v="administrative"/>
  <tag k="source" v="cadastre-dgi-fr source : Direction GÃ©nÃ©rale des ImpÃ´ts - Cadastre. Mise Ã  jour : 2013"/>
 </way>
 <way id="225770128" visible="true" version="7" changeset="128685813" timestamp="2022-11-09T12:37:10Z" user="EUMapper" uid="11746909">
  <nd ref="2345240207"/>
  <nd ref="2345240196"/>
  <nd ref="2345240197"/>
  <nd ref="2345240199"/>
  <nd ref="2345240201"/>
  <nd ref="10171337583"/>
  <nd ref="2345240176"/>
  <nd ref="2345240167"/>
  <nd ref="3605559798"/>
  <nd ref="2345240172"/>
  <nd ref="3605559797"/>
  <nd ref="3605559796"/>
  <nd ref="2345240174"/>
  <nd ref="3605559795"/>
  <nd ref="3605559794"/>
  <nd ref="2345240165"/>
  <nd ref="2345240162"/>
  <tag k="highway" v="tertiary"/>
  <tag k="lane_markings" v="no"/>
  <tag k="lanes" v="2"/>
  <tag k="lit" v="no"/>
  <tag k="maxspeed" v="80"/>
  <tag k="surface" v="asphalt"/>
 </way>
 <way id="342987611" visible="true" version="7" changeset="128582325" timestamp="2022-11-07T06:50:04Z" user="EUMapper" uid="11746909">
  <nd ref="10164932327"/>
  <nd ref="5765405090"/>
  <nd ref="10164932329"/>
  <tag k="highway" v="primary"/>
  <tag k="lane_markings" v="yes"/>
  <tag k="lanes" v="2"/>
  <tag k="lit" v="no"/>
  <tag k="maxspeed" v="90"/>
  <tag k="old_ref" v="N 18"/>
  <tag k="ref" v="D 618"/>
  <tag k="surface" v="asphalt"/>
 </way>
 <way id="354896351" visible="true" version="7" changeset="125199848" timestamp="2022-08-21T21:16:19Z" user="user_5589" uid="5589">
  <nd ref="3605457229"/>
  <nd ref="3605457228"/>
  <nd ref="3605457227"/>
  <nd ref="3605458477"/>
  <nd ref="3605457226"/>
  <nd ref="3605457225"/>
  <nd ref="3605457224"/>
  <nd ref="3605457223"/>
  <nd ref="3605457222"/>
  <nd ref="3605457221"/>
  <nd ref="3605457220"/>
  <nd ref="3605455465"/>
  <nd ref="3605455466"/>
  <nd ref="3605443222"/>
  <nd ref="3605443221"/>
  <nd ref="3605443220"/>
  <nd ref="3605443216"/>
  <nd ref="3605443215"/>
  <nd ref="3605443214"/>
  <nd ref="3605443213"/>
  <nd ref="3605443212"/>
  <nd ref="3605443218"/>
  <nd ref="3605443217"/>
  <nd ref="3605443219"/>
  <nd ref="3605450653"/>
  <nd ref="3605450652"/>
  <nd ref="3605450651"/>
  <nd ref="3605450650"/>
  <nd ref="3605450649"/>
  <nd ref="3605450648"/>
  <nd ref="3605450647"/>
  <nd ref="3605450646"/>
  <nd ref="3605450645"/>
  <nd ref="3605450644"/>
  <nd ref="3605447046"/>
  <nd ref="3605447045"/>
  <nd ref="3605447047"/>
  <tag k="cables" v="3"/>
  <tag k="operator" v="Enedis"/>
  <tag k="operator:wikidata" v="Q3587594"/>
  <tag k="power" v="minor_line"/>
  <tag k="voltage" v="20000"/>
 </way>
 <way id="354899419" visible="true" version="6" changeset="125199848" timestamp="2022-08-21T21:16:19Z" user="user_5589" uid="5589">
  <nd ref="3605488696"/>
  <nd ref="3605488695"/>
  <nd ref="3605488694"/>
  <nd ref="3605488693"/>
  <nd ref="3605486992"/>
  <nd ref="3605486991"/>
  <nd ref="3605486990"/>
  <nd ref="3605486989"/>
  <nd ref="3605486987"/>
  <nd ref="3605486988"/>
  <nd ref="3605486986"/>
  <nd ref="3605457225"/>
  <tag k="cables" v="3"/>
  <tag k="description" v="alimentation du village de Gourainourt"/>
  <tag k="operator" v="Enedis"/>
  <tag k="operator:wikidata" v="Q3587594"/>
  <tag k="power" v="minor_line"/>
  <tag k="voltage" v="20000"/>
 </way>
 <way id="366853109" visible="true" version="2" changeset="33736814" timestamp="2015-09-01T19:27:38Z" user="olive55" uid="2762634">
  <nd ref="1949891794"/>
  <nd ref="1949891809"/>
  <nd ref="1949891813"/>
  <nd ref="1949891816"/>
  <nd ref="1949891818"/>
  <nd ref="1949891807"/>
  <nd ref="1949891793"/>
  <nd ref="1949891786"/>
  <nd ref="1949891776"/>
  <nd ref="1949891756"/>
  <nd ref="1949891740"/>
  <nd ref="1949891708"/>
  <nd ref="1949891703"/>
  <nd ref="1949891701"/>
  <nd ref="1949891698"/>
  <nd ref="1949891696"/>
  <nd ref="1949891693"/>
  <nd ref="1949891680"/>
  <nd ref="1949891677"/>
  <nd ref="1949891676"/>
  <nd ref="1949891675"/>
  <nd ref="1949891674"/>
  <nd ref="1949891673"/>
  <nd ref="1949891672"/>
  <nd ref="1949891671"/>
  <nd ref="1949891669"/>
  <nd ref="1949891668"/>
  <nd ref="1949891667"/>
  <nd ref="1949891666"/>
  <nd ref="1949891665"/>
  <nd ref="1949891663"/>
  <nd ref="1949891661"/>
  <nd ref="1949891658"/>
  <nd ref="1949891656"/>
  <nd ref="1949891653"/>
  <nd ref="1949891651"/>
  <nd ref="1949891639"/>
  <nd ref="1949891636"/>
  <nd ref="1949891634"/>
  <nd ref="1949891632"/>
  <nd ref="1949891631"/>
  <nd ref="1949891630"/>
  <nd ref="1949891629"/>
  <nd ref="1949891628"/>
  <nd ref="1949891627"/>
  <nd ref="1949891626"/>
  <nd ref="1949891625"/>
  <nd ref="1949891624"/>
  <nd ref="1949891623"/>
  <nd ref="1949891622"/>
  <tag k="cables" v="3"/>
  <tag k="name" v="ligne 63kV Landres - Etain"/>
  <tag k="power" v="line"/>
  <tag k="voltage" v="63000"/>
 </way>
 <way id="589635687" visible="true" version="1" changeset="59122840" timestamp="2018-05-20T13:13:26Z" user="crln1" uid="2351029">
  <nd ref="5630515673"/>
  <nd ref="5630515674"/>
  <nd ref="5630515675"/>
  <nd ref="5630515676"/>
  <nd ref="5630515673"/>
  <tag k="building" v="yes"/>
 </way>
 <way id="589635781" visible="true" version="1" changeset="59122858" timestamp="2018-05-20T13:14:14Z" user="crln1" uid="2351029">
  <nd ref="5630516253"/>
  <nd ref="5630516254"/>
  <nd ref="5630516255"/>
  <nd ref="5630516256"/>
  <nd ref="5630516257"/>
  <nd ref="5630516258"/>
  <nd ref="5630516259"/>
  <nd ref="5630516260"/>
  <nd ref="5630516261"/>
  <nd ref="5630516262"/>
  <nd ref="5630516263"/>
  <nd ref="5630516264"/>
  <nd ref="5630516265"/>
  <nd ref="5630516266"/>
  <nd ref="5630516253"/>
  <tag k="building" v="yes"/>
 </way>
 <way id="608565933" visible="true" version="1" changeset="60789309" timestamp="2018-07-17T08:35:17Z" user="Jeece" uid="1455268">
  <nd ref="5765389980"/>
  <nd ref="5765389981"/>
  <tag k="highway" v="track"/>
 </way>
 <way id="608565934" visible="true" version="2" changeset="60789616" timestamp="2018-07-17T08:42:01Z" user="Jeece" uid="1455268">
  <nd ref="5765389982"/>
  <nd ref="5765389983"/>
  <nd ref="5765389980"/>
  <nd ref="5765389984"/>
  <nd ref="5765389985"/>
  <nd ref="5765405077"/>
  <nd ref="5765389986"/>
  <nd ref="5765389987"/>
  <nd ref="5765405078"/>
  <nd ref="5765389988"/>
  <nd ref="3168070201"/>
  <tag k="highway" v="track"/>
 </way>
 <way id="608565935" visible="true" version="1" changeset="60789309" timestamp="2018-07-17T08:35:17Z" user="Jeece" uid="1455268">
  <nd ref="2345240207"/>
  <nd ref="5765389990"/>
  <nd ref="5765389991"/>
  <nd ref="5765389992"/>
  <nd ref="5765389993"/>
  <nd ref="5765389984"/>
  <tag k="highway" v="track"/>
 </way>
 <way id="608565936" visible="true" version="1" changeset="60789309" timestamp="2018-07-17T08:35:17Z" user="Jeece" uid="1455268">
  <nd ref="5765389993"/>
  <nd ref="5765389994"/>
  <tag k="highway" v="track"/>
 </way>
 <way id="608565937" visible="true" version="1" changeset="60789309" timestamp="2018-07-17T08:35:17Z" user="Jeece" uid="1455268">
  <nd ref="5765389995"/>
  <nd ref="5765389986"/>
  <tag k="highway" v="track"/>
 </way>
 <way id="608567867" visible="true" version="1" changeset="60789616" timestamp="2018-07-17T08:41:58Z" user="Jeece" uid="1455268">
  <nd ref="5765405073"/>
  <nd ref="5765405074"/>
  <nd ref="5765405075"/>
  <nd ref="5765405076"/>
  <nd ref="2333375285"/>
  <nd ref="2333375286"/>
  <nd ref="2333375287"/>
  <nd ref="2333375288"/>
  <nd ref="5765405077"/>
  <tag k="highway" v="track"/>
 </way>
 <way id="1110962536" visible="true" version="1" changeset="128582325" timestamp="2022-11-07T06:50:04Z" user="EUMapper" uid="11746909">
  <nd ref="10164932329"/>
  <nd ref="2345240207"/>
  <nd ref="5765389982"/>
  <nd ref="162231426"/>
  <tag k="highway" v="primary"/>
  <tag k="lane_markings" v="yes"/>
  <tag k="lanes" v="2"/>
  <tag k="lit" v="no"/>
  <tag k="maxspeed" v="70"/>
  <tag k="old_ref" v="N 18"/>
  <tag k="ref" v="D 618"/>
  <tag k="surface" v="asphalt"/>
 </way>
 <relation id="2982931" visible="true" version="11" changeset="116040541" timestamp="2022-01-11T20:56:51Z" user="cquest_bot" uid="541379">
  <member type="node" ref="1708016063" role="admin_centre"/>
  <member type="way" ref="224487042" role="outer"/>
  <member type="way" ref="224487040" role="outer"/>
  <member type="way" ref="224517692" role="outer"/>
  <member type="way" ref="224534653" role="outer"/>
  <member type="way" ref="224616643" role="outer"/>
  <member type="way" ref="224517694" role="outer"/>
  <tag k="admin_level" v="8"/>
  <tag k="boundary" v="administrative"/>
  <tag k="name" v="Ã‰ton"/>
  <tag k="population" v="208"/>
  <tag k="population:date" v="2019"/>
  <tag k="postal_code" v="55240"/>
  <tag k="ref:INSEE" v="55182"/>
  <tag k="source:population" v="INSEE 2022"/>
  <tag k="source:postal_code" v="La Poste - 12/2014"/>
  <tag k="type" v="boundary"/>
  <tag k="wikidata" v="Q1453322"/>
  <tag k="wikipedia" v="fr:Ã‰ton (Meuse)"/>
 </relation>
 <relation id="2983866" visible="true" version="9" changeset="143131844" timestamp="2023-10-25T19:32:55Z" user="chabe01" uid="502891">
  <member type="node" ref="266535464" role="admin_centre"/>
  <member type="way" ref="224615689" role="outer"/>
  <member type="way" ref="1218362487" role="outer"/>
  <member type="way" ref="223732853" role="outer"/>
  <member type="way" ref="224534654" role="outer"/>
  <member type="way" ref="224534653" role="outer"/>
  <member type="way" ref="224615688" role="outer"/>
  <tag k="admin_level" v="8"/>
  <tag k="boundary" v="administrative"/>
  <tag k="name" v="Amel-sur-l'Ã‰tang"/>
  <tag k="population" v="146"/>
  <tag k="population:date" v="2019"/>
  <tag k="postal_code" v="55230"/>
  <tag k="ref:INSEE" v="55008"/>
  <tag k="source:population" v="INSEE 2022"/>
  <tag k="source:postal_code" v="La Poste - 12/2014"/>
  <tag k="type" v="boundary"/>
  <tag k="wikidata" v="Q59688"/>
  <tag k="wikipedia" v="fr:Amel-sur-l'Ã‰tang"/>
 </relation>
 <relation id="2983869" visible="true" version="9" changeset="143131844" timestamp="2023-10-25T19:32:55Z" user="chabe01" uid="502891">
  <member type="node" ref="266535415" role="admin_centre"/>
  <member type="way" ref="224613558" role="outer"/>
  <member type="way" ref="1218362486" role="outer"/>
  <member type="way" ref="224615687" role="outer"/>
  <member type="way" ref="224615688" role="outer"/>
  <member type="way" ref="224616643" role="outer"/>
  <member type="way" ref="224465265" role="outer"/>
  <member type="way" ref="224391848" role="outer"/>
  <member type="way" ref="224391846" role="outer"/>
  <tag k="admin_level" v="8"/>
  <tag k="boundary" v="administrative"/>
  <tag k="name" v="Senon"/>
  <tag k="population" v="336"/>
  <tag k="population:date" v="2019"/>
  <tag k="postal_code" v="55230"/>
  <tag k="ref:INSEE" v="55481"/>
  <tag k="source:population" v="INSEE 2022"/>
  <tag k="source:postal_code" v="La Poste - 12/2014"/>
  <tag k="type" v="boundary"/>
  <tag k="wikidata" v="Q59325"/>
  <tag k="wikipedia" v="fr:Senon"/>
 </relation>
 <relation id="4867376" visible="true" version="13" changeset="134981452" timestamp="2023-04-16T16:03:20Z" user="EUMapper" uid="11746909">
  <member type="way" ref="342987609" role=""/>
  <member type="way" ref="16111448" role=""/>
  <member type="way" ref="39656377" role=""/>
  <member type="way" ref="342987610" role=""/>
  <member type="way" ref="1110772303" role=""/>
  <member type="way" ref="16104375" role=""/>
  <member type="way" ref="16111599" role=""/>
  <member type="way" ref="16111569" role=""/>
  <member type="way" ref="630269079" role=""/>
  <member type="way" ref="903398113" role=""/>
  <member type="way" ref="903398114" role=""/>
  <member type="way" ref="630269080" role=""/>
  <member type="way" ref="1117893213" role=""/>
  <member type="way" ref="1117893210" role=""/>
  <member type="way" ref="311170169" role=""/>
  <member type="way" ref="311170160" role=""/>
  <member type="way" ref="311170163" role=""/>
  <member type="way" ref="1117893209" role=""/>
  <member type="way" ref="311170162" role=""/>
  <member type="way" ref="24340338" role=""/>
  <member type="way" ref="1117893212" role=""/>
  <member type="way" ref="311170167" role=""/>
  <member type="way" ref="224465256" role=""/>
  <member type="way" ref="1110962534" role=""/>
  <member type="way" ref="1110962535" role=""/>
  <member type="way" ref="342987611" role=""/>
  <member type="way" ref="1110962536" role=""/>
  <member type="way" ref="311170183" role=""/>
  <member type="way" ref="311170161" role=""/>
  <member type="way" ref="24340334" role=""/>
  <member type="way" ref="134414960" role=""/>
  <member type="way" ref="134414959" role=""/>
  <member type="way" ref="311170170" role=""/>
  <member type="way" ref="1117893207" role=""/>
  <member type="way" ref="1117893200" role=""/>
  <member type="way" ref="1117893208" role=""/>
  <member type="way" ref="1117893203" role=""/>
  <member type="way" ref="1117893204" role=""/>
  <member type="way" ref="24340190" role=""/>
  <member type="way" ref="1117893199" role=""/>
  <member type="way" ref="1117893201" role=""/>
  <member type="way" ref="24340163" role=""/>
  <member type="way" ref="1117893205" role=""/>
  <member type="way" ref="311170164" role=""/>
  <member type="way" ref="1117893206" role=""/>
  <member type="way" ref="342376533" role=""/>
  <member type="way" ref="401419195" role=""/>
  <member type="way" ref="401419209" role=""/>
  <member type="way" ref="342376527" role=""/>
  <member type="way" ref="362889171" role=""/>
  <member type="way" ref="311219952" role=""/>
  <member type="way" ref="236521497" role=""/>
  <member type="way" ref="907016420" role=""/>
  <member type="way" ref="907016422" role=""/>
  <member type="way" ref="236521505" role=""/>
  <member type="way" ref="342987616" role=""/>
  <member type="way" ref="236521498" role=""/>
  <member type="way" ref="236521502" role=""/>
  <member type="way" ref="311170227" role=""/>
  <member type="way" ref="1117893202" role=""/>
  <member type="way" ref="134414249" role=""/>
  <member type="way" ref="1163054383" role=""/>
  <member type="way" ref="1110772308" role=""/>
  <member type="way" ref="1110772309" role=""/>
  <member type="way" ref="1110772310" role=""/>
  <member type="way" ref="1110772311" role=""/>
  <tag k="name" v="D106(55)"/>
  <tag k="ref" v="D 106"/>
  <tag k="route" v="road"/>
  <tag k="type" v="route"/>
 </relation>
 <relation id="10568803" visible="true" version="2" changeset="143131844" timestamp="2023-10-25T19:32:55Z" user="chabe01" uid="502891">
  <member type="way" ref="59620969" role="outer"/>
  <member type="way" ref="59620972" role="outer"/>
  <member type="way" ref="224262828" role="outer"/>
  <member type="way" ref="224262829" role="outer"/>
  <member type="way" ref="224265450" role="outer"/>
  <member type="way" ref="355768121" role="outer"/>
  <member type="way" ref="355540279" role="outer"/>
  <member type="way" ref="224262833" role="outer"/>
  <member type="way" ref="59623830" role="outer"/>
  <member type="way" ref="59704705" role="outer"/>
  <member type="way" ref="223925936" role="outer"/>
  <member type="way" ref="224463088" role="outer"/>
  <member type="way" ref="224613559" role="outer"/>
  <member type="way" ref="224613558" role="outer"/>
  <member type="way" ref="1218362486" role="outer"/>
  <member type="way" ref="224615687" role="outer"/>
  <member type="way" ref="224615689" role="outer"/>
  <member type="way" ref="1218362487" role="outer"/>
  <member type="way" ref="223732853" role="outer"/>
  <member type="way" ref="224534654" role="outer"/>
  <member type="way" ref="224534653" role="outer"/>
  <member type="way" ref="224616643" role="outer"/>
  <member type="way" ref="224517694" role="outer"/>
  <member type="way" ref="224470009" role="outer"/>
  <member type="way" ref="224470010" role="outer"/>
  <member type="way" ref="224487044" role="outer"/>
  <member type="way" ref="224487041" role="outer"/>
  <member type="way" ref="153021288" role="outer"/>
  <member type="way" ref="1218362488" role="outer"/>
  <member type="way" ref="158085193" role="outer"/>
  <member type="way" ref="158085194" role="outer"/>
  <member type="way" ref="1218362491" role="outer"/>
  <member type="way" ref="97096172" role="outer"/>
  <member type="way" ref="59712075" role="outer"/>
  <member type="way" ref="35338177" role="outer"/>
  <member type="way" ref="59620971" role="outer"/>
  <member type="way" ref="33157158" role="outer"/>
  <member type="way" ref="108190143" role="outer"/>
  <tag k="boundary" v="postal_code"/>
  <tag k="postal_code" v="55230"/>
  <tag k="type" v="boundary"/>
 </relation>
 <relation id="10568804" visible="true" version="1" changeset="79435601" timestamp="2020-01-10T21:13:43Z" user="chabe01" uid="502891">
  <member type="way" ref="224485049" role="outer"/>
  <member type="way" ref="224355088" role="outer"/>
  <member type="way" ref="224487041" role="outer"/>
  <member type="way" ref="224487044" role="outer"/>
  <member type="way" ref="224470010" role="outer"/>
  <member type="way" ref="224470009" role="outer"/>
  <member type="way" ref="224517694" role="outer"/>
  <member type="way" ref="224616643" role="outer"/>
  <member type="way" ref="224534653" role="outer"/>
  <member type="way" ref="224517692" role="outer"/>
  <member type="way" ref="224517693" role="outer"/>
  <member type="way" ref="224485050" role="outer"/>
  <member type="way" ref="96712788" role="outer"/>
  <member type="way" ref="148254081" role="outer"/>
  <member type="way" ref="150831995" role="outer"/>
  <member type="way" ref="153022403" role="outer"/>
  <tag k="boundary" v="postal_code"/>
  <tag k="postal_code" v="55240"/>
  <tag k="type" v="boundary"/>
 </relation>
 <relation id="14778295" visible="true" version="1" changeset="128559676" timestamp="2022-11-06T15:20:49Z" user="EUMapper" uid="11746909">
  <member type="way" ref="342987609" role="from"/>
  <member type="node" ref="162231426" role="via"/>
  <member type="way" ref="16111448" role="to"/>
  <tag k="restriction" v="no_u_turn"/>
  <tag k="type" v="restriction"/>
 </relation>
</osm>
