<?xml version="1.0" encoding="UTF-8"?>
<osm version="0.6" generator="CGImap 0.8.10 (1809415 spike-08.openstreetmap.org)" copyright="OpenStreetMap and contributors" attribution="http://www.openstreetmap.org/copyright" license="http://opendatacommons.org/licenses/odbl/1-0/">
 <bounds minlat="49.3895245" minlon="5.3942871" maxlat="49.3966751" maxlon="5.4052734"/>
 <node id="287747914" visible="true" version="2" changeset="16321711" timestamp="2013-05-28T10:22:46Z" user="StephaneP" uid="439947" lat="49.3968887" lon="5.3956450"/>
 <node id="287747915" visible="true" version="2" changeset="16321711" timestamp="2013-05-28T10:22:46Z" user="StephaneP" uid="439947" lat="49.3953866" lon="5.3963566"/>
 <node id="287747916" visible="true" version="2" changeset="16321711" timestamp="2013-05-28T10:22:46Z" user="StephaneP" uid="439947" lat="49.3937838" lon="5.3971229"/>
 <node id="287747917" visible="true" version="2" changeset="16321711" timestamp="2013-05-28T10:22:46Z" user="StephaneP" uid="439947" lat="49.3907034" lon="5.3985826"/>
 <node id="287747918" visible="true" version="2" changeset="16321711" timestamp="2013-05-28T10:22:46Z" user="StephaneP" uid="439947" lat="49.3895238" lon="5.3990992"/>
 <node id="287747920" visible="true" version="2" changeset="16321711" timestamp="2013-05-28T10:22:46Z" user="StephaneP" uid="439947" lat="49.3870315" lon="5.3997684"/>
 <node id="287747921" visible="true" version="2" changeset="16321711" timestamp="2013-05-28T10:22:46Z" user="StephaneP" uid="439947" lat="49.3848182" lon="5.4003600"/>
 <node id="287747922" visible="true" version="2" changeset="16321711" timestamp="2013-05-28T10:22:46Z" user="StephaneP" uid="439947" lat="49.3830075" lon="5.4008396"/>
 <node id="287747924" visible="true" version="2" changeset="16321711" timestamp="2013-05-28T10:22:46Z" user="StephaneP" uid="439947" lat="49.3806285" lon="5.4010608"/>
 <node id="287747925" visible="true" version="2" changeset="16321711" timestamp="2013-05-28T10:22:46Z" user="StephaneP" uid="439947" lat="49.3800827" lon="5.4010254"/>
 <node id="287747926" visible="true" version="2" changeset="3942132" timestamp="2010-02-22T10:19:30Z" user="foxandpotatoes" uid="117689" lat="49.3790002" lon="5.4001875"/>
 <node id="650087905" visible="true" version="1" changeset="3942132" timestamp="2010-02-22T10:19:17Z" user="foxandpotatoes" uid="117689" lat="49.3795276" lon="5.4007224"/>
 <node id="650087909" visible="true" version="2" changeset="16321711" timestamp="2013-05-28T10:22:46Z" user="StephaneP" uid="439947" lat="49.3805016" lon="5.4010740"/>
 <node id="1477978009" visible="true" version="2" changeset="16321711" timestamp="2013-05-28T10:22:46Z" user="StephaneP" uid="439947" lat="49.4038607" lon="5.3923456"/>
 <node id="2322958985" visible="true" version="1" changeset="16321711" timestamp="2013-05-28T10:22:37Z" user="StephaneP" uid="439947" lat="49.3796775" lon="5.4008346"/>
 <node id="2322958987" visible="true" version="1" changeset="16321711" timestamp="2013-05-28T10:22:37Z" user="StephaneP" uid="439947" lat="49.3798499" lon="5.4009360"/>
 <node id="2322959002" visible="true" version="1" changeset="16321711" timestamp="2013-05-28T10:22:37Z" user="StephaneP" uid="439947" lat="49.3803076" lon="5.4010635"/>
 <node id="2322959036" visible="true" version="1" changeset="16321711" timestamp="2013-05-28T10:22:37Z" user="StephaneP" uid="439947" lat="49.3822505" lon="5.4009747"/>
 <node id="2322959044" visible="true" version="1" changeset="16321711" timestamp="2013-05-28T10:22:37Z" user="StephaneP" uid="439947" lat="49.3826028" lon="5.4009338"/>
 <node id="2322959102" visible="true" version="1" changeset="16321711" timestamp="2013-05-28T10:22:37Z" user="StephaneP" uid="439947" lat="49.3886253" lon="5.3993442"/>
 <node id="2322959118" visible="true" version="1" changeset="16321711" timestamp="2013-05-28T10:22:38Z" user="StephaneP" uid="439947" lat="49.3902382" lon="5.3988026"/>
 <node id="2322959147" visible="true" version="1" changeset="16321711" timestamp="2013-05-28T10:22:38Z" user="StephaneP" uid="439947" lat="49.3917246" lon="5.3980986"/>
 <node id="2322959157" visible="true" version="1" changeset="16321711" timestamp="2013-05-28T10:22:38Z" user="StephaneP" uid="439947" lat="49.3928090" lon="5.3975796"/>
 <node id="2322959159" visible="true" version="1" changeset="16321711" timestamp="2013-05-28T10:22:38Z" user="StephaneP" uid="439947" lat="49.3948770" lon="5.3966055"/>
 <node id="2322959185" visible="true" version="1" changeset="16321711" timestamp="2013-05-28T10:22:38Z" user="StephaneP" uid="439947" lat="49.3960710" lon="5.3960365"/>
 <node id="3605933713" visible="true" version="4" changeset="129816007" timestamp="2022-12-07T10:39:14Z" user="user_5589" uid="5589" lat="49.3192298" lon="5.4728549">
  <tag k="operator" v="Enedis"/>
  <tag k="operator:wikidata" v="Q3587594"/>
  <tag k="power" v="pole"/>
 </node>
 <node id="3605933714" visible="true" version="5" changeset="129816007" timestamp="2022-12-07T10:39:14Z" user="user_5589" uid="5589" lat="49.3180585" lon="5.4731779">
  <tag k="operator" v="Enedis"/>
  <tag k="operator:wikidata" v="Q3587594"/>
  <tag k="power" v="pole"/>
 </node>
 <node id="3605933715" visible="true" version="4" changeset="129816007" timestamp="2022-12-07T10:39:14Z" user="user_5589" uid="5589" lat="49.3203561" lon="5.4729570">
  <tag k="operator" v="Enedis"/>
  <tag k="operator:wikidata" v="Q3587594"/>
  <tag k="power" v="pole"/>
 </node>
 <node id="3605933716" visible="true" version="4" changeset="129816007" timestamp="2022-12-07T10:39:14Z" user="user_5589" uid="5589" lat="49.3214092" lon="5.4731135">
  <tag k="operator" v="Enedis"/>
  <tag k="operator:wikidata" v="Q3587594"/>
  <tag k="power" v="pole"/>
 </node>
 <node id="3605933717" visible="true" version="4" changeset="129816007" timestamp="2022-12-07T10:39:14Z" user="user_5589" uid="5589" lat="49.3224101" lon="5.4732335">
  <tag k="operator" v="Enedis"/>
  <tag k="operator:wikidata" v="Q3587594"/>
  <tag k="power" v="pole"/>
 </node>
 <node id="3605956747" visible="true" version="4" changeset="129816007" timestamp="2022-12-07T10:39:14Z" user="user_5589" uid="5589" lat="49.3166598" lon="5.4735467">
  <tag k="operator" v="Enedis"/>
  <tag k="operator:wikidata" v="Q3587594"/>
  <tag k="power" v="pole"/>
 </node>
 <node id="3605956748" visible="true" version="4" changeset="129816007" timestamp="2022-12-07T10:39:14Z" user="user_5589" uid="5589" lat="49.3146246" lon="5.4740889">
  <tag k="operator" v="Enedis"/>
  <tag k="operator:wikidata" v="Q3587594"/>
  <tag k="power" v="pole"/>
 </node>
 <node id="3605956749" visible="true" version="4" changeset="129816007" timestamp="2022-12-07T10:39:14Z" user="user_5589" uid="5589" lat="49.3136212" lon="5.4743545">
  <tag k="operator" v="Enedis"/>
  <tag k="operator:wikidata" v="Q3587594"/>
  <tag k="power" v="pole"/>
 </node>
 <node id="3605956763" visible="true" version="4" changeset="129816007" timestamp="2022-12-07T10:39:14Z" user="user_5589" uid="5589" lat="49.3102343" lon="5.4752695">
  <tag k="operator" v="Enedis"/>
  <tag k="operator:wikidata" v="Q3587594"/>
  <tag k="power" v="pole"/>
 </node>
 <node id="3605956764" visible="true" version="4" changeset="129816007" timestamp="2022-12-07T10:39:14Z" user="user_5589" uid="5589" lat="49.3088428" lon="5.4756145">
  <tag k="operator" v="Enedis"/>
  <tag k="operator:wikidata" v="Q3587594"/>
  <tag k="power" v="pole"/>
 </node>
 <node id="3605956765" visible="true" version="4" changeset="129816007" timestamp="2022-12-07T10:39:14Z" user="user_5589" uid="5589" lat="49.3123499" lon="5.4746637">
  <tag k="operator" v="Enedis"/>
  <tag k="operator:wikidata" v="Q3587594"/>
  <tag k="power" v="pole"/>
 </node>
 <node id="3605956766" visible="true" version="4" changeset="129816007" timestamp="2022-12-07T10:39:14Z" user="user_5589" uid="5589" lat="49.3076246" lon="5.4759693">
  <tag k="operator" v="Enedis"/>
  <tag k="operator:wikidata" v="Q3587594"/>
  <tag k="power" v="pole"/>
 </node>
 <node id="3605956767" visible="true" version="4" changeset="129816007" timestamp="2022-12-07T10:39:14Z" user="user_5589" uid="5589" lat="49.3062724" lon="5.4763229">
  <tag k="operator" v="Enedis"/>
  <tag k="operator:wikidata" v="Q3587594"/>
  <tag k="power" v="pole"/>
 </node>
 <node id="3605956768" visible="true" version="5" changeset="141647870" timestamp="2023-09-23T14:30:54Z" user="Nordpfeil" uid="1337142" lat="49.3051430" lon="5.4754179">
  <tag k="material" v="concrete"/>
  <tag k="operator" v="Enedis"/>
  <tag k="operator:wikidata" v="Q3587594"/>
  <tag k="power" v="pole"/>
 </node>
 <node id="3605956769" visible="true" version="4" changeset="129816007" timestamp="2022-12-07T10:39:14Z" user="user_5589" uid="5589" lat="49.3039784" lon="5.4744889">
  <tag k="operator" v="Enedis"/>
  <tag k="operator:wikidata" v="Q3587594"/>
  <tag k="power" v="pole"/>
 </node>
 <node id="3605956770" visible="true" version="4" changeset="129816007" timestamp="2022-12-07T10:39:14Z" user="user_5589" uid="5589" lat="49.3027513" lon="5.4735119">
  <tag k="operator" v="Enedis"/>
  <tag k="operator:wikidata" v="Q3587594"/>
  <tag k="power" v="pole"/>
 </node>
 <node id="3605956771" visible="true" version="5" changeset="129816007" timestamp="2022-12-07T10:39:14Z" user="user_5589" uid="5589" lat="49.3019619" lon="5.4729010">
  <tag k="operator" v="Enedis"/>
  <tag k="operator:wikidata" v="Q3587594"/>
  <tag k="power" v="pole"/>
 </node>
 <node id="3605956772" visible="true" version="4" changeset="129816007" timestamp="2022-12-07T10:39:14Z" user="user_5589" uid="5589" lat="49.3008323" lon="5.4719836">
  <tag k="operator" v="Enedis"/>
  <tag k="operator:wikidata" v="Q3587594"/>
  <tag k="power" v="pole"/>
 </node>
 <node id="3605956773" visible="true" version="4" changeset="129816007" timestamp="2022-12-07T10:39:14Z" user="user_5589" uid="5589" lat="49.2973945" lon="5.4692349">
  <tag k="operator" v="Enedis"/>
  <tag k="operator:wikidata" v="Q3587594"/>
  <tag k="power" v="pole"/>
 </node>
 <node id="3605956774" visible="true" version="4" changeset="129816007" timestamp="2022-12-07T10:39:14Z" user="user_5589" uid="5589" lat="49.2984173" lon="5.4700289">
  <tag k="operator" v="Enedis"/>
  <tag k="operator:wikidata" v="Q3587594"/>
  <tag k="power" v="pole"/>
 </node>
 <node id="3605956775" visible="true" version="4" changeset="129816007" timestamp="2022-12-07T10:39:14Z" user="user_5589" uid="5589" lat="49.2996464" lon="5.4710222">
  <tag k="operator" v="Enedis"/>
  <tag k="operator:wikidata" v="Q3587594"/>
  <tag k="power" v="pole"/>
 </node>
 <node id="3605956776" visible="true" version="4" changeset="129816007" timestamp="2022-12-07T10:39:14Z" user="user_5589" uid="5589" lat="49.2971513" lon="5.4657799">
  <tag k="operator" v="Enedis"/>
  <tag k="operator:wikidata" v="Q3587594"/>
  <tag k="power" v="pole"/>
 </node>
 <node id="3605956777" visible="true" version="4" changeset="129816007" timestamp="2022-12-07T10:39:14Z" user="user_5589" uid="5589" lat="49.2972763" lon="5.4674581">
  <tag k="operator" v="Enedis"/>
  <tag k="operator:wikidata" v="Q3587594"/>
  <tag k="power" v="pole"/>
 </node>
 <node id="3605956778" visible="true" version="4" changeset="129816007" timestamp="2022-12-07T10:39:14Z" user="user_5589" uid="5589" lat="49.2970184" lon="5.4641196">
  <tag k="operator" v="Enedis"/>
  <tag k="operator:wikidata" v="Q3587594"/>
  <tag k="power" v="pole"/>
 </node>
 <node id="3605956779" visible="true" version="4" changeset="129816007" timestamp="2022-12-07T10:39:14Z" user="user_5589" uid="5589" lat="49.2968855" lon="5.4624474">
  <tag k="operator" v="Enedis"/>
  <tag k="operator:wikidata" v="Q3587594"/>
  <tag k="power" v="pole"/>
 </node>
 <node id="3605956780" visible="true" version="4" changeset="129816007" timestamp="2022-12-07T10:39:14Z" user="user_5589" uid="5589" lat="49.2967643" lon="5.4608172">
  <tag k="operator" v="Enedis"/>
  <tag k="operator:wikidata" v="Q3587594"/>
  <tag k="power" v="pole"/>
 </node>
 <node id="3605956781" visible="true" version="4" changeset="129816007" timestamp="2022-12-07T10:39:14Z" user="user_5589" uid="5589" lat="49.2965923" lon="5.4585936">
  <tag k="operator" v="Enedis"/>
  <tag k="operator:wikidata" v="Q3587594"/>
  <tag k="power" v="pole"/>
 </node>
 <node id="3605956782" visible="true" version="4" changeset="129816007" timestamp="2022-12-07T10:39:14Z" user="user_5589" uid="5589" lat="49.2967096" lon="5.4551053">
  <tag k="operator" v="Enedis"/>
  <tag k="operator:wikidata" v="Q3587594"/>
  <tag k="power" v="pole"/>
 </node>
 <node id="3605956783" visible="true" version="4" changeset="129816007" timestamp="2022-12-07T10:39:14Z" user="user_5589" uid="5589" lat="49.2970399" lon="5.4531755">
  <tag k="operator" v="Enedis"/>
  <tag k="operator:wikidata" v="Q3587594"/>
  <tag k="power" v="pole"/>
 </node>
 <node id="3605956784" visible="true" version="4" changeset="129816007" timestamp="2022-12-07T10:39:14Z" user="user_5589" uid="5589" lat="49.2964322" lon="5.4566529">
  <tag k="operator" v="Enedis"/>
  <tag k="operator:wikidata" v="Q3587594"/>
  <tag k="power" v="pole"/>
 </node>
 <node id="3605956786" visible="true" version="4" changeset="129816007" timestamp="2022-12-07T10:39:14Z" user="user_5589" uid="5589" lat="49.2981448" lon="5.4468674">
  <tag k="operator" v="Enedis"/>
  <tag k="operator:wikidata" v="Q3587594"/>
  <tag k="power" v="pole"/>
 </node>
 <node id="3605956787" visible="true" version="4" changeset="129816007" timestamp="2022-12-07T10:39:14Z" user="user_5589" uid="5589" lat="49.2978086" lon="5.4488273">
  <tag k="operator" v="Enedis"/>
  <tag k="operator:wikidata" v="Q3587594"/>
  <tag k="power" v="pole"/>
 </node>
 <node id="3605956788" visible="true" version="4" changeset="129816007" timestamp="2022-12-07T10:39:14Z" user="user_5589" uid="5589" lat="49.2974291" lon="5.4509741">
  <tag k="operator" v="Enedis"/>
  <tag k="operator:wikidata" v="Q3587594"/>
  <tag k="power" v="pole"/>
 </node>
 <node id="3605956790" visible="true" version="4" changeset="129816007" timestamp="2022-12-07T10:39:14Z" user="user_5589" uid="5589" lat="49.2992155" lon="5.4409039">
  <tag k="operator" v="Enedis"/>
  <tag k="operator:wikidata" v="Q3587594"/>
  <tag k="power" v="pole"/>
 </node>
 <node id="3605956793" visible="true" version="4" changeset="129816007" timestamp="2022-12-07T10:39:14Z" user="user_5589" uid="5589" lat="49.2997565" lon="5.4378255">
  <tag k="operator" v="Enedis"/>
  <tag k="operator:wikidata" v="Q3587594"/>
  <tag k="power" v="pole"/>
 </node>
 <node id="3605956794" visible="true" version="4" changeset="129816007" timestamp="2022-12-07T10:39:14Z" user="user_5589" uid="5589" lat="49.2995144" lon="5.4391755">
  <tag k="operator" v="Enedis"/>
  <tag k="operator:wikidata" v="Q3587594"/>
  <tag k="power" v="pole"/>
 </node>
 <node id="3605956795" visible="true" version="4" changeset="129816007" timestamp="2022-12-07T10:39:14Z" user="user_5589" uid="5589" lat="49.3001409" lon="5.4357042">
  <tag k="operator" v="Enedis"/>
  <tag k="operator:wikidata" v="Q3587594"/>
  <tag k="power" v="pole"/>
 </node>
 <node id="3605960432" visible="true" version="4" changeset="129816007" timestamp="2022-12-07T10:39:14Z" user="user_5589" uid="5589" lat="49.3001249" lon="5.4343984">
  <tag k="operator" v="Enedis"/>
  <tag k="operator:wikidata" v="Q3587594"/>
  <tag k="power" v="pole"/>
 </node>
 <node id="3605960433" visible="true" version="4" changeset="129816007" timestamp="2022-12-07T10:39:14Z" user="user_5589" uid="5589" lat="49.3001162" lon="5.4320789">
  <tag k="operator" v="Enedis"/>
  <tag k="operator:wikidata" v="Q3587594"/>
  <tag k="power" v="pole"/>
 </node>
 <node id="3605960434" visible="true" version="4" changeset="129816007" timestamp="2022-12-07T10:39:14Z" user="user_5589" uid="5589" lat="49.3001249" lon="5.4286372">
  <tag k="operator" v="Enedis"/>
  <tag k="operator:wikidata" v="Q3587594"/>
  <tag k="power" v="pole"/>
 </node>
 <node id="3605960435" visible="true" version="4" changeset="129816007" timestamp="2022-12-07T10:39:14Z" user="user_5589" uid="5589" lat="49.3001076" lon="5.4301217">
  <tag k="operator" v="Enedis"/>
  <tag k="operator:wikidata" v="Q3587594"/>
  <tag k="power" v="pole"/>
 </node>
 <node id="3605960436" visible="true" version="4" changeset="129816007" timestamp="2022-12-07T10:39:14Z" user="user_5589" uid="5589" lat="49.3001191" lon="5.4270997">
  <tag k="operator" v="Enedis"/>
  <tag k="operator:wikidata" v="Q3587594"/>
  <tag k="power" v="pole"/>
 </node>
 <node id="3605960437" visible="true" version="4" changeset="129816007" timestamp="2022-12-07T10:39:14Z" user="user_5589" uid="5589" lat="49.3001294" lon="5.4253372">
  <tag k="operator" v="Enedis"/>
  <tag k="operator:wikidata" v="Q3587594"/>
  <tag k="power" v="pole"/>
 </node>
 <node id="3605960438" visible="true" version="4" changeset="129816007" timestamp="2022-12-07T10:39:14Z" user="user_5589" uid="5589" lat="49.3000932" lon="5.4232560">
  <tag k="operator" v="Enedis"/>
  <tag k="operator:wikidata" v="Q3587594"/>
  <tag k="power" v="pole"/>
 </node>
 <node id="3605960439" visible="true" version="4" changeset="129816007" timestamp="2022-12-07T10:39:14Z" user="user_5589" uid="5589" lat="49.3000903" lon="5.4214446">
  <tag k="operator" v="Enedis"/>
  <tag k="operator:wikidata" v="Q3587594"/>
  <tag k="power" v="pole"/>
 </node>
 <node id="3605960440" visible="true" version="4" changeset="129816007" timestamp="2022-12-07T10:39:14Z" user="user_5589" uid="5589" lat="49.3008855" lon="5.4197436">
  <tag k="operator" v="Enedis"/>
  <tag k="operator:wikidata" v="Q3587594"/>
  <tag k="power" v="pole"/>
 </node>
 <node id="3605960441" visible="true" version="4" changeset="129816007" timestamp="2022-12-07T10:39:14Z" user="user_5589" uid="5589" lat="49.3017498" lon="5.4178571">
  <tag k="operator" v="Enedis"/>
  <tag k="operator:wikidata" v="Q3587594"/>
  <tag k="power" v="pole"/>
 </node>
 <node id="3605960442" visible="true" version="4" changeset="129816007" timestamp="2022-12-07T10:39:14Z" user="user_5589" uid="5589" lat="49.3022453" lon="5.4167879">
  <tag k="operator" v="Enedis"/>
  <tag k="operator:wikidata" v="Q3587594"/>
  <tag k="power" v="pole"/>
 </node>
 <node id="3605960443" visible="true" version="4" changeset="129816007" timestamp="2022-12-07T10:39:14Z" user="user_5589" uid="5589" lat="49.3031441" lon="5.4148484">
  <tag k="operator" v="Enedis"/>
  <tag k="operator:wikidata" v="Q3587594"/>
  <tag k="power" v="pole"/>
 </node>
 <node id="3605960444" visible="true" version="4" changeset="129816007" timestamp="2022-12-07T10:39:14Z" user="user_5589" uid="5589" lat="49.3039680" lon="5.4130944">
  <tag k="operator" v="Enedis"/>
  <tag k="operator:wikidata" v="Q3587594"/>
  <tag k="power" v="pole"/>
 </node>
 <node id="3605960445" visible="true" version="4" changeset="129816007" timestamp="2022-12-07T10:39:14Z" user="user_5589" uid="5589" lat="49.3044894" lon="5.4119545">
  <tag k="operator" v="Enedis"/>
  <tag k="operator:wikidata" v="Q3587594"/>
  <tag k="power" v="pole"/>
 </node>
 <node id="3605960446" visible="true" version="5" changeset="129816007" timestamp="2022-12-07T10:39:14Z" user="user_5589" uid="5589" lat="49.3051377" lon="5.4105979">
  <tag k="operator" v="Enedis"/>
  <tag k="operator:wikidata" v="Q3587594"/>
  <tag k="power" v="pole"/>
  <tag k="source" v="Ortho HR"/>
 </node>
 <node id="3605982725" visible="true" version="5" changeset="129816007" timestamp="2022-12-07T10:39:14Z" user="user_5589" uid="5589" lat="49.3068138" lon="5.4069974">
  <tag k="operator" v="Enedis"/>
  <tag k="operator:wikidata" v="Q3587594"/>
  <tag k="power" v="pole"/>
  <tag k="source" v="Ortho HR"/>
 </node>
 <node id="3605982726" visible="true" version="5" changeset="129816007" timestamp="2022-12-07T10:39:14Z" user="user_5589" uid="5589" lat="49.3081511" lon="5.4072237">
  <tag k="operator" v="Enedis"/>
  <tag k="operator:wikidata" v="Q3587594"/>
  <tag k="power" v="pole"/>
  <tag k="source" v="Ortho HR"/>
 </node>
 <node id="3605982728" visible="true" version="4" changeset="129816007" timestamp="2022-12-07T10:39:14Z" user="user_5589" uid="5589" lat="49.3093647" lon="5.4074416">
  <tag k="operator" v="Enedis"/>
  <tag k="operator:wikidata" v="Q3587594"/>
  <tag k="power" v="pole"/>
 </node>
 <node id="3605982729" visible="true" version="4" changeset="129816007" timestamp="2022-12-07T10:39:14Z" user="user_5589" uid="5589" lat="49.3109826" lon="5.4077145">
  <tag k="operator" v="Enedis"/>
  <tag k="operator:wikidata" v="Q3587594"/>
  <tag k="power" v="pole"/>
 </node>
 <node id="3605982730" visible="true" version="3" changeset="129816007" timestamp="2022-12-07T10:39:14Z" user="user_5589" uid="5589" lat="49.3131313" lon="5.4080887">
  <tag k="operator" v="Enedis"/>
  <tag k="operator:wikidata" v="Q3587594"/>
  <tag k="power" v="pole"/>
 </node>
 <node id="3605982731" visible="true" version="4" changeset="129816007" timestamp="2022-12-07T10:39:14Z" user="user_5589" uid="5589" lat="49.3152960" lon="5.4084603">
  <tag k="operator" v="Enedis"/>
  <tag k="operator:wikidata" v="Q3587594"/>
  <tag k="power" v="pole"/>
 </node>
 <node id="3605982732" visible="true" version="4" changeset="129816007" timestamp="2022-12-07T10:39:14Z" user="user_5589" uid="5589" lat="49.3167143" lon="5.4087180">
  <tag k="operator" v="Enedis"/>
  <tag k="operator:wikidata" v="Q3587594"/>
  <tag k="power" v="pole"/>
 </node>
 <node id="3605982733" visible="true" version="4" changeset="129816007" timestamp="2022-12-07T10:39:14Z" user="user_5589" uid="5589" lat="49.3183630" lon="5.4090237">
  <tag k="operator" v="Enedis"/>
  <tag k="operator:wikidata" v="Q3587594"/>
  <tag k="power" v="pole"/>
 </node>
 <node id="3605982734" visible="true" version="4" changeset="129816007" timestamp="2022-12-07T10:39:14Z" user="user_5589" uid="5589" lat="49.3194741" lon="5.4092321">
  <tag k="operator" v="Enedis"/>
  <tag k="operator:wikidata" v="Q3587594"/>
  <tag k="power" v="pole"/>
 </node>
 <node id="3605982735" visible="true" version="4" changeset="129816007" timestamp="2022-12-07T10:39:14Z" user="user_5589" uid="5589" lat="49.3216345" lon="5.4096157">
  <tag k="operator" v="Enedis"/>
  <tag k="operator:wikidata" v="Q3587594"/>
  <tag k="power" v="pole"/>
 </node>
 <node id="3605982736" visible="true" version="3" changeset="129816007" timestamp="2022-12-07T10:39:14Z" user="user_5589" uid="5589" lat="49.3207712" lon="5.4094359">
  <tag k="operator" v="Enedis"/>
  <tag k="operator:wikidata" v="Q3587594"/>
  <tag k="power" v="pole"/>
 </node>
 <node id="3605982737" visible="true" version="4" changeset="129816007" timestamp="2022-12-07T10:39:14Z" user="user_5589" uid="5589" lat="49.3225917" lon="5.4097775">
  <tag k="operator" v="Enedis"/>
  <tag k="operator:wikidata" v="Q3587594"/>
  <tag k="power" v="pole"/>
 </node>
 <node id="3605982739" visible="true" version="4" changeset="129816007" timestamp="2022-12-07T10:39:14Z" user="user_5589" uid="5589" lat="49.3237168" lon="5.4099693">
  <tag k="operator" v="Enedis"/>
  <tag k="operator:wikidata" v="Q3587594"/>
  <tag k="power" v="pole"/>
 </node>
 <node id="3605982740" visible="true" version="4" changeset="129816007" timestamp="2022-12-07T10:39:14Z" user="user_5589" uid="5589" lat="49.3244785" lon="5.4101192">
  <tag k="operator" v="Enedis"/>
  <tag k="operator:wikidata" v="Q3587594"/>
  <tag k="power" v="pole"/>
 </node>
 <node id="3605989026" visible="true" version="4" changeset="129816007" timestamp="2022-12-07T10:39:14Z" user="user_5589" uid="5589" lat="49.3259242" lon="5.4103812">
  <tag k="operator" v="Enedis"/>
  <tag k="operator:wikidata" v="Q3587594"/>
  <tag k="power" v="pole"/>
 </node>
 <node id="3605989027" visible="true" version="4" changeset="129816007" timestamp="2022-12-07T10:39:14Z" user="user_5589" uid="5589" lat="49.3272947" lon="5.4106082">
  <tag k="operator" v="Enedis"/>
  <tag k="operator:wikidata" v="Q3587594"/>
  <tag k="power" v="pole"/>
 </node>
 <node id="3605989028" visible="true" version="4" changeset="129816007" timestamp="2022-12-07T10:39:14Z" user="user_5589" uid="5589" lat="49.3287288" lon="5.4108408">
  <tag k="operator" v="Enedis"/>
  <tag k="operator:wikidata" v="Q3587594"/>
  <tag k="power" v="pole"/>
 </node>
 <node id="3605989029" visible="true" version="4" changeset="129816007" timestamp="2022-12-07T10:39:14Z" user="user_5589" uid="5589" lat="49.3301581" lon="5.4111156">
  <tag k="operator" v="Enedis"/>
  <tag k="operator:wikidata" v="Q3587594"/>
  <tag k="power" v="pole"/>
 </node>
 <node id="3605989030" visible="true" version="4" changeset="129816007" timestamp="2022-12-07T10:39:14Z" user="user_5589" uid="5589" lat="49.3307245" lon="5.4112115">
  <tag k="operator" v="Enedis"/>
  <tag k="operator:wikidata" v="Q3587594"/>
  <tag k="power" v="pole"/>
 </node>
 <node id="3605989031" visible="true" version="4" changeset="129816007" timestamp="2022-12-07T10:39:14Z" user="user_5589" uid="5589" lat="49.3323064" lon="5.4114992">
  <tag k="operator" v="Enedis"/>
  <tag k="operator:wikidata" v="Q3587594"/>
  <tag k="power" v="pole"/>
 </node>
 <node id="3605989032" visible="true" version="4" changeset="129816007" timestamp="2022-12-07T10:39:14Z" user="user_5589" uid="5589" lat="49.3332320" lon="5.4116730">
  <tag k="operator" v="Enedis"/>
  <tag k="operator:wikidata" v="Q3587594"/>
  <tag k="power" v="pole"/>
 </node>
 <node id="3605989033" visible="true" version="4" changeset="129816007" timestamp="2022-12-07T10:39:14Z" user="user_5589" uid="5589" lat="49.3346264" lon="5.4119187">
  <tag k="operator" v="Enedis"/>
  <tag k="operator:wikidata" v="Q3587594"/>
  <tag k="power" v="pole"/>
 </node>
 <node id="3605989050" visible="true" version="4" changeset="129816007" timestamp="2022-12-07T10:39:14Z" user="user_5589" uid="5589" lat="49.3382488" lon="5.4125501">
  <tag k="operator" v="Enedis"/>
  <tag k="operator:wikidata" v="Q3587594"/>
  <tag k="power" v="pole"/>
 </node>
 <node id="3605989051" visible="true" version="4" changeset="129816007" timestamp="2022-12-07T10:39:14Z" user="user_5589" uid="5589" lat="49.3368194" lon="5.4123044">
  <tag k="operator" v="Enedis"/>
  <tag k="operator:wikidata" v="Q3587594"/>
  <tag k="power" v="pole"/>
 </node>
 <node id="3605989052" visible="true" version="4" changeset="129816007" timestamp="2022-12-07T10:39:14Z" user="user_5589" uid="5589" lat="49.3357649" lon="5.4121066">
  <tag k="operator" v="Enedis"/>
  <tag k="operator:wikidata" v="Q3587594"/>
  <tag k="power" v="pole"/>
 </node>
 <node id="3606000026" visible="true" version="4" changeset="129816007" timestamp="2022-12-07T10:39:14Z" user="user_5589" uid="5589" lat="49.3395711" lon="5.4127825">
  <tag k="operator" v="Enedis"/>
  <tag k="operator:wikidata" v="Q3587594"/>
  <tag k="power" v="pole"/>
 </node>
 <node id="3606000027" visible="true" version="4" changeset="129816007" timestamp="2022-12-07T10:39:14Z" user="user_5589" uid="5589" lat="49.3407075" lon="5.4129803">
  <tag k="operator" v="Enedis"/>
  <tag k="operator:wikidata" v="Q3587594"/>
  <tag k="power" v="pole"/>
 </node>
 <node id="3606000028" visible="true" version="4" changeset="129816007" timestamp="2022-12-07T10:39:14Z" user="user_5589" uid="5589" lat="49.3414964" lon="5.4131122">
  <tag k="operator" v="Enedis"/>
  <tag k="operator:wikidata" v="Q3587594"/>
  <tag k="power" v="pole"/>
 </node>
 <node id="3606000032" visible="true" version="4" changeset="129816007" timestamp="2022-12-07T10:39:14Z" user="user_5589" uid="5589" lat="49.3443197" lon="5.4136276">
  <tag k="operator" v="Enedis"/>
  <tag k="operator:wikidata" v="Q3587594"/>
  <tag k="power" v="pole"/>
 </node>
 <node id="3606000033" visible="true" version="4" changeset="129816007" timestamp="2022-12-07T10:39:14Z" user="user_5589" uid="5589" lat="49.3425809" lon="5.4132367">
  <tag k="operator" v="Enedis"/>
  <tag k="operator:wikidata" v="Q3587594"/>
  <tag k="power" v="pole"/>
 </node>
 <node id="3606000034" visible="true" version="4" changeset="129816007" timestamp="2022-12-07T10:39:14Z" user="user_5589" uid="5589" lat="49.3459143" lon="5.4138877">
  <tag k="operator" v="Enedis"/>
  <tag k="operator:wikidata" v="Q3587594"/>
  <tag k="power" v="pole"/>
 </node>
 <node id="3606000035" visible="true" version="4" changeset="129816007" timestamp="2022-12-07T10:39:14Z" user="user_5589" uid="5589" lat="49.3471404" lon="5.4141035">
  <tag k="operator" v="Enedis"/>
  <tag k="operator:wikidata" v="Q3587594"/>
  <tag k="power" v="pole"/>
 </node>
 <node id="3606000036" visible="true" version="4" changeset="129816007" timestamp="2022-12-07T10:39:14Z" user="user_5589" uid="5589" lat="49.3479994" lon="5.4137498">
  <tag k="operator" v="Enedis"/>
  <tag k="operator:wikidata" v="Q3587594"/>
  <tag k="power" v="pole"/>
 </node>
 <node id="3606000037" visible="true" version="4" changeset="129816007" timestamp="2022-12-07T10:39:14Z" user="user_5589" uid="5589" lat="49.3493504" lon="5.4131805">
  <tag k="operator" v="Enedis"/>
  <tag k="operator:wikidata" v="Q3587594"/>
  <tag k="power" v="pole"/>
 </node>
 <node id="3606000038" visible="true" version="4" changeset="129816007" timestamp="2022-12-07T10:39:14Z" user="user_5589" uid="5589" lat="49.3516189" lon="5.4121855">
  <tag k="operator" v="Enedis"/>
  <tag k="operator:wikidata" v="Q3587594"/>
  <tag k="power" v="pole"/>
 </node>
 <node id="3606000040" visible="true" version="4" changeset="129816007" timestamp="2022-12-07T10:39:14Z" user="user_5589" uid="5589" lat="49.3539653" lon="5.4111906">
  <tag k="operator" v="Enedis"/>
  <tag k="operator:wikidata" v="Q3587594"/>
  <tag k="power" v="pole"/>
 </node>
 <node id="3606000041" visible="true" version="4" changeset="129816007" timestamp="2022-12-07T10:39:14Z" user="user_5589" uid="5589" lat="49.3556558" lon="5.4104654">
  <tag k="operator" v="Enedis"/>
  <tag k="operator:wikidata" v="Q3587594"/>
  <tag k="power" v="pole"/>
 </node>
 <node id="3606000042" visible="true" version="4" changeset="129816007" timestamp="2022-12-07T10:39:14Z" user="user_5589" uid="5589" lat="49.3571978" lon="5.4097941">
  <tag k="operator" v="Enedis"/>
  <tag k="operator:wikidata" v="Q3587594"/>
  <tag k="power" v="pole"/>
 </node>
 <node id="3606000043" visible="true" version="3" changeset="129816007" timestamp="2022-12-07T10:39:14Z" user="user_5589" uid="5589" lat="49.3585603" lon="5.4092367">
  <tag k="operator" v="Enedis"/>
  <tag k="operator:wikidata" v="Q3587594"/>
  <tag k="power" v="pole"/>
 </node>
 <node id="3606000044" visible="true" version="4" changeset="129816007" timestamp="2022-12-07T10:39:14Z" user="user_5589" uid="5589" lat="49.3597314" lon="5.4087272">
  <tag k="operator" v="Enedis"/>
  <tag k="operator:wikidata" v="Q3587594"/>
  <tag k="power" v="pole"/>
 </node>
 <node id="3606000045" visible="true" version="4" changeset="129816007" timestamp="2022-12-07T10:39:14Z" user="user_5589" uid="5589" lat="49.3611016" lon="5.4081458">
  <tag k="operator" v="Enedis"/>
  <tag k="operator:wikidata" v="Q3587594"/>
  <tag k="power" v="pole"/>
 </node>
 <node id="3606000046" visible="true" version="4" changeset="129816007" timestamp="2022-12-07T10:39:14Z" user="user_5589" uid="5589" lat="49.3624717" lon="5.4075465">
  <tag k="operator" v="Enedis"/>
  <tag k="operator:wikidata" v="Q3587594"/>
  <tag k="power" v="pole"/>
 </node>
 <node id="3606010803" visible="true" version="4" changeset="129816007" timestamp="2022-12-07T10:39:14Z" user="user_5589" uid="5589" lat="49.3639533" lon="5.4069254">
  <tag k="operator" v="Enedis"/>
  <tag k="operator:wikidata" v="Q3587594"/>
  <tag k="power" v="pole"/>
 </node>
 <node id="3606010804" visible="true" version="4" changeset="129816007" timestamp="2022-12-07T10:39:14Z" user="user_5589" uid="5589" lat="49.3653353" lon="5.4063237">
  <tag k="operator" v="Enedis"/>
  <tag k="operator:wikidata" v="Q3587594"/>
  <tag k="power" v="pole"/>
 </node>
 <node id="3606010805" visible="true" version="4" changeset="129816007" timestamp="2022-12-07T10:39:14Z" user="user_5589" uid="5589" lat="49.3667544" lon="5.4057139">
  <tag k="operator" v="Enedis"/>
  <tag k="operator:wikidata" v="Q3587594"/>
  <tag k="power" v="pole"/>
 </node>
 <node id="3606010806" visible="true" version="4" changeset="129816007" timestamp="2022-12-07T10:39:14Z" user="user_5589" uid="5589" lat="49.3680517" lon="5.4051691">
  <tag k="operator" v="Enedis"/>
  <tag k="operator:wikidata" v="Q3587594"/>
  <tag k="power" v="pole"/>
 </node>
 <node id="3606010807" visible="true" version="4" changeset="129816007" timestamp="2022-12-07T10:39:14Z" user="user_5589" uid="5589" lat="49.3696056" lon="5.4045126">
  <tag k="operator" v="Enedis"/>
  <tag k="operator:wikidata" v="Q3587594"/>
  <tag k="power" v="pole"/>
 </node>
 <node id="3606010808" visible="true" version="4" changeset="129816007" timestamp="2022-12-07T10:39:14Z" user="user_5589" uid="5589" lat="49.3709055" lon="5.4039413">
  <tag k="operator" v="Enedis"/>
  <tag k="operator:wikidata" v="Q3587594"/>
  <tag k="power" v="pole"/>
 </node>
 <node id="3606010809" visible="true" version="4" changeset="129816007" timestamp="2022-12-07T10:39:14Z" user="user_5589" uid="5589" lat="49.3721073" lon="5.4034535">
  <tag k="operator" v="Enedis"/>
  <tag k="operator:wikidata" v="Q3587594"/>
  <tag k="power" v="pole"/>
 </node>
 <node id="3606010810" visible="true" version="4" changeset="129816007" timestamp="2022-12-07T10:39:14Z" user="user_5589" uid="5589" lat="49.3731874" lon="5.4029656">
  <tag k="operator" v="Enedis"/>
  <tag k="operator:wikidata" v="Q3587594"/>
  <tag k="power" v="pole"/>
 </node>
 <node id="3606010811" visible="true" version="4" changeset="129816007" timestamp="2022-12-07T10:39:14Z" user="user_5589" uid="5589" lat="49.3743468" lon="5.4025103">
  <tag k="operator" v="Enedis"/>
  <tag k="operator:wikidata" v="Q3587594"/>
  <tag k="power" v="pole"/>
 </node>
 <node id="3606010812" visible="true" version="4" changeset="129816007" timestamp="2022-12-07T10:39:14Z" user="user_5589" uid="5589" lat="49.3759298" lon="5.4017948">
  <tag k="operator" v="Enedis"/>
  <tag k="operator:wikidata" v="Q3587594"/>
  <tag k="power" v="pole"/>
 </node>
 <node id="3606010813" visible="true" version="4" changeset="129816007" timestamp="2022-12-07T10:39:14Z" user="user_5589" uid="5589" lat="49.3773432" lon="5.4012175">
  <tag k="operator" v="Enedis"/>
  <tag k="operator:wikidata" v="Q3587594"/>
  <tag k="power" v="pole"/>
 </node>
 <node id="3606010814" visible="true" version="4" changeset="129816007" timestamp="2022-12-07T10:39:14Z" user="user_5589" uid="5589" lat="49.3785132" lon="5.4007052">
  <tag k="operator" v="Enedis"/>
  <tag k="operator:wikidata" v="Q3587594"/>
  <tag k="power" v="pole"/>
 </node>
 <node id="3606010815" visible="true" version="4" changeset="129816007" timestamp="2022-12-07T10:39:14Z" user="user_5589" uid="5589" lat="49.3793760" lon="5.4003149">
  <tag k="operator" v="Enedis"/>
  <tag k="operator:wikidata" v="Q3587594"/>
  <tag k="power" v="pole"/>
 </node>
 <node id="3606010816" visible="true" version="4" changeset="129816007" timestamp="2022-12-07T10:39:14Z" user="user_5589" uid="5589" lat="49.3816893" lon="5.3993392">
  <tag k="operator" v="Enedis"/>
  <tag k="operator:wikidata" v="Q3587594"/>
  <tag k="power" v="pole"/>
 </node>
 <node id="3606010817" visible="true" version="4" changeset="129816007" timestamp="2022-12-07T10:39:14Z" user="user_5589" uid="5589" lat="49.3828485" lon="5.3988595">
  <tag k="operator" v="Enedis"/>
  <tag k="operator:wikidata" v="Q3587594"/>
  <tag k="power" v="pole"/>
 </node>
 <node id="3606010818" visible="true" version="4" changeset="129816007" timestamp="2022-12-07T10:39:14Z" user="user_5589" uid="5589" lat="49.3804033" lon="5.3998953">
  <tag k="operator" v="Enedis"/>
  <tag k="operator:wikidata" v="Q3587594"/>
  <tag k="power" v="pole"/>
 </node>
 <node id="3606010819" visible="true" version="4" changeset="129816007" timestamp="2022-12-07T10:39:14Z" user="user_5589" uid="5589" lat="49.3843733" lon="5.3981850">
  <tag k="operator" v="Enedis"/>
  <tag k="operator:wikidata" v="Q3587594"/>
  <tag k="power" v="pole"/>
 </node>
 <node id="3606010820" visible="true" version="4" changeset="129816007" timestamp="2022-12-07T10:39:14Z" user="user_5589" uid="5589" lat="49.3858077" lon="5.3975670">
  <tag k="operator" v="Enedis"/>
  <tag k="operator:wikidata" v="Q3587594"/>
  <tag k="power" v="pole"/>
 </node>
 <node id="3606010821" visible="true" version="4" changeset="129816007" timestamp="2022-12-07T10:39:14Z" user="user_5589" uid="5589" lat="49.3870462" lon="5.3970466">
  <tag k="operator" v="Enedis"/>
  <tag k="operator:wikidata" v="Q3587594"/>
  <tag k="power" v="pole"/>
 </node>
 <node id="3606010822" visible="true" version="4" changeset="129816007" timestamp="2022-12-07T10:39:14Z" user="user_5589" uid="5589" lat="49.3887028" lon="5.3963392">
  <tag k="operator" v="Enedis"/>
  <tag k="operator:wikidata" v="Q3587594"/>
  <tag k="power" v="pole"/>
 </node>
 <node id="3606010823" visible="true" version="4" changeset="129816007" timestamp="2022-12-07T10:39:14Z" user="user_5589" uid="5589" lat="49.3902377" lon="5.3957132">
  <tag k="operator" v="Enedis"/>
  <tag k="operator:wikidata" v="Q3587594"/>
  <tag k="power" v="pole"/>
 </node>
 <node id="3606010824" visible="true" version="4" changeset="129816007" timestamp="2022-12-07T10:39:14Z" user="user_5589" uid="5589" lat="49.3915502" lon="5.3951359">
  <tag k="operator" v="Enedis"/>
  <tag k="operator:wikidata" v="Q3587594"/>
  <tag k="power" v="pole"/>
 </node>
 <node id="3606010825" visible="true" version="4" changeset="129816007" timestamp="2022-12-07T10:39:14Z" user="user_5589" uid="5589" lat="49.3928309" lon="5.3945992">
  <tag k="operator" v="Enedis"/>
  <tag k="operator:wikidata" v="Q3587594"/>
  <tag k="power" v="pole"/>
 </node>
 <node id="3606010826" visible="true" version="4" changeset="129816007" timestamp="2022-12-07T10:39:14Z" user="user_5589" uid="5589" lat="49.3940798" lon="5.3940544">
  <tag k="operator" v="Enedis"/>
  <tag k="operator:wikidata" v="Q3587594"/>
  <tag k="power" v="pole"/>
 </node>
 <node id="3606010827" visible="true" version="4" changeset="129816007" timestamp="2022-12-07T10:39:14Z" user="user_5589" uid="5589" lat="49.3951382" lon="5.3936804">
  <tag k="operator" v="Enedis"/>
  <tag k="operator:wikidata" v="Q3587594"/>
  <tag k="power" v="pole"/>
 </node>
 <node id="3606010828" visible="true" version="4" changeset="129816007" timestamp="2022-12-07T10:39:14Z" user="user_5589" uid="5589" lat="49.3962930" lon="5.3931214">
  <tag k="operator" v="Enedis"/>
  <tag k="operator:wikidata" v="Q3587594"/>
  <tag k="power" v="pole"/>
 </node>
 <node id="3606010829" visible="true" version="4" changeset="129816007" timestamp="2022-12-07T10:39:14Z" user="user_5589" uid="5589" lat="49.3988992" lon="5.3919965">
  <tag k="operator" v="Enedis"/>
  <tag k="operator:wikidata" v="Q3587594"/>
  <tag k="power" v="pole"/>
 </node>
 <node id="3606010830" visible="true" version="4" changeset="129816007" timestamp="2022-12-07T10:39:14Z" user="user_5589" uid="5589" lat="49.3975982" lon="5.3925501">
  <tag k="operator" v="Enedis"/>
  <tag k="operator:wikidata" v="Q3587594"/>
  <tag k="power" v="pole"/>
 </node>
 <node id="3606010831" visible="true" version="4" changeset="129816007" timestamp="2022-12-07T10:39:14Z" user="user_5589" uid="5589" lat="49.4002009" lon="5.3914192">
  <tag k="operator" v="Enedis"/>
  <tag k="operator:wikidata" v="Q3587594"/>
  <tag k="power" v="pole"/>
 </node>
 <node id="3606010832" visible="true" version="4" changeset="129816007" timestamp="2022-12-07T10:39:14Z" user="user_5589" uid="5589" lat="49.4015343" lon="5.3911671">
  <tag k="operator" v="Enedis"/>
  <tag k="operator:wikidata" v="Q3587594"/>
  <tag k="power" v="pole"/>
 </node>
 <node id="3606010833" visible="true" version="4" changeset="129816007" timestamp="2022-12-07T10:39:14Z" user="user_5589" uid="5589" lat="49.4030476" lon="5.3908825">
  <tag k="operator" v="Enedis"/>
  <tag k="operator:wikidata" v="Q3587594"/>
  <tag k="power" v="pole"/>
 </node>
 <node id="3606010834" visible="true" version="4" changeset="129816007" timestamp="2022-12-07T10:39:14Z" user="user_5589" uid="5589" lat="49.4044814" lon="5.3906224">
  <tag k="operator" v="Enedis"/>
  <tag k="operator:wikidata" v="Q3587594"/>
  <tag k="power" v="pole"/>
 </node>
 <node id="3606010835" visible="true" version="4" changeset="129816007" timestamp="2022-12-07T10:39:14Z" user="user_5589" uid="5589" lat="49.4058412" lon="5.3903296">
  <tag k="operator" v="Enedis"/>
  <tag k="operator:wikidata" v="Q3587594"/>
  <tag k="power" v="pole"/>
 </node>
 <node id="3606010836" visible="true" version="4" changeset="129816007" timestamp="2022-12-07T10:39:14Z" user="user_5589" uid="5589" lat="49.4084230" lon="5.3898418">
  <tag k="operator" v="Enedis"/>
  <tag k="operator:wikidata" v="Q3587594"/>
  <tag k="power" v="pole"/>
 </node>
 <node id="3606010837" visible="true" version="4" changeset="129816007" timestamp="2022-12-07T10:39:14Z" user="user_5589" uid="5589" lat="49.4071680" lon="5.3900819">
  <tag k="operator" v="Enedis"/>
  <tag k="operator:wikidata" v="Q3587594"/>
  <tag k="power" v="pole"/>
 </node>
 <node id="3606010838" visible="true" version="4" changeset="129816007" timestamp="2022-12-07T10:39:14Z" user="user_5589" uid="5589" lat="49.4098435" lon="5.3895735">
  <tag k="operator" v="Enedis"/>
  <tag k="operator:wikidata" v="Q3587594"/>
  <tag k="power" v="pole"/>
 </node>
 <node id="3606010839" visible="true" version="4" changeset="129816007" timestamp="2022-12-07T10:39:14Z" user="user_5589" uid="5589" lat="49.4121302" lon="5.3891342">
  <tag k="operator" v="Enedis"/>
  <tag k="operator:wikidata" v="Q3587594"/>
  <tag k="power" v="pole"/>
 </node>
 <node id="3606010840" visible="true" version="4" changeset="129816007" timestamp="2022-12-07T10:39:14Z" user="user_5589" uid="5589" lat="49.4110286" lon="5.3893020">
  <tag k="operator" v="Enedis"/>
  <tag k="operator:wikidata" v="Q3587594"/>
  <tag k="power" v="pole"/>
 </node>
 <node id="3606573356" visible="true" version="4" changeset="129816007" timestamp="2022-12-07T10:39:14Z" user="user_5589" uid="5589" lat="49.4142688" lon="5.3887232">
  <tag k="operator" v="Enedis"/>
  <tag k="operator:wikidata" v="Q3587594"/>
  <tag k="power" v="pole"/>
 </node>
 <node id="3606573357" visible="true" version="4" changeset="129816007" timestamp="2022-12-07T10:39:14Z" user="user_5589" uid="5589" lat="49.4128910" lon="5.3890070">
  <tag k="operator" v="Enedis"/>
  <tag k="operator:wikidata" v="Q3587594"/>
  <tag k="power" v="pole"/>
 </node>
 <node id="3606573358" visible="true" version="4" changeset="129816007" timestamp="2022-12-07T10:39:14Z" user="user_5589" uid="5589" lat="49.4157832" lon="5.3884343">
  <tag k="operator" v="Enedis"/>
  <tag k="operator:wikidata" v="Q3587594"/>
  <tag k="power" v="pole"/>
 </node>
 <node id="3606573359" visible="true" version="4" changeset="129816007" timestamp="2022-12-07T10:39:14Z" user="user_5589" uid="5589" lat="49.4169579" lon="5.3881992">
  <tag k="operator" v="Enedis"/>
  <tag k="operator:wikidata" v="Q3587594"/>
  <tag k="power" v="pole"/>
 </node>
 <node id="3606573360" visible="true" version="4" changeset="129816007" timestamp="2022-12-07T10:39:14Z" user="user_5589" uid="5589" lat="49.4180752" lon="5.3879736">
  <tag k="operator" v="Enedis"/>
  <tag k="operator:wikidata" v="Q3587594"/>
  <tag k="power" v="pole"/>
 </node>
 <node id="3606573361" visible="true" version="4" changeset="129816007" timestamp="2022-12-07T10:39:14Z" user="user_5589" uid="5589" lat="49.4200351" lon="5.3875879">
  <tag k="operator" v="Enedis"/>
  <tag k="operator:wikidata" v="Q3587594"/>
  <tag k="power" v="pole"/>
 </node>
 <node id="3606573362" visible="true" version="4" changeset="129816007" timestamp="2022-12-07T10:39:14Z" user="user_5589" uid="5589" lat="49.4189368" lon="5.3878063">
  <tag k="operator" v="Enedis"/>
  <tag k="operator:wikidata" v="Q3587594"/>
  <tag k="power" v="pole"/>
 </node>
 <node id="3606573363" visible="true" version="4" changeset="129816007" timestamp="2022-12-07T10:39:14Z" user="user_5589" uid="5589" lat="49.4215358" lon="5.3873041">
  <tag k="operator" v="Enedis"/>
  <tag k="operator:wikidata" v="Q3587594"/>
  <tag k="power" v="pole"/>
 </node>
 <node id="3606573364" visible="true" version="4" changeset="129816007" timestamp="2022-12-07T10:39:14Z" user="user_5589" uid="5589" lat="49.4227240" lon="5.3870713">
  <tag k="operator" v="Enedis"/>
  <tag k="operator:wikidata" v="Q3587594"/>
  <tag k="power" v="pole"/>
 </node>
 <node id="3606573365" visible="true" version="4" changeset="129816007" timestamp="2022-12-07T10:39:14Z" user="user_5589" uid="5589" lat="49.4243381" lon="5.3867729">
  <tag k="operator" v="Enedis"/>
  <tag k="operator:wikidata" v="Q3587594"/>
  <tag k="power" v="pole"/>
 </node>
 <node id="3606573366" visible="true" version="4" changeset="129816007" timestamp="2022-12-07T10:39:14Z" user="user_5589" uid="5589" lat="49.4255783" lon="5.3865473">
  <tag k="operator" v="Enedis"/>
  <tag k="operator:wikidata" v="Q3587594"/>
  <tag k="power" v="pole"/>
 </node>
 <node id="3606573367" visible="true" version="4" changeset="129816007" timestamp="2022-12-07T10:39:14Z" user="user_5589" uid="5589" lat="49.4268989" lon="5.3862707">
  <tag k="operator" v="Enedis"/>
  <tag k="operator:wikidata" v="Q3587594"/>
  <tag k="power" v="pole"/>
 </node>
 <node id="3606632333" visible="true" version="4" changeset="129816007" timestamp="2022-12-07T10:39:14Z" user="user_5589" uid="5589" lat="49.4280692" lon="5.3863936">
  <tag k="operator" v="Enedis"/>
  <tag k="operator:wikidata" v="Q3587594"/>
  <tag k="power" v="pole"/>
 </node>
 <node id="3606632334" visible="true" version="2" changeset="96868881" timestamp="2021-01-04T00:29:52Z" user="InfosReseaux" uid="93222" lat="49.4305257" lon="5.3855640">
  <tag k="operator" v="Enedis"/>
  <tag k="power" v="tower"/>
 </node>
 <node id="3606632335" visible="true" version="4" changeset="129816007" timestamp="2022-12-07T10:39:14Z" user="user_5589" uid="5589" lat="49.4290632" lon="5.3858478">
  <tag k="operator" v="Enedis"/>
  <tag k="operator:wikidata" v="Q3587594"/>
  <tag k="power" v="pole"/>
 </node>
 <node id="3606632336" visible="true" version="4" changeset="129816007" timestamp="2022-12-07T10:39:14Z" user="user_5589" uid="5589" lat="49.4320118" lon="5.3852874">
  <tag k="operator" v="Enedis"/>
  <tag k="operator:wikidata" v="Q3587594"/>
  <tag k="power" v="pole"/>
 </node>
 <node id="3606632337" visible="true" version="2" changeset="96868881" timestamp="2021-01-04T00:29:52Z" user="InfosReseaux" uid="93222" lat="49.4336399" lon="5.3849672">
  <tag k="operator" v="Enedis"/>
  <tag k="power" v="tower"/>
 </node>
 <node id="3606632339" visible="true" version="4" changeset="129816007" timestamp="2022-12-07T10:39:14Z" user="user_5589" uid="5589" lat="49.4349366" lon="5.3847052">
  <tag k="operator" v="Enedis"/>
  <tag k="operator:wikidata" v="Q3587594"/>
  <tag k="power" v="pole"/>
 </node>
 <node id="3606632341" visible="true" version="4" changeset="129789226" timestamp="2022-12-06T16:15:53Z" user="user_5589" uid="5589" lat="49.4363138" lon="5.3844433">
  <tag k="operator" v="Enedis"/>
  <tag k="operator:wikidata" v="Q3587594"/>
  <tag k="power" v="pole"/>
 </node>
 <node id="3606632342" visible="true" version="4" changeset="129789226" timestamp="2022-12-06T16:15:53Z" user="user_5589" uid="5589" lat="49.4371278" lon="5.3843414">
  <tag k="operator" v="Enedis"/>
  <tag k="operator:wikidata" v="Q3587594"/>
  <tag k="power" v="pole"/>
 </node>
 <node id="3606632343" visible="true" version="4" changeset="129789226" timestamp="2022-12-06T16:15:53Z" user="user_5589" uid="5589" lat="49.4384008" lon="5.3841813">
  <tag k="operator" v="Enedis"/>
  <tag k="operator:wikidata" v="Q3587594"/>
  <tag k="power" v="pole"/>
 </node>
 <node id="3606632344" visible="true" version="4" changeset="129789226" timestamp="2022-12-06T16:15:53Z" user="user_5589" uid="5589" lat="49.4395412" lon="5.3840576">
  <tag k="operator" v="Enedis"/>
  <tag k="operator:wikidata" v="Q3587594"/>
  <tag k="power" v="pole"/>
 </node>
 <node id="3606632345" visible="true" version="4" changeset="129789226" timestamp="2022-12-06T16:15:53Z" user="user_5589" uid="5589" lat="49.4409798" lon="5.3838902">
  <tag k="operator" v="Enedis"/>
  <tag k="operator:wikidata" v="Q3587594"/>
  <tag k="power" v="pole"/>
 </node>
 <node id="3606632346" visible="true" version="4" changeset="129789226" timestamp="2022-12-06T16:15:53Z" user="user_5589" uid="5589" lat="49.4422905" lon="5.3837374">
  <tag k="operator" v="Enedis"/>
  <tag k="operator:wikidata" v="Q3587594"/>
  <tag k="power" v="pole"/>
 </node>
 <node id="3606632353" visible="true" version="4" changeset="129789226" timestamp="2022-12-06T16:15:53Z" user="user_5589" uid="5589" lat="49.4431517" lon="5.3836282">
  <tag k="operator" v="Enedis"/>
  <tag k="operator:wikidata" v="Q3587594"/>
  <tag k="power" v="pole"/>
 </node>
 <node id="3606632354" visible="true" version="4" changeset="129789226" timestamp="2022-12-06T16:15:53Z" user="user_5589" uid="5589" lat="49.4452147" lon="5.3833589">
  <tag k="operator" v="Enedis"/>
  <tag k="operator:wikidata" v="Q3587594"/>
  <tag k="power" v="pole"/>
 </node>
 <node id="3606632355" visible="true" version="4" changeset="129789226" timestamp="2022-12-06T16:15:53Z" user="user_5589" uid="5589" lat="49.4464827" lon="5.3832425">
  <tag k="operator" v="Enedis"/>
  <tag k="operator:wikidata" v="Q3587594"/>
  <tag k="power" v="pole"/>
 </node>
 <node id="3606632356" visible="true" version="2" changeset="96868881" timestamp="2021-01-04T00:29:52Z" user="InfosReseaux" uid="93222" lat="49.4476703" lon="5.3830969">
  <tag k="operator" v="Enedis"/>
  <tag k="power" v="tower"/>
 </node>
 <node id="3606632357" visible="true" version="4" changeset="129789226" timestamp="2022-12-06T16:15:53Z" user="user_5589" uid="5589" lat="49.4490661" lon="5.3829441">
  <tag k="operator" v="Enedis"/>
  <tag k="operator:wikidata" v="Q3587594"/>
  <tag k="power" v="pole"/>
 </node>
 <node id="3606632358" visible="true" version="4" changeset="129789226" timestamp="2022-12-06T16:15:53Z" user="user_5589" uid="5589" lat="49.4507361" lon="5.3827258">
  <tag k="operator" v="Enedis"/>
  <tag k="operator:wikidata" v="Q3587594"/>
  <tag k="power" v="pole"/>
 </node>
 <node id="3606632359" visible="true" version="4" changeset="129789226" timestamp="2022-12-06T16:15:53Z" user="user_5589" uid="5589" lat="49.4525055" lon="5.3825293">
  <tag k="operator" v="Enedis"/>
  <tag k="operator:wikidata" v="Q3587594"/>
  <tag k="power" v="pole"/>
 </node>
 <node id="3606632360" visible="true" version="4" changeset="129789226" timestamp="2022-12-06T16:15:53Z" user="user_5589" uid="5589" lat="49.4538301" lon="5.3823619">
  <tag k="operator" v="Enedis"/>
  <tag k="operator:wikidata" v="Q3587594"/>
  <tag k="power" v="pole"/>
 </node>
 <node id="3606632361" visible="true" version="4" changeset="129789226" timestamp="2022-12-06T16:15:53Z" user="user_5589" uid="5589" lat="49.4550743" lon="5.3821873">
  <tag k="operator" v="Enedis"/>
  <tag k="operator:wikidata" v="Q3587594"/>
  <tag k="power" v="pole"/>
 </node>
 <node id="3606632362" visible="true" version="4" changeset="129789226" timestamp="2022-12-06T16:15:53Z" user="user_5589" uid="5589" lat="49.4555237" lon="5.3821654">
  <tag k="operator" v="Enedis"/>
  <tag k="operator:wikidata" v="Q3587594"/>
  <tag k="power" v="pole"/>
 </node>
 <node id="3606632369" visible="true" version="5" changeset="129816007" timestamp="2022-12-07T10:39:14Z" user="user_5589" uid="5589" lat="49.4274319" lon="5.3867549">
  <tag k="operator" v="Enedis"/>
  <tag k="operator:wikidata" v="Q3587594"/>
  <tag k="power" v="pole"/>
 </node>
 <node id="3696934369" visible="true" version="3" changeset="129816007" timestamp="2022-12-07T10:39:14Z" user="user_5589" uid="5589" lat="49.3875089" lon="5.4577480">
  <tag k="operator" v="Enedis"/>
  <tag k="operator:wikidata" v="Q3587594"/>
  <tag k="power" v="pole"/>
 </node>
 <node id="3696934370" visible="true" version="3" changeset="129816007" timestamp="2022-12-07T10:39:14Z" user="user_5589" uid="5589" lat="49.3870864" lon="5.4593144">
  <tag k="operator" v="Enedis"/>
  <tag k="operator:wikidata" v="Q3587594"/>
  <tag k="power" v="pole"/>
 </node>
 <node id="3696934371" visible="true" version="3" changeset="129816007" timestamp="2022-12-07T10:39:14Z" user="user_5589" uid="5589" lat="49.3866045" lon="5.4610739">
  <tag k="operator" v="Enedis"/>
  <tag k="operator:wikidata" v="Q3587594"/>
  <tag k="power" v="pole"/>
 </node>
 <node id="3696934372" visible="true" version="3" changeset="129816007" timestamp="2022-12-07T10:39:14Z" user="user_5589" uid="5589" lat="49.3862518" lon="5.4623829">
  <tag k="operator" v="Enedis"/>
  <tag k="operator:wikidata" v="Q3587594"/>
  <tag k="power" v="pole"/>
 </node>
 <node id="3696934373" visible="true" version="3" changeset="129816007" timestamp="2022-12-07T10:39:14Z" user="user_5589" uid="5589" lat="49.3858258" lon="5.4639546">
  <tag k="operator" v="Enedis"/>
  <tag k="operator:wikidata" v="Q3587594"/>
  <tag k="power" v="pole"/>
 </node>
 <node id="3696934374" visible="true" version="3" changeset="129816007" timestamp="2022-12-07T10:39:14Z" user="user_5589" uid="5589" lat="49.3852880" lon="5.4659770">
  <tag k="operator" v="Enedis"/>
  <tag k="operator:wikidata" v="Q3587594"/>
  <tag k="power" v="pole"/>
 </node>
 <node id="3696934386" visible="true" version="3" changeset="129816007" timestamp="2022-12-07T10:39:14Z" user="user_5589" uid="5589" lat="49.3878769" lon="5.4563940">
  <tag k="operator" v="Enedis"/>
  <tag k="operator:wikidata" v="Q3587594"/>
  <tag k="power" v="pole"/>
 </node>
 <node id="3696934387" visible="true" version="3" changeset="129816007" timestamp="2022-12-07T10:39:14Z" user="user_5589" uid="5589" lat="49.3885089" lon="5.4540015">
  <tag k="operator" v="Enedis"/>
  <tag k="operator:wikidata" v="Q3587594"/>
  <tag k="power" v="pole"/>
 </node>
 <node id="3696934388" visible="true" version="3" changeset="129816007" timestamp="2022-12-07T10:39:14Z" user="user_5589" uid="5589" lat="49.3887254" lon="5.4527194">
  <tag k="operator" v="Enedis"/>
  <tag k="operator:wikidata" v="Q3587594"/>
  <tag k="power" v="pole"/>
 </node>
 <node id="3696934389" visible="true" version="3" changeset="129816007" timestamp="2022-12-07T10:39:14Z" user="user_5589" uid="5589" lat="49.3891584" lon="5.4500640">
  <tag k="operator" v="Enedis"/>
  <tag k="operator:wikidata" v="Q3587594"/>
  <tag k="power" v="pole"/>
 </node>
 <node id="3696934391" visible="true" version="3" changeset="129816007" timestamp="2022-12-07T10:39:14Z" user="user_5589" uid="5589" lat="49.3894760" lon="5.4481835">
  <tag k="operator" v="Enedis"/>
  <tag k="operator:wikidata" v="Q3587594"/>
  <tag k="power" v="pole"/>
 </node>
 <node id="3696934392" visible="true" version="3" changeset="129816007" timestamp="2022-12-07T10:39:14Z" user="user_5589" uid="5589" lat="49.3897537" lon="5.4463901">
  <tag k="operator" v="Enedis"/>
  <tag k="operator:wikidata" v="Q3587594"/>
  <tag k="power" v="pole"/>
 </node>
 <node id="3696934393" visible="true" version="3" changeset="129816007" timestamp="2022-12-07T10:39:14Z" user="user_5589" uid="5589" lat="49.3904520" lon="5.4422005">
  <tag k="operator" v="Enedis"/>
  <tag k="operator:wikidata" v="Q3587594"/>
  <tag k="power" v="pole"/>
 </node>
 <node id="3696934394" visible="true" version="3" changeset="129816007" timestamp="2022-12-07T10:39:14Z" user="user_5589" uid="5589" lat="49.3907698" lon="5.4402747">
  <tag k="operator" v="Enedis"/>
  <tag k="operator:wikidata" v="Q3587594"/>
  <tag k="power" v="pole"/>
 </node>
 <node id="3696934395" visible="true" version="3" changeset="129816007" timestamp="2022-12-07T10:39:14Z" user="user_5589" uid="5589" lat="49.3910735" lon="5.4384240">
  <tag k="operator" v="Enedis"/>
  <tag k="operator:wikidata" v="Q3587594"/>
  <tag k="power" v="pole"/>
 </node>
 <node id="3696934396" visible="true" version="3" changeset="129816007" timestamp="2022-12-07T10:39:14Z" user="user_5589" uid="5589" lat="49.3913843" lon="5.4365035">
  <tag k="operator" v="Enedis"/>
  <tag k="operator:wikidata" v="Q3587594"/>
  <tag k="power" v="pole"/>
 </node>
 <node id="3696934397" visible="true" version="3" changeset="129816007" timestamp="2022-12-07T10:39:14Z" user="user_5589" uid="5589" lat="49.3916078" lon="5.4351731">
  <tag k="operator" v="Enedis"/>
  <tag k="operator:wikidata" v="Q3587594"/>
  <tag k="power" v="pole"/>
 </node>
 <node id="3696934398" visible="true" version="3" changeset="129816007" timestamp="2022-12-07T10:39:14Z" user="user_5589" uid="5589" lat="49.3918522" lon="5.4336496">
  <tag k="operator" v="Enedis"/>
  <tag k="operator:wikidata" v="Q3587594"/>
  <tag k="power" v="pole"/>
 </node>
 <node id="3696934399" visible="true" version="3" changeset="129816007" timestamp="2022-12-07T10:39:14Z" user="user_5589" uid="5589" lat="49.3921140" lon="5.4320671">
  <tag k="operator" v="Enedis"/>
  <tag k="operator:wikidata" v="Q3587594"/>
  <tag k="power" v="pole"/>
 </node>
 <node id="3696934400" visible="true" version="3" changeset="129816007" timestamp="2022-12-07T10:39:14Z" user="user_5589" uid="5589" lat="49.3923724" lon="5.4305061">
  <tag k="operator" v="Enedis"/>
  <tag k="operator:wikidata" v="Q3587594"/>
  <tag k="power" v="pole"/>
 </node>
 <node id="3696934401" visible="true" version="3" changeset="129816007" timestamp="2022-12-07T10:39:14Z" user="user_5589" uid="5589" lat="49.3927041" lon="5.4285427">
  <tag k="operator" v="Enedis"/>
  <tag k="operator:wikidata" v="Q3587594"/>
  <tag k="power" v="pole"/>
 </node>
 <node id="3696934402" visible="true" version="3" changeset="129816007" timestamp="2022-12-07T10:39:14Z" user="user_5589" uid="5589" lat="49.3929555" lon="5.4269387">
  <tag k="operator" v="Enedis"/>
  <tag k="operator:wikidata" v="Q3587594"/>
  <tag k="power" v="pole"/>
 </node>
 <node id="3696934403" visible="true" version="3" changeset="129816007" timestamp="2022-12-07T10:39:14Z" user="user_5589" uid="5589" lat="49.3932593" lon="5.4250236">
  <tag k="operator" v="Enedis"/>
  <tag k="operator:wikidata" v="Q3587594"/>
  <tag k="power" v="pole"/>
 </node>
 <node id="3696934404" visible="true" version="3" changeset="129816007" timestamp="2022-12-07T10:39:14Z" user="user_5589" uid="5589" lat="49.3901452" lon="5.4440411">
  <tag k="operator" v="Enedis"/>
  <tag k="operator:wikidata" v="Q3587594"/>
  <tag k="power" v="pole"/>
 </node>
 <node id="3696934405" visible="true" version="3" changeset="129816007" timestamp="2022-12-07T10:39:14Z" user="user_5589" uid="5589" lat="49.3935266" lon="5.4234543">
  <tag k="operator" v="Enedis"/>
  <tag k="operator:wikidata" v="Q3587594"/>
  <tag k="power" v="pole"/>
 </node>
 <node id="3696934406" visible="true" version="3" changeset="129816007" timestamp="2022-12-07T10:39:14Z" user="user_5589" uid="5589" lat="49.3939637" lon="5.4223144">
  <tag k="operator" v="Enedis"/>
  <tag k="operator:wikidata" v="Q3587594"/>
  <tag k="power" v="pole"/>
 </node>
 <node id="3696934407" visible="true" version="3" changeset="129816007" timestamp="2022-12-07T10:39:14Z" user="user_5589" uid="5589" lat="49.3957042" lon="5.4175696">
  <tag k="operator" v="Enedis"/>
  <tag k="operator:wikidata" v="Q3587594"/>
  <tag k="power" v="pole"/>
 </node>
 <node id="3696934408" visible="true" version="3" changeset="129816007" timestamp="2022-12-07T10:39:14Z" user="user_5589" uid="5589" lat="49.3950042" lon="5.4194780">
  <tag k="operator" v="Enedis"/>
  <tag k="operator:wikidata" v="Q3587594"/>
  <tag k="power" v="pole"/>
 </node>
 <node id="3696934409" visible="true" version="3" changeset="129816007" timestamp="2022-12-07T10:39:14Z" user="user_5589" uid="5589" lat="49.3945440" lon="5.4207324">
  <tag k="operator" v="Enedis"/>
  <tag k="operator:wikidata" v="Q3587594"/>
  <tag k="power" v="pole"/>
 </node>
 <node id="3696934412" visible="true" version="3" changeset="129816007" timestamp="2022-12-07T10:39:14Z" user="user_5589" uid="5589" lat="49.3951273" lon="5.4191424">
  <tag k="operator" v="Enedis"/>
  <tag k="operator:wikidata" v="Q3587594"/>
  <tag k="power" v="pole"/>
 </node>
 <node id="3696934413" visible="true" version="3" changeset="129816007" timestamp="2022-12-07T10:39:14Z" user="user_5589" uid="5589" lat="49.3961890" lon="5.4162583">
  <tag k="operator" v="Enedis"/>
  <tag k="operator:wikidata" v="Q3587594"/>
  <tag k="power" v="pole"/>
 </node>
 <node id="3696934414" visible="true" version="3" changeset="129816007" timestamp="2022-12-07T10:39:14Z" user="user_5589" uid="5589" lat="49.3966375" lon="5.4150716">
  <tag k="operator" v="Enedis"/>
  <tag k="operator:wikidata" v="Q3587594"/>
  <tag k="power" v="pole"/>
 </node>
 <node id="3696934415" visible="true" version="3" changeset="129816007" timestamp="2022-12-07T10:39:14Z" user="user_5589" uid="5589" lat="49.3971563" lon="5.4136511">
  <tag k="operator" v="Enedis"/>
  <tag k="operator:wikidata" v="Q3587594"/>
  <tag k="power" v="pole"/>
 </node>
 <node id="3696934416" visible="true" version="3" changeset="129816007" timestamp="2022-12-07T10:39:14Z" user="user_5589" uid="5589" lat="49.3977921" lon="5.4119489">
  <tag k="operator" v="Enedis"/>
  <tag k="operator:wikidata" v="Q3587594"/>
  <tag k="power" v="pole"/>
 </node>
 <node id="3696934419" visible="true" version="3" changeset="129816007" timestamp="2022-12-07T10:39:14Z" user="user_5589" uid="5589" lat="49.3983070" lon="5.4105824">
  <tag k="operator" v="Enedis"/>
  <tag k="operator:wikidata" v="Q3587594"/>
  <tag k="power" v="pole"/>
 </node>
 <node id="3696934420" visible="true" version="3" changeset="129816007" timestamp="2022-12-07T10:39:14Z" user="user_5589" uid="5589" lat="49.3979170" lon="5.4089701">
  <tag k="operator" v="Enedis"/>
  <tag k="operator:wikidata" v="Q3587594"/>
  <tag k="power" v="pole"/>
 </node>
 <node id="3696934421" visible="true" version="3" changeset="129816007" timestamp="2022-12-07T10:39:14Z" user="user_5589" uid="5589" lat="49.3974957" lon="5.4073279">
  <tag k="operator" v="Enedis"/>
  <tag k="operator:wikidata" v="Q3587594"/>
  <tag k="power" v="pole"/>
 </node>
 <node id="3696934422" visible="true" version="3" changeset="129816007" timestamp="2022-12-07T10:39:14Z" user="user_5589" uid="5589" lat="49.3971992" lon="5.4061951">
  <tag k="operator" v="Enedis"/>
  <tag k="operator:wikidata" v="Q3587594"/>
  <tag k="power" v="pole"/>
 </node>
 <node id="3696934423" visible="true" version="3" changeset="129816007" timestamp="2022-12-07T10:39:14Z" user="user_5589" uid="5589" lat="49.3967546" lon="5.4044569">
  <tag k="operator" v="Enedis"/>
  <tag k="operator:wikidata" v="Q3587594"/>
  <tag k="power" v="pole"/>
 </node>
 <node id="3696934424" visible="true" version="3" changeset="129816007" timestamp="2022-12-07T10:39:14Z" user="user_5589" uid="5589" lat="49.3963255" lon="5.4027607">
  <tag k="operator" v="Enedis"/>
  <tag k="operator:wikidata" v="Q3587594"/>
  <tag k="power" v="pole"/>
 </node>
 <node id="3696937125" visible="true" version="3" changeset="129816007" timestamp="2022-12-07T10:39:14Z" user="user_5589" uid="5589" lat="49.3958730" lon="5.4010346">
  <tag k="operator" v="Enedis"/>
  <tag k="operator:wikidata" v="Q3587594"/>
  <tag k="power" v="pole"/>
 </node>
 <node id="3696937126" visible="true" version="3" changeset="129816007" timestamp="2022-12-07T10:39:14Z" user="user_5589" uid="5589" lat="49.3955258" lon="5.3996501">
  <tag k="operator" v="Enedis"/>
  <tag k="operator:wikidata" v="Q3587594"/>
  <tag k="power" v="pole"/>
 </node>
 <node id="3696937127" visible="true" version="3" changeset="129816007" timestamp="2022-12-07T10:39:14Z" user="user_5589" uid="5589" lat="49.3948237" lon="5.3969290">
  <tag k="operator" v="Enedis"/>
  <tag k="operator:wikidata" v="Q3587594"/>
  <tag k="power" v="pole"/>
 </node>
 <node id="3696937128" visible="true" version="3" changeset="129816007" timestamp="2022-12-07T10:39:14Z" user="user_5589" uid="5589" lat="49.3945038" lon="5.3955984">
  <tag k="operator" v="Enedis"/>
  <tag k="operator:wikidata" v="Q3587594"/>
  <tag k="power" v="pole"/>
 </node>
 <node id="3696937129" visible="true" version="3" changeset="129816007" timestamp="2022-12-07T10:39:14Z" user="user_5589" uid="5589" lat="49.3951218" lon="5.3980843">
  <tag k="operator" v="Enedis"/>
  <tag k="operator:wikidata" v="Q3587594"/>
  <tag k="power" v="pole"/>
 </node>
 <node id="3696937143" visible="true" version="3" changeset="129816007" timestamp="2022-12-07T10:39:14Z" user="user_5589" uid="5589" lat="49.3848015" lon="5.4677372">
  <tag k="operator" v="Enedis"/>
  <tag k="operator:wikidata" v="Q3587594"/>
  <tag k="power" v="pole"/>
 </node>
 <node id="3696937144" visible="true" version="3" changeset="129816007" timestamp="2022-12-07T10:39:14Z" user="user_5589" uid="5589" lat="49.3843420" lon="5.4695202">
  <tag k="operator" v="Enedis"/>
  <tag k="operator:wikidata" v="Q3587594"/>
  <tag k="power" v="pole"/>
 </node>
 <node id="3696937145" visible="true" version="3" changeset="129816007" timestamp="2022-12-07T10:39:14Z" user="user_5589" uid="5589" lat="49.3838682" lon="5.4712740">
  <tag k="operator" v="Enedis"/>
  <tag k="operator:wikidata" v="Q3587594"/>
  <tag k="power" v="pole"/>
 </node>
 <node id="3696937146" visible="true" version="3" changeset="129816007" timestamp="2022-12-07T10:39:14Z" user="user_5589" uid="5589" lat="49.3834845" lon="5.4727004">
  <tag k="operator" v="Enedis"/>
  <tag k="operator:wikidata" v="Q3587594"/>
  <tag k="power" v="pole"/>
 </node>
 <node id="3696937147" visible="true" version="3" changeset="129816007" timestamp="2022-12-07T10:39:14Z" user="user_5589" uid="5589" lat="49.3829634" lon="5.4746726">
  <tag k="operator" v="Enedis"/>
  <tag k="operator:wikidata" v="Q3587594"/>
  <tag k="power" v="pole"/>
 </node>
 <node id="3696937148" visible="true" version="3" changeset="129816007" timestamp="2022-12-07T10:39:14Z" user="user_5589" uid="5589" lat="49.3825370" lon="5.4762518">
  <tag k="operator" v="Enedis"/>
  <tag k="operator:wikidata" v="Q3587594"/>
  <tag k="power" v="pole"/>
 </node>
 <node id="3696937149" visible="true" version="3" changeset="129816007" timestamp="2022-12-07T10:39:14Z" user="user_5589" uid="5589" lat="49.3820822" lon="5.4779183">
  <tag k="operator" v="Enedis"/>
  <tag k="operator:wikidata" v="Q3587594"/>
  <tag k="power" v="pole"/>
 </node>
 <node id="3696937150" visible="true" version="3" changeset="129816007" timestamp="2022-12-07T10:39:14Z" user="user_5589" uid="5589" lat="49.3814189" lon="5.4791118">
  <tag k="operator" v="Enedis"/>
  <tag k="operator:wikidata" v="Q3587594"/>
  <tag k="power" v="pole"/>
 </node>
 <node id="3696937151" visible="true" version="3" changeset="129816007" timestamp="2022-12-07T10:39:14Z" user="user_5589" uid="5589" lat="49.3802342" lon="5.4812514">
  <tag k="operator" v="Enedis"/>
  <tag k="operator:wikidata" v="Q3587594"/>
  <tag k="power" v="pole"/>
 </node>
 <node id="3696951473" visible="true" version="3" changeset="129816007" timestamp="2022-12-07T10:39:14Z" user="user_5589" uid="5589" lat="49.3807121" lon="5.4803119">
  <tag k="operator" v="Enedis"/>
  <tag k="operator:wikidata" v="Q3587594"/>
  <tag k="power" v="pole"/>
 </node>
 <node id="3696951475" visible="true" version="3" changeset="129816007" timestamp="2022-12-07T10:39:14Z" user="user_5589" uid="5589" lat="49.3795152" lon="5.4830594">
  <tag k="operator" v="Enedis"/>
  <tag k="operator:wikidata" v="Q3587594"/>
  <tag k="power" v="pole"/>
 </node>
 <node id="3696951476" visible="true" version="3" changeset="129816007" timestamp="2022-12-07T10:39:14Z" user="user_5589" uid="5589" lat="49.3801409" lon="5.4820278">
  <tag k="operator" v="Enedis"/>
  <tag k="operator:wikidata" v="Q3587594"/>
  <tag k="power" v="pole"/>
 </node>
 <node id="3696951477" visible="true" version="3" changeset="129816007" timestamp="2022-12-07T10:39:14Z" user="user_5589" uid="5589" lat="49.3788875" lon="5.4840516">
  <tag k="operator" v="Enedis"/>
  <tag k="operator:wikidata" v="Q3587594"/>
  <tag k="power" v="pole"/>
 </node>
 <node id="3696951478" visible="true" version="4" changeset="129816007" timestamp="2022-12-07T10:39:14Z" user="user_5589" uid="5589" lat="49.3777505" lon="5.4859409">
  <tag k="operator" v="Enedis"/>
  <tag k="operator:wikidata" v="Q3587594"/>
  <tag k="power" v="pole"/>
  <tag k="transformer" v="distribution"/>
  <tag k="voltage:primary" v="20000"/>
  <tag k="voltage:secondary" v="400"/>
 </node>
 <node id="3902339166" visible="true" version="3" changeset="129816007" timestamp="2022-12-07T10:39:14Z" user="user_5589" uid="5589" lat="49.3242366" lon="5.4718883">
  <tag k="operator" v="Enedis"/>
  <tag k="operator:wikidata" v="Q3587594"/>
  <tag k="power" v="pole"/>
 </node>
 <node id="3902339167" visible="true" version="3" changeset="129816007" timestamp="2022-12-07T10:39:14Z" user="user_5589" uid="5589" lat="49.3242030" lon="5.4711191">
  <tag k="operator" v="Enedis"/>
  <tag k="operator:wikidata" v="Q3587594"/>
  <tag k="power" v="pole"/>
 </node>
 <node id="3902339168" visible="true" version="3" changeset="129816007" timestamp="2022-12-07T10:39:14Z" user="user_5589" uid="5589" lat="49.3241867" lon="5.4704340">
  <tag k="operator" v="Enedis"/>
  <tag k="operator:wikidata" v="Q3587594"/>
  <tag k="power" v="pole"/>
 </node>
 <node id="5931279290" visible="true" version="1" changeset="62943659" timestamp="2018-09-26T11:35:00Z" user="Jeece" uid="1455268" lat="49.3704224" lon="5.4380243"/>
 <node id="5931279291" visible="true" version="1" changeset="62943659" timestamp="2018-09-26T11:35:00Z" user="Jeece" uid="1455268" lat="49.3708350" lon="5.4376335"/>
 <node id="5931279292" visible="true" version="1" changeset="62943659" timestamp="2018-09-26T11:35:00Z" user="Jeece" uid="1455268" lat="49.3713715" lon="5.4372532"/>
 <node id="5931279293" visible="true" version="1" changeset="62943659" timestamp="2018-09-26T11:35:00Z" user="Jeece" uid="1455268" lat="49.3721486" lon="5.4361653"/>
 <node id="5931279294" visible="true" version="1" changeset="62943659" timestamp="2018-09-26T11:35:00Z" user="Jeece" uid="1455268" lat="49.3727676" lon="5.4353098"/>
 <node id="5931279295" visible="true" version="1" changeset="62943659" timestamp="2018-09-26T11:35:00Z" user="Jeece" uid="1455268" lat="49.3736204" lon="5.4351936"/>
 <node id="5931279296" visible="true" version="1" changeset="62943659" timestamp="2018-09-26T11:35:00Z" user="Jeece" uid="1455268" lat="49.3745282" lon="5.4346021"/>
 <node id="5931279297" visible="true" version="1" changeset="62943659" timestamp="2018-09-26T11:35:00Z" user="Jeece" uid="1455268" lat="49.3747758" lon="5.4344543"/>
 <node id="5931279298" visible="true" version="1" changeset="62943659" timestamp="2018-09-26T11:35:00Z" user="Jeece" uid="1455268" lat="49.3774165" lon="5.4324580"/>
 <node id="5931279299" visible="true" version="1" changeset="62943659" timestamp="2018-09-26T11:35:00Z" user="Jeece" uid="1455268" lat="49.3780698" lon="5.4310110"/>
 <node id="5931279300" visible="true" version="1" changeset="62943659" timestamp="2018-09-26T11:35:00Z" user="Jeece" uid="1455268" lat="49.3784962" lon="5.4297118"/>
 <node id="5931279301" visible="true" version="1" changeset="62943659" timestamp="2018-09-26T11:35:00Z" user="Jeece" uid="1455268" lat="49.3785168" lon="5.4277578"/>
 <node id="5931279302" visible="true" version="1" changeset="62943659" timestamp="2018-09-26T11:35:00Z" user="Jeece" uid="1455268" lat="49.3780561" lon="5.4262580"/>
 <node id="5931279303" visible="true" version="1" changeset="62943659" timestamp="2018-09-26T11:35:00Z" user="Jeece" uid="1455268" lat="49.3784687" lon="5.4260150"/>
 <node id="5931279304" visible="true" version="1" changeset="62943659" timestamp="2018-09-26T11:35:00Z" user="Jeece" uid="1455268" lat="49.3792320" lon="5.4245891"/>
 <node id="5931279305" visible="true" version="1" changeset="62943659" timestamp="2018-09-26T11:35:00Z" user="Jeece" uid="1455268" lat="49.3809511" lon="5.4214416"/>
 <node id="5931279306" visible="true" version="1" changeset="62943659" timestamp="2018-09-26T11:35:00Z" user="Jeece" uid="1455268" lat="49.3816800" lon="5.4214099"/>
 <node id="5931279307" visible="true" version="1" changeset="62943659" timestamp="2018-09-26T11:35:00Z" user="Jeece" uid="1455268" lat="49.3820581" lon="5.4213782"/>
 <node id="5931279308" visible="true" version="1" changeset="62943659" timestamp="2018-09-26T11:35:00Z" user="Jeece" uid="1455268" lat="49.3829245" lon="5.4204488"/>
 <node id="5931279309" visible="true" version="1" changeset="62943659" timestamp="2018-09-26T11:35:00Z" user="Jeece" uid="1455268" lat="49.3832752" lon="5.4194876"/>
 <node id="5931279310" visible="true" version="1" changeset="62943659" timestamp="2018-09-26T11:35:00Z" user="Jeece" uid="1455268" lat="49.3836878" lon="5.4188644"/>
 <node id="5931279311" visible="true" version="1" changeset="62943659" timestamp="2018-09-26T11:35:00Z" user="Jeece" uid="1455268" lat="49.3841416" lon="5.4183363"/>
 <node id="5931279312" visible="true" version="1" changeset="62943659" timestamp="2018-09-26T11:35:00Z" user="Jeece" uid="1455268" lat="49.3845060" lon="5.4178716"/>
 <node id="5931279313" visible="true" version="1" changeset="62943659" timestamp="2018-09-26T11:35:00Z" user="Jeece" uid="1455268" lat="49.3850079" lon="5.4166675"/>
 <node id="5931279314" visible="true" version="1" changeset="62943659" timestamp="2018-09-26T11:35:00Z" user="Jeece" uid="1455268" lat="49.3851661" lon="5.4154634"/>
 <node id="5931279315" visible="true" version="1" changeset="62943659" timestamp="2018-09-26T11:35:00Z" user="Jeece" uid="1455268" lat="49.3854342" lon="5.4147346"/>
 <node id="5931279316" visible="true" version="1" changeset="62943659" timestamp="2018-09-26T11:35:00Z" user="Jeece" uid="1455268" lat="49.3865755" lon="5.4136784"/>
 <node id="5931279317" visible="true" version="1" changeset="62943659" timestamp="2018-09-26T11:35:01Z" user="Jeece" uid="1455268" lat="49.3868093" lon="5.4133087"/>
 <node id="5931279318" visible="true" version="1" changeset="62943659" timestamp="2018-09-26T11:35:01Z" user="Jeece" uid="1455268" lat="49.3879025" lon="5.4112596"/>
 <node id="5931279319" visible="true" version="1" changeset="62943659" timestamp="2018-09-26T11:35:01Z" user="Jeece" uid="1455268" lat="49.3887482" lon="5.4100767"/>
 <node id="5931279320" visible="true" version="2" changeset="127924081" timestamp="2022-10-22T14:12:21Z" user="py_berrard" uid="1075986" lat="49.3912077" lon="5.4073342"/>
 <node id="5931279321" visible="true" version="1" changeset="62943659" timestamp="2018-09-26T11:35:01Z" user="Jeece" uid="1455268" lat="49.3914775" lon="5.4068974"/>
 <node id="5931279322" visible="true" version="1" changeset="62943659" timestamp="2018-09-26T11:35:01Z" user="Jeece" uid="1455268" lat="49.3917113" lon="5.4061053"/>
 <node id="5931279323" visible="true" version="2" changeset="127924081" timestamp="2022-10-22T14:12:21Z" user="py_berrard" uid="1075986" lat="49.3917363" lon="5.4057611"/>
 <node id="5931279324" visible="true" version="1" changeset="62943659" timestamp="2018-09-26T11:35:01Z" user="Jeece" uid="1455268" lat="49.3918831" lon="5.4055560"/>
 <node id="5931279325" visible="true" version="1" changeset="62943659" timestamp="2018-09-26T11:35:01Z" user="Jeece" uid="1455268" lat="49.3914707" lon="5.4051124"/>
 <node id="5931279326" visible="true" version="1" changeset="62943659" timestamp="2018-09-26T11:35:01Z" user="Jeece" uid="1455268" lat="49.3915394" lon="5.4047005"/>
 <node id="5931279327" visible="true" version="1" changeset="62943659" timestamp="2018-09-26T11:35:01Z" user="Jeece" uid="1455268" lat="49.3918556" lon="5.4046583"/>
 <node id="5931279328" visible="true" version="1" changeset="62943659" timestamp="2018-09-26T11:35:01Z" user="Jeece" uid="1455268" lat="49.3919244" lon="5.4043414"/>
 <node id="5931279329" visible="true" version="1" changeset="62943659" timestamp="2018-09-26T11:35:01Z" user="Jeece" uid="1455268" lat="49.3921925" lon="5.4046266"/>
 <node id="5931279330" visible="true" version="1" changeset="62943659" timestamp="2018-09-26T11:35:01Z" user="Jeece" uid="1455268" lat="49.3924400" lon="5.4045843"/>
 <node id="5931279331" visible="true" version="1" changeset="62943659" timestamp="2018-09-26T11:35:01Z" user="Jeece" uid="1455268" lat="49.3928868" lon="5.4048695"/>
 <node id="5931279332" visible="true" version="1" changeset="62943659" timestamp="2018-09-26T11:35:01Z" user="Jeece" uid="1455268" lat="49.3932031" lon="5.4048484"/>
 <node id="5931279333" visible="true" version="1" changeset="62943659" timestamp="2018-09-26T11:35:01Z" user="Jeece" uid="1455268" lat="49.3933474" lon="5.4047216"/>
 <node id="5931279334" visible="true" version="1" changeset="62943659" timestamp="2018-09-26T11:35:01Z" user="Jeece" uid="1455268" lat="49.3934437" lon="5.4040562"/>
 <node id="5931279335" visible="true" version="1" changeset="62943659" timestamp="2018-09-26T11:35:01Z" user="Jeece" uid="1455268" lat="49.3935812" lon="5.4037605"/>
 <node id="5931279336" visible="true" version="1" changeset="62943659" timestamp="2018-09-26T11:35:01Z" user="Jeece" uid="1455268" lat="49.3936362" lon="5.4035070"/>
 <node id="5931279337" visible="true" version="1" changeset="62943659" timestamp="2018-09-26T11:35:01Z" user="Jeece" uid="1455268" lat="49.3940005" lon="5.4033169"/>
 <node id="5931279338" visible="true" version="1" changeset="62943659" timestamp="2018-09-26T11:35:01Z" user="Jeece" uid="1455268" lat="49.3944886" lon="5.4034753"/>
 <node id="5931279339" visible="true" version="1" changeset="62943659" timestamp="2018-09-26T11:35:01Z" user="Jeece" uid="1455268" lat="49.3946467" lon="5.4030845"/>
 <node id="5931279340" visible="true" version="1" changeset="62943659" timestamp="2018-09-26T11:35:01Z" user="Jeece" uid="1455268" lat="49.3949629" lon="5.4030317"/>
 <node id="5931279341" visible="true" version="1" changeset="62943659" timestamp="2018-09-26T11:35:01Z" user="Jeece" uid="1455268" lat="49.3949079" lon="5.4035703"/>
 <node id="5931279342" visible="true" version="1" changeset="62943659" timestamp="2018-09-26T11:35:01Z" user="Jeece" uid="1455268" lat="49.3952448" lon="5.4038027"/>
 <node id="5931279343" visible="true" version="1" changeset="62943659" timestamp="2018-09-26T11:35:01Z" user="Jeece" uid="1455268" lat="49.3954991" lon="5.4036865"/>
 <node id="5931279344" visible="true" version="1" changeset="62943659" timestamp="2018-09-26T11:35:01Z" user="Jeece" uid="1455268" lat="49.3954991" lon="5.4042146"/>
 <node id="5931279345" visible="true" version="1" changeset="62943659" timestamp="2018-09-26T11:35:01Z" user="Jeece" uid="1455268" lat="49.3958566" lon="5.4038872"/>
 <node id="5931279346" visible="true" version="1" changeset="62943659" timestamp="2018-09-26T11:35:01Z" user="Jeece" uid="1455268" lat="49.3958085" lon="5.4030739"/>
 <node id="5931279347" visible="true" version="1" changeset="62943659" timestamp="2018-09-26T11:35:01Z" user="Jeece" uid="1455268" lat="49.3956710" lon="5.4026409"/>
 <node id="5931279348" visible="true" version="1" changeset="62943659" timestamp="2018-09-26T11:35:01Z" user="Jeece" uid="1455268" lat="49.3957329" lon="5.4018276"/>
 <node id="5931279349" visible="true" version="1" changeset="62943659" timestamp="2018-09-26T11:35:01Z" user="Jeece" uid="1455268" lat="49.3959116" lon="5.4017748"/>
 <node id="5931279350" visible="true" version="1" changeset="62943659" timestamp="2018-09-26T11:35:01Z" user="Jeece" uid="1455268" lat="49.3960903" lon="5.4012995"/>
 <node id="5931279351" visible="true" version="1" changeset="62943659" timestamp="2018-09-26T11:35:01Z" user="Jeece" uid="1455268" lat="49.3965440" lon="5.4018276"/>
 <node id="5931279352" visible="true" version="1" changeset="62943659" timestamp="2018-09-26T11:35:01Z" user="Jeece" uid="1455268" lat="49.3972039" lon="5.4015424"/>
 <node id="5931279353" visible="true" version="1" changeset="62943659" timestamp="2018-09-26T11:35:01Z" user="Jeece" uid="1455268" lat="49.3974651" lon="5.4018170"/>
 <node id="5931279354" visible="true" version="1" changeset="62943659" timestamp="2018-09-26T11:35:01Z" user="Jeece" uid="1455268" lat="49.3974857" lon="5.4022395"/>
 <node id="5931279355" visible="true" version="1" changeset="62943659" timestamp="2018-09-26T11:35:01Z" user="Jeece" uid="1455268" lat="49.3977057" lon="5.4018593"/>
 <node id="5931279356" visible="true" version="1" changeset="62943659" timestamp="2018-09-26T11:35:01Z" user="Jeece" uid="1455268" lat="49.3979669" lon="5.4022501"/>
 <node id="5931279357" visible="true" version="1" changeset="62943659" timestamp="2018-09-26T11:35:01Z" user="Jeece" uid="1455268" lat="49.3976988" lon="5.4026514"/>
 <node id="5931279358" visible="true" version="1" changeset="62943659" timestamp="2018-09-26T11:35:01Z" user="Jeece" uid="1455268" lat="49.3979807" lon="5.4027254"/>
 <node id="5931279359" visible="true" version="1" changeset="62943659" timestamp="2018-09-26T11:35:01Z" user="Jeece" uid="1455268" lat="49.3982694" lon="5.4023240"/>
 <node id="5931279360" visible="true" version="1" changeset="62943659" timestamp="2018-09-26T11:35:01Z" user="Jeece" uid="1455268" lat="49.3984687" lon="5.4020283"/>
 <node id="5931279361" visible="true" version="1" changeset="62943659" timestamp="2018-09-26T11:35:01Z" user="Jeece" uid="1455268" lat="49.3986406" lon="5.4024824"/>
 <node id="5931279362" visible="true" version="1" changeset="62943659" timestamp="2018-09-26T11:35:01Z" user="Jeece" uid="1455268" lat="49.3987987" lon="5.4036126"/>
 <node id="5931279363" visible="true" version="1" changeset="62943659" timestamp="2018-09-26T11:35:01Z" user="Jeece" uid="1455268" lat="49.3991698" lon="5.4049434"/>
 <node id="5931279364" visible="true" version="1" changeset="62943659" timestamp="2018-09-26T11:35:01Z" user="Jeece" uid="1455268" lat="49.4000084" lon="5.4054399"/>
 <node id="5931279365" visible="true" version="1" changeset="62943659" timestamp="2018-09-26T11:35:01Z" user="Jeece" uid="1455268" lat="49.4002490" lon="5.4057990"/>
 <node id="5931279366" visible="true" version="1" changeset="62943659" timestamp="2018-09-26T11:35:01Z" user="Jeece" uid="1455268" lat="49.3999397" lon="5.4065595"/>
 <node id="5931279367" visible="true" version="1" changeset="62943659" timestamp="2018-09-26T11:35:01Z" user="Jeece" uid="1455268" lat="49.3998366" lon="5.4070031"/>
 <node id="5931279368" visible="true" version="1" changeset="62943659" timestamp="2018-09-26T11:35:01Z" user="Jeece" uid="1455268" lat="49.4001803" lon="5.4072143"/>
 <node id="5931279369" visible="true" version="1" changeset="62943659" timestamp="2018-09-26T11:35:01Z" user="Jeece" uid="1455268" lat="49.4003796" lon="5.4069397"/>
 <node id="5931279370" visible="true" version="1" changeset="62943659" timestamp="2018-09-26T11:35:01Z" user="Jeece" uid="1455268" lat="49.4005308" lon="5.4072882"/>
 <node id="5931279371" visible="true" version="1" changeset="62943659" timestamp="2018-09-26T11:35:01Z" user="Jeece" uid="1455268" lat="49.4011235" lon="5.4074778"/>
 <node id="6707568836" visible="true" version="1" changeset="73309433" timestamp="2019-08-13T13:38:36Z" user="Jeece" uid="1455268" lat="49.3898450" lon="5.3943637">
  <tag k="name" v="Les gros prs"/>
  <tag k="place" v="locality"/>
 </node>
 <node id="6707568837" visible="true" version="1" changeset="73309433" timestamp="2019-08-13T13:38:36Z" user="Jeece" uid="1455268" lat="49.3939203" lon="5.3998266">
  <tag k="name" v="Blasavya"/>
  <tag k="place" v="locality"/>
 </node>
 <node id="9713849661" visible="true" version="2" changeset="129816007" timestamp="2022-12-07T10:39:14Z" user="user_5589" uid="5589" lat="49.3060462" lon="5.4086510">
  <tag k="operator" v="Enedis"/>
  <tag k="operator:wikidata" v="Q3587594"/>
  <tag k="power" v="pole"/>
  <tag k="source" v="Ortho HR"/>
 </node>
 <node id="10121071584" visible="true" version="1" changeset="127924081" timestamp="2022-10-22T14:12:21Z" user="py_berrard" uid="1075986" lat="49.3917024" lon="5.4058769"/>
 <node id="10121071585" visible="true" version="1" changeset="127924081" timestamp="2022-10-22T14:12:21Z" user="py_berrard" uid="1075986" lat="49.3918202" lon="5.4056530"/>
 <node id="10121071586" visible="true" version="1" changeset="127924081" timestamp="2022-10-22T14:12:21Z" user="py_berrard" uid="1075986" lat="49.3918504" lon="5.4054625"/>
 <node id="10121071587" visible="true" version="1" changeset="127924081" timestamp="2022-10-22T14:12:21Z" user="py_berrard" uid="1075986" lat="49.3917652" lon="5.4053150"/>
 <node id="10121071588" visible="true" version="1" changeset="127924081" timestamp="2022-10-22T14:12:21Z" user="py_berrard" uid="1075986" lat="49.3913847" lon="5.4071765"/>
 <way id="354944803" visible="true" version="14" changeset="129789226" timestamp="2022-12-06T16:15:53Z" user="user_5589" uid="5589">
  <nd ref="3606632362"/>
  <nd ref="3606632361"/>
  <nd ref="3606632360"/>
  <nd ref="3606632359"/>
  <nd ref="3606632358"/>
  <nd ref="3606632357"/>
  <nd ref="3606632356"/>
  <nd ref="3606632355"/>
  <nd ref="3606632354"/>
  <nd ref="3606632353"/>
  <nd ref="3606632346"/>
  <nd ref="3606632345"/>
  <nd ref="3606632344"/>
  <nd ref="3606632343"/>
  <nd ref="3606632342"/>
  <nd ref="3606632341"/>
  <nd ref="3606632339"/>
  <nd ref="3606632337"/>
  <nd ref="3606632336"/>
  <nd ref="3606632334"/>
  <nd ref="3606632335"/>
  <nd ref="3606632333"/>
  <nd ref="3606632369"/>
  <nd ref="3606573367"/>
  <nd ref="3606573366"/>
  <nd ref="3606573365"/>
  <nd ref="3606573364"/>
  <nd ref="3606573363"/>
  <nd ref="3606573361"/>
  <nd ref="3606573362"/>
  <nd ref="3606573360"/>
  <nd ref="3606573359"/>
  <nd ref="3606573358"/>
  <nd ref="3606573356"/>
  <nd ref="3606573357"/>
  <nd ref="3606010839"/>
  <nd ref="3606010840"/>
  <nd ref="3606010838"/>
  <nd ref="3606010836"/>
  <nd ref="3606010837"/>
  <nd ref="3606010835"/>
  <nd ref="3606010834"/>
  <nd ref="3606010833"/>
  <nd ref="3606010832"/>
  <nd ref="3606010831"/>
  <nd ref="3606010829"/>
  <nd ref="3606010830"/>
  <nd ref="3606010828"/>
  <nd ref="3606010827"/>
  <nd ref="3606010826"/>
  <nd ref="3606010825"/>
  <nd ref="3606010824"/>
  <nd ref="3606010823"/>
  <nd ref="3606010822"/>
  <nd ref="3606010821"/>
  <nd ref="3606010820"/>
  <nd ref="3606010819"/>
  <nd ref="3606010817"/>
  <nd ref="3606010816"/>
  <nd ref="3606010818"/>
  <nd ref="3606010815"/>
  <nd ref="3606010814"/>
  <nd ref="3606010813"/>
  <nd ref="3606010812"/>
  <nd ref="3606010811"/>
  <nd ref="3606010810"/>
  <nd ref="3606010809"/>
  <nd ref="3606010808"/>
  <nd ref="3606010807"/>
  <nd ref="3606010806"/>
  <nd ref="3606010805"/>
  <nd ref="3606010804"/>
  <nd ref="3606010803"/>
  <nd ref="3606000046"/>
  <nd ref="3606000045"/>
  <nd ref="3606000044"/>
  <nd ref="3606000043"/>
  <nd ref="3606000042"/>
  <nd ref="3606000041"/>
  <nd ref="3606000040"/>
  <nd ref="3606000038"/>
  <nd ref="3606000037"/>
  <nd ref="3606000036"/>
  <nd ref="3606000035"/>
  <nd ref="3606000034"/>
  <nd ref="3606000032"/>
  <nd ref="3606000033"/>
  <nd ref="3606000028"/>
  <nd ref="3606000027"/>
  <nd ref="3606000026"/>
  <nd ref="3605989050"/>
  <nd ref="3605989051"/>
  <nd ref="3605989052"/>
  <nd ref="3605989033"/>
  <nd ref="3605989032"/>
  <nd ref="3605989031"/>
  <nd ref="3605989030"/>
  <nd ref="3605989029"/>
  <nd ref="3605989028"/>
  <nd ref="3605989027"/>
  <nd ref="3605989026"/>
  <nd ref="3605982740"/>
  <nd ref="3605982739"/>
  <nd ref="3605982737"/>
  <nd ref="3605982735"/>
  <nd ref="3605982736"/>
  <nd ref="3605982734"/>
  <nd ref="3605982733"/>
  <nd ref="3605982732"/>
  <nd ref="3605982731"/>
  <nd ref="3605982730"/>
  <nd ref="3605982729"/>
  <nd ref="3605982728"/>
  <nd ref="3605982726"/>
  <nd ref="3605982725"/>
  <nd ref="9713849661"/>
  <nd ref="3605960446"/>
  <nd ref="3605960445"/>
  <nd ref="3605960444"/>
  <nd ref="3605960443"/>
  <nd ref="3605960442"/>
  <nd ref="3605960441"/>
  <nd ref="3605960440"/>
  <nd ref="3605960439"/>
  <nd ref="3605960438"/>
  <nd ref="3605960437"/>
  <nd ref="3605960436"/>
  <nd ref="3605960434"/>
  <nd ref="3605960435"/>
  <nd ref="3605960433"/>
  <nd ref="3605960432"/>
  <nd ref="3605956795"/>
  <nd ref="3605956793"/>
  <nd ref="3605956794"/>
  <nd ref="3605956790"/>
  <nd ref="3605956786"/>
  <nd ref="3605956787"/>
  <nd ref="3605956788"/>
  <nd ref="3605956783"/>
  <nd ref="3605956782"/>
  <nd ref="3605956784"/>
  <nd ref="3605956781"/>
  <nd ref="3605956780"/>
  <nd ref="3605956779"/>
  <nd ref="3605956778"/>
  <nd ref="3605956776"/>
  <nd ref="3605956777"/>
  <nd ref="3605956773"/>
  <nd ref="3605956774"/>
  <nd ref="3605956775"/>
  <nd ref="3605956772"/>
  <nd ref="3605956771"/>
  <nd ref="3605956770"/>
  <nd ref="3605956769"/>
  <nd ref="3605956768"/>
  <nd ref="3605956767"/>
  <nd ref="3605956766"/>
  <nd ref="3605956764"/>
  <nd ref="3605956763"/>
  <nd ref="3605956765"/>
  <nd ref="3605956749"/>
  <nd ref="3605956748"/>
  <nd ref="3605956747"/>
  <nd ref="3605933714"/>
  <nd ref="3605933713"/>
  <nd ref="3605933715"/>
  <nd ref="3605933716"/>
  <nd ref="3605933717"/>
  <nd ref="3902339166"/>
  <nd ref="3902339167"/>
  <nd ref="3902339168"/>
  <tag k="cables" v="3"/>
  <tag k="operator" v="Enedis"/>
  <tag k="operator:wikidata" v="Q3587594"/>
  <tag k="power" v="minor_line"/>
  <tag k="voltage" v="20000"/>
 </way>
 <way id="365689966" visible="true" version="5" changeset="129816007" timestamp="2022-12-07T10:39:14Z" user="user_5589" uid="5589">
  <nd ref="3606010826"/>
  <nd ref="3696937128"/>
  <nd ref="3696937127"/>
  <nd ref="3696937129"/>
  <nd ref="3696937126"/>
  <nd ref="3696937125"/>
  <nd ref="3696934424"/>
  <nd ref="3696934423"/>
  <nd ref="3696934422"/>
  <nd ref="3696934421"/>
  <nd ref="3696934420"/>
  <nd ref="3696934419"/>
  <nd ref="3696934416"/>
  <nd ref="3696934415"/>
  <nd ref="3696934414"/>
  <nd ref="3696934413"/>
  <nd ref="3696934407"/>
  <nd ref="3696934412"/>
  <nd ref="3696934408"/>
  <nd ref="3696934409"/>
  <nd ref="3696934406"/>
  <nd ref="3696934405"/>
  <nd ref="3696934403"/>
  <nd ref="3696934402"/>
  <nd ref="3696934401"/>
  <nd ref="3696934400"/>
  <nd ref="3696934399"/>
  <nd ref="3696934398"/>
  <nd ref="3696934397"/>
  <nd ref="3696934396"/>
  <nd ref="3696934395"/>
  <nd ref="3696934394"/>
  <nd ref="3696934393"/>
  <nd ref="3696934404"/>
  <nd ref="3696934392"/>
  <nd ref="3696934391"/>
  <nd ref="3696934389"/>
  <nd ref="3696934388"/>
  <nd ref="3696934387"/>
  <nd ref="3696934386"/>
  <nd ref="3696934369"/>
  <nd ref="3696934370"/>
  <nd ref="3696934371"/>
  <nd ref="3696934372"/>
  <nd ref="3696934373"/>
  <nd ref="3696934374"/>
  <nd ref="3696937143"/>
  <nd ref="3696937144"/>
  <nd ref="3696937145"/>
  <nd ref="3696937146"/>
  <nd ref="3696937147"/>
  <nd ref="3696937148"/>
  <nd ref="3696937149"/>
  <nd ref="3696937150"/>
  <nd ref="3696951473"/>
  <nd ref="3696937151"/>
  <nd ref="3696951476"/>
  <nd ref="3696951475"/>
  <nd ref="3696951477"/>
  <nd ref="3696951478"/>
  <tag k="cables" v="3"/>
  <tag k="operator" v="Enedis"/>
  <tag k="operator:wikidata" v="Q3587594"/>
  <tag k="power" v="minor_line"/>
  <tag k="voltage" v="20000"/>
 </way>
 <way id="628273964" visible="true" version="2" changeset="127924081" timestamp="2022-10-22T14:12:21Z" user="py_berrard" uid="1075986">
  <nd ref="5931279290"/>
  <nd ref="5931279291"/>
  <nd ref="5931279292"/>
  <nd ref="5931279293"/>
  <nd ref="5931279294"/>
  <nd ref="5931279295"/>
  <nd ref="5931279296"/>
  <nd ref="5931279297"/>
  <nd ref="5931279298"/>
  <nd ref="5931279299"/>
  <nd ref="5931279300"/>
  <nd ref="5931279301"/>
  <nd ref="5931279302"/>
  <nd ref="5931279303"/>
  <nd ref="5931279304"/>
  <nd ref="5931279305"/>
  <nd ref="5931279306"/>
  <nd ref="5931279307"/>
  <nd ref="5931279308"/>
  <nd ref="5931279309"/>
  <nd ref="5931279310"/>
  <nd ref="5931279311"/>
  <nd ref="5931279312"/>
  <nd ref="5931279313"/>
  <nd ref="5931279314"/>
  <nd ref="5931279315"/>
  <nd ref="5931279316"/>
  <nd ref="5931279317"/>
  <nd ref="5931279318"/>
  <nd ref="5931279319"/>
  <nd ref="5931279320"/>
  <nd ref="10121071588"/>
  <nd ref="5931279321"/>
  <nd ref="5931279322"/>
  <nd ref="10121071584"/>
  <nd ref="5931279323"/>
  <nd ref="10121071585"/>
  <nd ref="5931279324"/>
  <nd ref="10121071586"/>
  <nd ref="10121071587"/>
  <nd ref="5931279325"/>
  <nd ref="5931279326"/>
  <nd ref="5931279327"/>
  <nd ref="5931279328"/>
  <nd ref="5931279329"/>
  <nd ref="5931279330"/>
  <nd ref="5931279331"/>
  <nd ref="5931279332"/>
  <nd ref="5931279333"/>
  <nd ref="5931279334"/>
  <nd ref="5931279335"/>
  <nd ref="5931279336"/>
  <nd ref="5931279337"/>
  <nd ref="5931279338"/>
  <nd ref="5931279339"/>
  <nd ref="5931279340"/>
  <nd ref="5931279341"/>
  <nd ref="5931279342"/>
  <nd ref="5931279343"/>
  <nd ref="5931279344"/>
  <nd ref="5931279345"/>
  <nd ref="5931279346"/>
  <nd ref="5931279347"/>
  <nd ref="5931279348"/>
  <nd ref="5931279349"/>
  <nd ref="5931279350"/>
  <nd ref="5931279351"/>
  <nd ref="5931279352"/>
  <nd ref="5931279353"/>
  <nd ref="5931279354"/>
  <nd ref="5931279355"/>
  <nd ref="5931279356"/>
  <nd ref="5931279357"/>
  <nd ref="5931279358"/>
  <nd ref="5931279359"/>
  <nd ref="5931279360"/>
  <nd ref="5931279361"/>
  <nd ref="5931279362"/>
  <nd ref="5931279363"/>
  <nd ref="5931279364"/>
  <nd ref="5931279365"/>
  <nd ref="5931279366"/>
  <nd ref="5931279367"/>
  <nd ref="5931279368"/>
  <nd ref="5931279369"/>
  <nd ref="5931279370"/>
  <nd ref="5931279371"/>
  <tag k="name" v="La Coutriolle"/>
  <tag k="waterway" v="stream"/>
 </way>
 <way id="636043959" visible="true" version="1" changeset="63682926" timestamp="2018-10-19T15:51:43Z" user="crln1" uid="2351029">
  <nd ref="287747926"/>
  <nd ref="650087905"/>
  <nd ref="2322958985"/>
  <nd ref="2322958987"/>
  <nd ref="287747925"/>
  <nd ref="2322959002"/>
  <nd ref="650087909"/>
  <nd ref="287747924"/>
  <nd ref="2322959036"/>
  <nd ref="2322959044"/>
  <nd ref="287747922"/>
  <nd ref="287747921"/>
  <nd ref="287747920"/>
  <nd ref="2322959102"/>
  <nd ref="287747918"/>
  <nd ref="2322959118"/>
  <nd ref="287747917"/>
  <nd ref="2322959147"/>
  <nd ref="2322959157"/>
  <nd ref="287747916"/>
  <nd ref="2322959159"/>
  <nd ref="287747915"/>
  <nd ref="2322959185"/>
  <nd ref="287747914"/>
  <nd ref="1477978009"/>
  <tag k="highway" v="primary"/>
  <tag k="old_ref" v="N 405"/>
  <tag k="ref" v="D 905"/>
 </way>
 <relation id="6061763" visible="true" version="13" changeset="141760091" timestamp="2023-09-26T07:15:16Z" user="sbelemey" uid="10398649">
  <member type="way" ref="618883932" role=""/>
  <member type="way" ref="618883936" role=""/>
  <member type="way" ref="319417381" role=""/>
  <member type="way" ref="981571804" role=""/>
  <member type="way" ref="1208059926" role=""/>
  <member type="way" ref="981571805" role=""/>
  <member type="way" ref="328278541" role=""/>
  <member type="way" ref="590943159" role=""/>
  <member type="way" ref="590943158" role=""/>
  <member type="way" ref="328277145" role=""/>
  <member type="way" ref="341862746" role=""/>
  <member type="way" ref="328277146" role=""/>
  <member type="way" ref="134416706" role=""/>
  <member type="way" ref="636043960" role=""/>
  <member type="way" ref="939312274" role=""/>
  <member type="way" ref="939312273" role=""/>
  <member type="way" ref="685254402" role=""/>
  <member type="way" ref="636043959" role=""/>
  <member type="way" ref="134416707" role=""/>
  <member type="way" ref="330635807" role=""/>
  <member type="way" ref="330635806" role=""/>
  <member type="way" ref="26270896" role=""/>
  <member type="way" ref="630877222" role=""/>
  <member type="way" ref="630877221" role=""/>
  <member type="way" ref="751723028" role=""/>
  <member type="way" ref="751723026" role=""/>
  <member type="way" ref="1210922653" role=""/>
  <member type="way" ref="1210922654" role=""/>
  <member type="way" ref="1210922652" role=""/>
  <member type="way" ref="38042574" role=""/>
  <member type="way" ref="1210922658" role=""/>
  <member type="way" ref="1210922660" role=""/>
  <member type="way" ref="1210922659" role=""/>
  <member type="way" ref="1210922656" role=""/>
  <member type="way" ref="1210922655" role=""/>
  <member type="way" ref="1210922651" role=""/>
  <member type="way" ref="1210922657" role=""/>
  <member type="way" ref="1206659524" role=""/>
  <member type="way" ref="38042584" role=""/>
  <tag k="name" v="D905(FR:55)"/>
  <tag k="network" v="FR:55:D-road"/>
  <tag k="ref" v="D 905"/>
  <tag k="route" v="road"/>
  <tag k="type" v="route"/>
 </relation>
</osm>
